{"type":"FeatureCollection","features":[{"type":"Feature","id":1,"geometry":{"type":"LineString","coordinates":[[-122.81605377408641,53.89069964791507],[-122.81591612585363,53.890683662832366],[-122.81572064273702,53.8906537651427],[-122.8153921437832,53.89060305297242],[-122.81493460519525,53.890534083977045],[-122.81461033744975,53.89048351999695],[-122.81438330999245,53.89043734789944]]},"properties":{"OBJECTID":1,"LifeCycleStatus":"PRP","GlobalID":"{A038EA32-AD5B-49A8-AD7E-6340B6528FA8}"}},{"type":"Feature","id":2,"geometry":{"type":"LineString","coordinates":[[-122.81605377408641,53.89069964791507],[-122.81618595859157,53.89069860102113],[-122.8164411137165,53.89068798098306],[-122.81667327266551,53.89066805856354],[-122.8168280603918,53.89065477672422],[-122.81686037246207,53.890654046300554]]},"properties":{"OBJECTID":2,"LifeCycleStatus":"PRP","GlobalID":"{1795333C-D325-4337-A39B-8CB92D44AFF8}"}},{"type":"Feature","id":3,"geometry":{"type":"LineString","coordinates":[[-122.81438330999245,53.89043734789944],[-122.81413385973335,53.8903969829235],[-122.81393239965985,53.89036703711319],[-122.81365348439846,53.89032853094586],[-122.81349053252951,53.89030617618214],[-122.81334399723578,53.890287531841004],[-122.81323053032904,53.89027468216241],[-122.8131189899943,53.890273385080114],[-122.8129985964319,53.89027839273709],[-122.8128524852259,53.89029091018885],[-122.81268008695675,53.89031916056195],[-122.81255780320082,53.89034870233275],[-122.81240311720563,53.89040037597673],[-122.81231100116344,53.89043774832262],[-122.812208012042,53.89048728246215],[-122.81211210922302,53.89054449444973],[-122.81201436443195,53.890625575861094],[-122.81194327206673,53.89069089786875],[-122.81188192667702,53.89076098082146],[-122.81183250760985,53.89084183219803],[-122.81179786486233,53.89092904332516],[-122.8117772060091,53.8910330571406],[-122.81178014557919,53.89112723901945],[-122.81178972124445,53.891200677786586],[-122.8118168034905,53.89127908744605],[-122.8119292788985,53.89150313018481],[-122.81203068182879,53.89170599749835],[-122.81220911639478,53.892053504804615],[-122.81233507485523,53.89232573541598],[-122.81236255548369,53.892390330858525],[-122.81238843972771,53.89247503016548],[-122.81240640760522,53.892563995429256],[-122.81240882491612,53.8926324255633],[-122.81239248365421,53.89272047435834],[-122.81236878474688,53.89281030028226],[-122.81227681803622,53.89301349415524],[-122.81225204440916,53.89307522721065]]},"properties":{"OBJECTID":3,"LifeCycleStatus":"PRP","GlobalID":"{FF125615-3841-4868-8288-6800FE47CE59}"}},{"type":"Feature","id":4,"geometry":{"type":"LineString","coordinates":[[-122.82058051741991,53.887899150194706],[-122.82032599568888,53.88802793640185],[-122.81968829604266,53.888412233854105],[-122.81957520968025,53.88849767559769],[-122.8195264925165,53.88859272679253],[-122.81943739515576,53.88871625445448],[-122.81934028762336,53.88883025721625],[-122.8192191487414,53.88891568650215],[-122.81906564035063,53.889039116875544],[-122.81892829417897,53.88914830282259],[-122.81880705068457,53.88925751291466],[-122.8186371874093,53.88943799246975],[-122.81844290227323,53.88968026509457],[-122.81817563526072,53.890041332668304],[-122.81807040643415,53.89016959068566],[-122.81794919908172,53.89026928717473],[-122.81778767239068,53.89038319208062],[-122.81760211231877,53.89046852192916],[-122.81740862297417,53.89052530222645],[-122.81714262878364,53.890591484580106],[-122.81686037246207,53.890654046300554]]},"properties":{"OBJECTID":4,"LifeCycleStatus":"PRP","GlobalID":"{3FBA70A1-F2BD-4DA7-B862-F239A1D214F0}"}},{"type":"Feature","id":5,"geometry":{"type":"LineString","coordinates":[[-122.81205721715821,53.8917576778927],[-122.81055271105375,53.89203083999085],[-122.81052745313613,53.89205160869598],[-122.81052727834786,53.89209025273354],[-122.81057211431892,53.892191393483294],[-122.81075173859124,53.89253352880799],[-122.81052733322754,53.89257517623998]]},"properties":{"OBJECTID":5,"LifeCycleStatus":"PRP","GlobalID":"{59EBC5FE-BFE7-476E-A40A-561980C672A1}"}},{"type":"Feature","id":6,"geometry":{"type":"LineString","coordinates":[[-122.81225204440916,53.89307522721065],[-122.81198829689838,53.8930583572858],[-122.81184660481487,53.89305242787992],[-122.81169197017364,53.8930597949915],[-122.81149859784027,53.89308612663684],[-122.81043803529977,53.89328421832842],[-122.81069666377807,53.89378497889356],[-122.81069013536805,53.893803993020555],[-122.81066102687517,53.89383058220757],[-122.81063361627038,53.89386110635567]]},"properties":{"OBJECTID":6,"LifeCycleStatus":"PRP","GlobalID":"{CA440C97-0171-482D-9E38-9BFF026FCAF6}"}},{"type":"Feature","id":7,"geometry":{"type":"LineString","coordinates":[[-122.80743685237935,53.901197173327596],[-122.80734581753329,53.90108850969583],[-122.80728854584034,53.90099845495725],[-122.80721867299752,53.90088600075818],[-122.8070919556167,53.900724011762925],[-122.80692696779175,53.90050803260154],[-122.80674731721098,53.90027405343993],[-122.80661359028132,53.90008507940059],[-122.80645713417951,53.89987811037936],[-122.8062884161798,53.89964413913613],[-122.80613572648622,53.89944615485098],[-122.80607937016406,53.89934926779392],[-122.80604655633695,53.89924489234244]]},"properties":{"OBJECTID":7,"LifeCycleStatus":"PRP","GlobalID":"{0CF353C7-C8B8-4B1E-A9D5-EE1D099D399F}"}},{"type":"Feature","id":8,"geometry":{"type":"LineString","coordinates":[[-122.83865610390258,53.86553041088017],[-122.83835729543158,53.86559275497367],[-122.8382178587057,53.86561805744566],[-122.83813158393994,53.86562381936198],[-122.83804205464652,53.865613901525144],[-122.83786970214476,53.865574453620646],[-122.83776035862951,53.86554096889243],[-122.83765104563433,53.865499646455575],[-122.8375351787712,53.86543870294612],[-122.83742599550227,53.86536012467591],[-122.8373234807344,53.865279586942805],[-122.83726402345775,53.86521284137283],[-122.837201396002,53.86510883566803],[-122.8371059617009,53.86490870228076],[-122.83700434035711,53.864598761386084],[-122.83692264830219,53.86427904141542],[-122.83676958654326,53.86354745096872],[-122.83667858762878,53.86306105113822],[-122.83663952762019,53.86286884064784],[-122.8366265891141,53.86278647374428],[-122.83662044074116,53.86266293244616],[-122.83662111299311,53.86249037913941],[-122.83664559966505,53.8621649251117],[-122.83667015470198,53.86182181845459],[-122.83668750729264,53.86162183805213],[-122.83668828613567,53.86142183508964],[-122.83667070400324,53.86082965468952],[-122.83665626907073,53.86027668477259],[-122.83666159970193,53.859759047116526],[-122.83665239681054,53.85956490875008],[-122.83664273565384,53.8594923523233],[-122.83661981639541,53.859415850029926],[-122.83659355976678,53.85934522143094],[-122.83652768929413,53.85922552654527],[-122.83645848185435,53.8591077775002],[-122.83638922114541,53.85900768104843],[-122.83629352888234,53.85888206712458],[-122.83618447978381,53.858777988453156],[-122.836072063162,53.858683720131104],[-122.83596957491675,53.85860123074902],[-122.8358868359203,53.85855405572899],[-122.83578417194286,53.85851274062262],[-122.83567158010864,53.85846748401707],[-122.83557882926794,53.8584340199667],[-122.83544628961144,53.858400510284405],[-122.83530046167708,53.85837090105022],[-122.83514797419923,53.858349120150976],[-122.83494902299789,53.858335121815415],[-122.83473178272565,53.858332369096225],[-122.83469185451882,53.85833680817699],[-122.83452124542391,53.85834555221372],[-122.83435532408299,53.858372287750164],[-122.83420879262208,53.858417026128166],[-122.83406607448855,53.85846626367045],[-122.83391854379786,53.8585289676077],[-122.83354627329534,53.85870823268009],[-122.83323678584533,53.858874074672016],[-122.83292872507633,53.85903993582518],[-122.83265683139636,53.85918336727853],[-122.83255065728865,53.859237148034836],[-122.83243834581813,53.85928194097561],[-122.83232033258196,53.85932669888068],[-122.83219808251792,53.85936248956951],[-122.83219665330721,53.85936248757124],[-122.83210866689909,53.85938483487109],[-122.83201785800802,53.85939818102707],[-122.83192467710286,53.85941154176884],[-122.83183011824153,53.85941589439041],[-122.83175503897158,53.85941578916426],[-122.83142340085733,53.8594153238002],[-122.8309092948994,53.8594146005806],[-122.83044887268989,53.859418445081864],[-122.82989577662462,53.85942665057291],[-122.82953372967557,53.859426136883734],[-122.82916741340483,53.859421121954924],[-122.828810563279,53.85942510755183],[-122.82859292445195,53.85942929997739],[-122.82845796710365,53.859433601226804],[-122.82813677432245,53.8594331417102],[-122.82757421183962,53.85943233480515],[-122.82694180041537,53.859431424564676],[-122.82634978708865,53.85943056944994],[-122.82569315514098,53.85942961758309],[-122.82523036397139,53.85942894455342],[-122.82455755106353,53.85943244799217],[-122.82402586880877,53.85943166959191],[-122.82333596972661,53.859430656045944],[-122.8228708067198,53.85942997042628],[-122.82251446152165,53.8594294439773],[-122.82192382417061,53.859437566195325],[-122.8214743137922,53.85944588652907],[-122.82116971635446,53.85945441220558],[-122.82078910077144,53.8594583385386],[-122.8203515030889,53.859457684312545],[-122.81990109221331,53.859452515192736],[-122.81955331108462,53.859447498731654],[-122.81933954147834,53.85944269205257],[-122.81915948425785,53.859433432735685],[-122.81897663789654,53.859415180799104],[-122.81880566634757,53.85939693752418],[-122.81863422776414,53.85937421720468],[-122.81847708578391,53.85934700621659],[-122.81823305299662,53.85930170514692],[-122.81801416012958,53.859265420858506],[-122.8176821888628,53.85923345851682],[-122.817547289705,53.85922426537148],[-122.81727751118589,53.85920137559615],[-122.81712078320498,53.85918766365179],[-122.81699111900008,53.85917398378627],[-122.81685533643261,53.85915129731262],[-122.81672716050333,53.85912414620586],[-122.8166023494073,53.85909248805582],[-122.81648183497789,53.8590518571905],[-122.81641351419754,53.85902929133009],[-122.81634760474628,53.858997731988815],[-122.81628837452418,53.858961688763515],[-122.81623676619301,53.858921163107375],[-122.81619325107683,53.85887615575197],[-122.81615876732721,53.858831162215054],[-122.81613379074054,53.858781689161354],[-122.81611833199666,53.85873223068513],[-122.81609580250631,53.85865175227453],[-122.81607370439353,53.8585630683439],[-122.81605724914303,53.85846698682548],[-122.81601064339085,53.85826018805895]]},"properties":{"OBJECTID":8,"LifeCycleStatus":"PRP","GlobalID":"{DBC7F8E1-AB1D-4B93-B232-63F36250E7FD}"}},{"type":"Feature","id":401,"geometry":{"type":"LineString","coordinates":[[-122.76659916705273,53.9283361081778],[-122.76673182283105,53.92831581021916],[-122.76681008455095,53.92829991852192],[-122.76693175752395,53.92826906502698],[-122.76702957415485,53.928238060652234],[-122.7671156590928,53.928199719427326],[-122.76714774413578,53.92818358404755],[-122.76719449881882,53.92814420816077],[-122.76724460264747,53.92807939358137],[-122.7671993229148,53.92793720927684],[-122.76672267585928,53.92644044269173],[-122.76668446954466,53.9263204600164],[-122.76664966503816,53.92622746381808],[-122.76662593288741,53.92617218388618],[-122.76660130836932,53.92612298263165],[-122.76658483303135,53.926087454553],[-122.76653319244804,53.92602844312437]]},"properties":{"OBJECTID":401,"LifeCycleStatus":"ACT","GlobalID":"{F78C7A9C-2AEF-4382-830D-3D7B72425801}"}},{"type":"Feature","id":402,"geometry":{"type":"LineString","coordinates":[[-122.76557777030672,53.926196754051446],[-122.76567683026143,53.926191864610615],[-122.76578021741527,53.926183171469354],[-122.76589009178748,53.92616940814098],[-122.76597203327873,53.926158277715615],[-122.76608832703712,53.92613929903855],[-122.76620471680519,53.92611538374862],[-122.76631437538857,53.926089075662986],[-122.7664258299742,53.92606019139921],[-122.76653319244804,53.92602844312437],[-122.76690030806596,53.92591988281354],[-122.76795724995273,53.925607324048656],[-122.76843947811074,53.9254571240147],[-122.76857073949522,53.92541247832072]]},"properties":{"OBJECTID":402,"LifeCycleStatus":"ACT","GlobalID":"{9DC8242A-FE95-4F6C-9653-2C00568CB3A1}"}}]}
