{"type":"FeatureCollection","features":[{"type":"Feature","id":1,"geometry":{"type":"Polygon","coordinates":[[[-122.80465672606273,53.86083636027869],[-122.80442610909981,53.86067719117518],[-122.80415093291752,53.86081659795606],[-122.80438133710832,53.86097568634473],[-122.80465672606273,53.86083636027869]]]},"properties":{"OBJECTID":1,"AssetID":"1","SubType":6,"AssetOwner":1,"AssetManager":5,"Location":"3778 Konrath Rd","InstallDate":220924800000,"ShortName":"Hall 3 Vanway","LongName":"Fire Hall 3","BldgArea":535,"BldgType":null,"OperHours":null,"OperDate":null,"ExpectedLife":41,"SubType_TEXT":"Fire Hall","gisuid":100000004,"barcode":"FAC-00000004","GlobalID":"{D05E48AE-1CEC-497A-81BB-2F3DD191742F}"}},{"type":"Feature","id":2,"geometry":{"type":"Polygon","coordinates":[[[-122.7674351795392,53.8805549039492],[-122.76740158823223,53.88057734511954],[-122.7674502477979,53.88060276791448],[-122.76743627683157,53.88061210647005],[-122.76748420837572,53.8806371503396],[-122.76749856103656,53.880627560850414],[-122.76753106657115,53.88064453944405],[-122.76754071642034,53.880638095672694],[-122.7676806132639,53.88071118823949],[-122.76787898446999,53.88057865566424],[-122.7677770841602,53.88052541070026],[-122.76769353387202,53.8805812270558],[-122.76767369381805,53.88057086131051],[-122.76770311660542,53.88055120730303],[-122.76768417152975,53.880541301685376],[-122.76771263234936,53.88052229295846],[-122.7675853863662,53.880455804223736],[-122.76756063580142,53.88047233938373],[-122.76742098265633,53.88039937297913],[-122.76729658813187,53.8804824877332],[-122.7674351795392,53.8805549039492]]]},"properties":{"OBJECTID":2,"AssetID":"2","SubType":7,"AssetOwner":1,"AssetManager":2,"Location":"4011 Lansdowne Rd","InstallDate":157766400000,"ShortName":"SPCA","LongName":"BC SPCA North Cariboo District Office","BldgArea":473,"BldgType":null,"OperHours":null,"OperDate":null,"ExpectedLife":38,"SubType_TEXT":"Leased","gisuid":100000005,"barcode":"FAC-00000005","GlobalID":"{64D71005-363A-413B-B5C6-6793A5FC0E2B}"}},{"type":"Feature","id":3,"geometry":{"type":"Polygon","coordinates":[[[-122.77027125701706,53.88498130455879],[-122.77047330893708,53.884981691036046],[-122.77047269497973,53.88509377162652],[-122.77052334121502,53.88509386844756],[-122.7705239369683,53.88498230913267],[-122.77055433375688,53.88498236723223],[-122.77055370042766,53.88509802505472],[-122.77060513777813,53.885098123353245],[-122.77060576870193,53.88498287897922],[-122.7706385692412,53.88498294165056],[-122.77063913739106,53.88487914801005],[-122.77027180573832,53.88487844564575],[-122.77027125701706,53.88498130455879]]]},"properties":{"OBJECTID":3,"AssetID":"3","SubType":7,"AssetOwner":1,"AssetManager":5,"Location":"2550 Range Rd","InstallDate":252460800000,"ShortName":"Pine Valley Clubhouse","LongName":"Pine Valley Golf Clubhouse","BldgArea":270,"BldgType":null,"OperHours":null,"OperDate":null,"ExpectedLife":36,"SubType_TEXT":"Leased","gisuid":100000006,"barcode":"FAC-00000006","GlobalID":"{27DC40B2-2058-4576-9197-D50B81DA9627}"}},{"type":"Feature","id":4,"geometry":{"type":"Polygon","coordinates":[[[-122.74364632621126,53.894757462251064],[-122.74363799285689,53.89487493469775],[-122.74371114109165,53.894877692918726],[-122.74371233379323,53.89484939642155],[-122.74388004605366,53.894853778725995],[-122.74387768194283,53.89487395197457],[-122.7440587854655,53.89487835697741],[-122.7440643673258,53.894818751911146],[-122.74408397196851,53.894819539712685],[-122.74408736797145,53.8947718021466],[-122.74389444988826,53.894767505683504],[-122.74389468399875,53.89476001572222],[-122.74380830814981,53.89475790349623],[-122.74380866672094,53.894736909175286],[-122.74375561553647,53.89473625555328],[-122.74375467126991,53.8947600158364],[-122.74364632621126,53.894757462251064]]]},"properties":{"OBJECTID":4,"AssetID":"4","SubType":7,"AssetOwner":1,"AssetManager":3,"Location":"1175 Village Ave","InstallDate":31536000000,"ShortName":"Fort George Rec Centre","LongName":"South Fort George Recreation Centre","BldgArea":365,"BldgType":null,"OperHours":null,"OperDate":null,"ExpectedLife":41,"SubType_TEXT":"Leased","gisuid":100000007,"barcode":"FAC-00000007","GlobalID":"{1BFE17E5-E990-4689-89B4-2D219F14D302}"}},{"type":"Feature","id":5,"geometry":{"type":"Polygon","coordinates":[[[-122.76815001187325,53.89578977312835],[-122.76812968776248,53.89579130679696],[-122.76811696697438,53.89579933556465],[-122.7681120926582,53.89580842210475],[-122.76811644459814,53.895816726523215],[-122.76812410134258,53.89582181958529],[-122.76814841852038,53.895824697795945],[-122.76814573754703,53.89588290852177],[-122.76824637871064,53.89588451395597],[-122.76825421889016,53.895908716057335],[-122.76825299084172,53.89592438892761],[-122.76826419143136,53.895938081441216],[-122.76827950500243,53.89594826754589],[-122.76829781470343,53.8959560236564],[-122.76832354343343,53.895962338008346],[-122.76835961530772,53.895966793797925],[-122.76839364204002,53.895964073130536],[-122.76841870419247,53.89595608611456],[-122.76844814104912,53.89593853520739],[-122.76846212144207,53.89592011859421],[-122.76846364507138,53.89588674872954],[-122.76859414078947,53.89588883388129],[-122.76859502240714,53.89586973587503],[-122.76860715412943,53.895869157053745],[-122.76861727581864,53.89586605769059],[-122.76862438490207,53.89586011228248],[-122.7686258506295,53.89585097421273],[-122.76862189570538,53.89584516028074],[-122.76860943543716,53.895841855612545],[-122.76859637314551,53.89584009573539],[-122.76859947104799,53.89577241234915],[-122.76855450673908,53.895771696514494],[-122.76856264033587,53.89559410739693],[-122.7684913672682,53.89559297231069],[-122.7684925444844,53.895567205706094],[-122.7682585487411,53.895563464646415],[-122.7682572866906,53.89559078602595],[-122.76814596447251,53.895588998188956],[-122.7681422441376,53.89567002768841],[-122.76816750317622,53.895670435987476],[-122.7681623970705,53.89578188751873],[-122.76815037611915,53.89578170252073],[-122.76815001187325,53.89578977312835]]]},"properties":{"OBJECTID":5,"AssetID":"5","SubType":5,"AssetOwner":1,"AssetManager":3,"Location":"2833 Recreation Place","InstallDate":31536000000,"ShortName":"Playhouse","LongName":"Prince George Playhouse ","BldgArea":1345,"BldgType":null,"OperHours":null,"OperDate":null,"ExpectedLife":41,"SubType_TEXT":"Cultural","gisuid":100000008,"barcode":"FAC-00000008","GlobalID":"{3CD4462F-8B42-4E34-ACC9-1137A43B8058}"}},{"type":"Feature","id":6,"geometry":{"type":"Polygon","coordinates":[[[-122.64148827253139,53.89569762915423],[-122.64148835018725,53.89594456921596],[-122.64156945023271,53.89594583599919],[-122.64157166810284,53.89603165227601],[-122.64171538243109,53.896030211689045],[-122.64171293240902,53.895939478216626],[-122.64192806757985,53.89594290633288],[-122.64192956816937,53.89569795735815],[-122.64148827253139,53.89569762915423]]]},"properties":{"OBJECTID":6,"AssetID":"6","SubType":7,"AssetOwner":1,"AssetManager":16,"Location":"2451 Blackburn Rd","InstallDate":null,"ShortName":null,"LongName":"Blackburn Community Centre","BldgArea":880,"BldgType":null,"OperHours":null,"OperDate":null,"ExpectedLife":41,"SubType_TEXT":"Leased","gisuid":100000009,"barcode":"FAC-00000009","GlobalID":"{CBF8EA1E-EFDE-4556-8E63-99A230BE0D3B}"}},{"type":"Feature","id":7,"geometry":{"type":"Polygon","coordinates":[[[-122.73757167678495,53.90597766444101],[-122.73748985360385,53.90597895963752],[-122.73749449207052,53.90609128492311],[-122.73738724677084,53.90609291095951],[-122.73739020161125,53.90616298855339],[-122.73748972878204,53.906161525403235],[-122.73749493458746,53.9062804761461],[-122.73758523668243,53.906279190487155],[-122.73757999627992,53.90615843306725],[-122.73758830810395,53.90615828944598],[-122.7375853609429,53.90608936234927],[-122.73757647095081,53.90608946875441],[-122.73757167678495,53.90597766444101]]]},"properties":{"OBJECTID":7,"AssetID":"8","SubType":7,"AssetOwner":1,"AssetManager":3,"Location":"1950 Gorse St","InstallDate":null,"ShortName":"REAPS","LongName":"Recycling Environmental Action Plan Society","BldgArea":813,"BldgType":null,"OperHours":null,"OperDate":null,"ExpectedLife":44,"SubType_TEXT":"Leased","gisuid":100000010,"barcode":"FAC-00000010","GlobalID":"{96534421-E9EA-45B9-A683-9F836AE51A36}"}},{"type":"Feature","id":8,"geometry":{"type":"Polygon","coordinates":[[[-122.75461864064812,53.908240372621854],[-122.75460985318145,53.90794893074124],[-122.75460905401012,53.90794893247864],[-122.75443980795569,53.90794972573812],[-122.75419194713366,53.907950865686146],[-122.75417956758496,53.907950893149426],[-122.75417528250469,53.90795090235347],[-122.75389745047833,53.907951520818706],[-122.75374080360493,53.90795343770689],[-122.75375244730357,53.90789153370315],[-122.75346581354205,53.907873724404844],[-122.75339674945276,53.908194421146895],[-122.75368458838057,53.90821732932108],[-122.7536902569497,53.90819821431189],[-122.75376289057708,53.90820453808647],[-122.75378630698356,53.908074330828775],[-122.7541778530243,53.908077953021234],[-122.75425046641301,53.90807862520371],[-122.75425162026417,53.90824251623511],[-122.75441422772658,53.908241566977246],[-122.75447744398306,53.90824119740901],[-122.7544803725642,53.90824181121578],[-122.75461864064812,53.908240372621854]]]},"properties":{"OBJECTID":8,"AssetID":"9","SubType":7,"AssetOwner":1,"AssetManager":3,"Location":"1491 17th Ave","InstallDate":-252460800000,"ShortName":"CYC","LongName":"Connaught Youth Centre","BldgArea":2553,"BldgType":null,"OperHours":null,"OperDate":null,"ExpectedLife":40,"SubType_TEXT":"Leased","gisuid":100000011,"barcode":"FAC-00000011","GlobalID":"{75AAB329-AA63-4E66-8356-839367E9F249}"}},{"type":"Feature","id":9,"geometry":{"type":"Polygon","coordinates":[[[-122.8034848718246,53.90829923162013],[-122.80348446691869,53.9080611998485],[-122.80349522313367,53.9080527147345],[-122.80350835761358,53.90804021584289],[-122.8035241172422,53.908019748825076],[-122.8035334006289,53.908000736265244],[-122.80353675736967,53.90798932690551],[-122.80353869053772,53.90797636028008],[-122.80353855827995,53.9079623746233],[-122.8035366351804,53.90795048924544],[-122.80353139736421,53.90793457178789],[-122.8035246091411,53.90792142011961],[-122.80351414437646,53.90790673446283],[-122.80350075455529,53.90789256532685],[-122.80348416560037,53.90787893023825],[-122.8034840733463,53.907827239682746],[-122.80333451626005,53.907827318406746],[-122.8033341930972,53.90761419269882],[-122.80312088701845,53.90761429256581],[-122.80312081156393,53.90755588794447],[-122.80266212711558,53.90755613270738],[-122.80266335092466,53.90812000145201],[-122.80268530264057,53.908119713953795],[-122.80268570244532,53.90829972771715],[-122.80280793731588,53.9082996498764],[-122.8028277416309,53.9083383940217],[-122.80284053960288,53.9083359972437],[-122.80285929141323,53.908333187799585],[-122.80287555727513,53.908331380935756],[-122.80289446975381,53.90833000984142],[-122.80292643925836,53.90832941517149],[-122.80294791407772,53.90833021439921],[-122.80296988636341,53.90833204806758],[-122.80299489575903,53.90833544165103],[-122.80301307046625,53.90833881502954],[-122.80303939198168,53.90829950842708],[-122.8034848718246,53.90829923162013]]]},"properties":{"OBJECTID":9,"AssetID":"10","SubType":2,"AssetOwner":1,"AssetManager":5,"Location":"1770 George Paul Lane","InstallDate":883612800000,"ShortName":"Aquatic Centre","LongName":"Aquatic Centre             ","BldgArea":4831,"BldgType":null,"OperHours":null,"OperDate":null,"ExpectedLife":44,"SubType_TEXT":"Aquatic","gisuid":100000012,"barcode":"FAC-00000012","GlobalID":"{9D77C6C1-1168-45CB-831C-2A9E534D8F35}"}},{"type":"Feature","id":10,"geometry":{"type":"Polygon","coordinates":[[[-122.7957187273697,53.90866859679056],[-122.79594699569343,53.908669883704846],[-122.79594766940514,53.90863472351011],[-122.79603953357677,53.90863528404004],[-122.79603932105772,53.90864766025487],[-122.79627865562327,53.90864901027469],[-122.79628010133257,53.908558377004255],[-122.79623069134068,53.908558032515906],[-122.79623671927499,53.90818900146132],[-122.79662549811118,53.908191296367995],[-122.79663047307211,53.9078910222532],[-122.79581957085773,53.907886140825994],[-122.79581535634532,53.908132299016096],[-122.79572793763528,53.908131844744844],[-122.7957187273697,53.90866859679056]]]},"properties":{"OBJECTID":10,"AssetID":"11","SubType":1,"AssetOwner":1,"AssetManager":3,"Location":"4050 18th Ave","InstallDate":315532800000,"ShortName":"Yard Shop","LongName":"18th Ave Yard Shop","BldgArea":4550,"BldgType":null,"OperHours":null,"OperDate":null,"ExpectedLife":47,"SubType_TEXT":"Administration","gisuid":100000013,"barcode":"FAC-00000013","GlobalID":"{5C405694-1228-42F3-BCE5-16778F07348C}"}},{"type":"Feature","id":11,"geometry":{"type":"Polygon","coordinates":[[[-122.79212626797693,53.90887322893211],[-122.79200940125511,53.90887404222112],[-122.7920126572512,53.909036758940836],[-122.79212952442722,53.909035945649116],[-122.79212626797693,53.90887322893211]]]},"properties":{"OBJECTID":11,"AssetID":"12","SubType":1,"AssetOwner":1,"AssetManager":3,"Location":"4050 18th Ave","InstallDate":1136073600000,"ShortName":"Yard Parks Admin","LongName":"18th Ave Parks Admin","BldgArea":130,"BldgType":null,"OperHours":null,"OperDate":null,"ExpectedLife":38,"SubType_TEXT":"Administration","gisuid":100000014,"barcode":"FAC-00000014","GlobalID":"{478B8181-EFAE-4DF9-9FEA-96947EC671A3}"}},{"type":"Feature","id":12,"geometry":{"type":"Polygon","coordinates":[[[-122.79331956651988,53.90920392858291],[-122.79396956897799,53.909204110810926],[-122.79396968248369,53.90909134665337],[-122.79331948348597,53.90909124497897],[-122.79331956651988,53.90920392858291]]]},"properties":{"OBJECTID":12,"AssetID":"13","SubType":1,"AssetOwner":1,"AssetManager":3,"Location":"4050 18th Ave","InstallDate":315532800000,"ShortName":"Yard Carpenter","LongName":"18th Ave Carpenter","BldgArea":530,"BldgType":null,"OperHours":null,"OperDate":null,"ExpectedLife":47,"SubType_TEXT":"Administration","gisuid":100000015,"barcode":"FAC-00000015","GlobalID":"{F5779CFF-975A-45DB-8D8E-FAD238912D5E}"}},{"type":"Feature","id":13,"geometry":{"type":"Polygon","coordinates":[[[-122.79313251707714,53.90920899934181],[-122.79313316254542,53.90909993918555],[-122.79253923145087,53.90909870782801],[-122.79253858439083,53.909207776967676],[-122.79313251707714,53.90920899934181]]]},"properties":{"OBJECTID":13,"AssetID":"14","SubType":1,"AssetOwner":1,"AssetManager":3,"Location":"4050 18th Ave","InstallDate":315532800000,"ShortName":"Yard Solid Waste","LongName":"18th Ave Solid Waste","BldgArea":473,"BldgType":null,"OperHours":null,"OperDate":null,"ExpectedLife":47,"SubType_TEXT":"Administration","gisuid":100000016,"barcode":"FAC-00000016","GlobalID":"{53C01149-1F22-4C7A-A772-22EDBEE32978}"}},{"type":"Feature","id":14,"geometry":{"type":"Polygon","coordinates":[[[-122.7758945811654,53.91071499101441],[-122.77589987639026,53.9108035963309],[-122.77590195950476,53.91084386678448],[-122.7764610320911,53.91083210079516],[-122.7764530126201,53.9107032328552],[-122.7758945811654,53.91071499101441]]]},"properties":{"OBJECTID":14,"AssetID":"15","SubType":7,"AssetOwner":1,"AssetManager":3,"Location":"2880 15th ave","InstallDate":-883612800000,"ShortName":"Studio 2880","LongName":"Studio 2880","BldgArea":905,"BldgType":null,"OperHours":null,"OperDate":null,"ExpectedLife":36,"SubType_TEXT":"Leased","gisuid":100000017,"barcode":"FAC-00000017","GlobalID":"{69722C36-17BC-419C-851C-7465AD4921FC}"}},{"type":"Feature","id":15,"geometry":{"type":"Polygon","coordinates":[[[-122.77524937593257,53.91072706057116],[-122.7752578623701,53.91083347726206],[-122.77525959544357,53.91085943806002],[-122.7753859818562,53.91085591751163],[-122.77538345760718,53.91082702512389],[-122.77559589781525,53.910821148624656],[-122.77558748682544,53.91071753637796],[-122.77524937593257,53.91072706057116]]]},"properties":{"OBJECTID":15,"AssetID":"16","SubType":7,"AssetOwner":1,"AssetManager":3,"Location":"2820 15th ave","InstallDate":-883612800000,"ShortName":"2820 Gallery","LongName":"Studio 2820 Gallery","BldgArea":565,"BldgType":null,"OperHours":null,"OperDate":null,"ExpectedLife":36,"SubType_TEXT":"Leased","gisuid":100000018,"barcode":"FAC-00000018","GlobalID":"{8F4064B9-01EC-4506-9306-FF495F481F55}"}},{"type":"Feature","id":17,"geometry":{"type":"Polygon","coordinates":[[[-122.7497263444317,53.91223214601544],[-122.74978280782483,53.912321488305814],[-122.75060518932136,53.912158501526044],[-122.75034769305395,53.91172769829179],[-122.75019997741752,53.911684679769806],[-122.74949343643932,53.91184055323795],[-122.7497263444317,53.91223214601544]]]},"properties":{"OBJECTID":17,"AssetID":"18","SubType":5,"AssetOwner":1,"AssetManager":3,"Location":"888 Canada Games Way","InstallDate":567993600000,"ShortName":"Public Library","LongName":"Bob Harkins Public Library","BldgArea":5610,"BldgType":null,"OperHours":null,"OperDate":null,"ExpectedLife":41,"SubType_TEXT":"Cultural","gisuid":100000020,"barcode":"FAC-00000020","GlobalID":"{CC75795E-4738-478E-BF3C-B45C919345A8}"}},{"type":"Feature","id":18,"geometry":{"type":"Polygon","coordinates":[[[-122.74633402592282,53.912299332606054],[-122.74637447131617,53.9122924522746],[-122.74641232479901,53.91236913759089],[-122.7463342632352,53.9123857804264],[-122.74637193231426,53.9124451633179],[-122.74645307878826,53.91242441942049],[-122.74651238618696,53.9125282041072],[-122.74648274618205,53.912535628605205],[-122.7465278008234,53.91261736240623],[-122.74665468545915,53.912590665929734],[-122.7466731457923,53.91262438319408],[-122.74725609527485,53.91250100982267],[-122.74723679931903,53.912469466003216],[-122.74741184005572,53.912434493190524],[-122.74739507085154,53.91241056761134],[-122.74768650771681,53.912351023103895],[-122.74747642502876,53.91199948028957],[-122.74718516290604,53.912055654127684],[-122.74716352780244,53.91203587974983],[-122.74698816282951,53.91207688251778],[-122.74700058422974,53.9120997294145],[-122.74643018260399,53.912215775798465],[-122.74641643339118,53.912193528240174],[-122.7462843625009,53.912217058693585],[-122.74633402592282,53.912299332606054]]]},"properties":{"OBJECTID":18,"AssetID":"19","SubType":3,"AssetOwner":1,"AssetManager":5,"Location":"888 Dominion St","InstallDate":-378691200000,"ShortName":"Coliseum","LongName":"Kopar Memorial Arena ","BldgArea":6050,"BldgType":null,"OperHours":null,"OperDate":null,"ExpectedLife":46,"SubType_TEXT":"Arena","gisuid":100000021,"barcode":"FAC-00000021","GlobalID":"{880D271A-7172-4FE3-9973-2460B8DFDFB5}"}},{"type":"Feature","id":19,"geometry":{"type":"Polygon","coordinates":[[[-122.74549090020955,53.91256489226738],[-122.7454305644848,53.91264061587789],[-122.74553624004652,53.91267045780665],[-122.74548685645215,53.912731070978026],[-122.74553757794979,53.912744942580794],[-122.74558675357122,53.91268472330001],[-122.74563609690958,53.91269865710512],[-122.7457001532138,53.91262284352585],[-122.74549090020955,53.91256489226738]]]},"properties":{"OBJECTID":19,"AssetID":"20","SubType":1,"AssetOwner":1,"AssetManager":3,"Location":"1100 Patricia Blvd","InstallDate":-315619200000,"ShortName":"Annex","LongName":"City Hall Annex","BldgArea":216,"BldgType":null,"OperHours":null,"OperDate":null,"ExpectedLife":42,"SubType_TEXT":"Administration","gisuid":100000022,"barcode":"FAC-00000022","GlobalID":"{0B42EE0C-4A8E-4BCA-870D-227E62D9D6E4}"}},{"type":"Feature","id":20,"geometry":{"type":"Polygon","coordinates":[[[-122.74828731806154,53.912506950762015],[-122.7482612545123,53.912501961674465],[-122.74825096681691,53.912516554719204],[-122.74840337111118,53.91255977420461],[-122.74836388909542,53.91260647441275],[-122.74882807423546,53.91274924206254],[-122.74880789941622,53.912770070174666],[-122.74907426345298,53.91284252265484],[-122.74945166806967,53.91238401101481],[-122.74956572907868,53.912357761076315],[-122.7495973093284,53.91236689589904],[-122.74964129147708,53.9123693065247],[-122.74968743335951,53.9123567834543],[-122.74971773501608,53.91233788177208],[-122.74973462706377,53.91230582954636],[-122.74971892939867,53.91227561487249],[-122.74969402906852,53.91225430617431],[-122.74965281228285,53.91224008201302],[-122.74960029268794,53.9122371862099],[-122.74955648844099,53.9122483209704],[-122.74954784103447,53.912230569462054],[-122.74884595173769,53.912017721984995],[-122.74884418753851,53.91200728313858],[-122.74879083042826,53.9119968711975],[-122.74857570481655,53.912146584776636],[-122.74828731806154,53.912506950762015]]]},"properties":{"OBJECTID":20,"AssetID":"21","SubType":5,"AssetOwner":1,"AssetManager":5,"Location":"808 CanadaGames Way","InstallDate":757382400000,"ShortName":"Civic Centre","LongName":"Civic Centre","BldgArea":4578,"BldgType":null,"OperHours":null,"OperDate":null,"ExpectedLife":42,"SubType_TEXT":"Cultural","gisuid":100000023,"barcode":"FAC-00000023","GlobalID":"{520CF8E2-40CB-4589-8DB3-948F84E0549B}"}},{"type":"Feature","id":21,"geometry":{"type":"Polygon","coordinates":[[[-122.75026872711074,53.91267723216666],[-122.75023061660853,53.912667904177844],[-122.75023779369212,53.91265147991575],[-122.75006994643086,53.9126649903168],[-122.75008817472246,53.91270489036576],[-122.75008309063041,53.91274302517585],[-122.75006236811757,53.91278684385414],[-122.75001935793738,53.91282553787337],[-122.7499662706383,53.91285383865758],[-122.74990373862425,53.91288566105054],[-122.74998974066351,53.912959218770524],[-122.75001051706779,53.91295228727689],[-122.7500395866073,53.91295875628512],[-122.75026872711074,53.91267723216666]]]},"properties":{"OBJECTID":21,"AssetID":"22","SubType":5,"AssetOwner":1,"AssetManager":5,"Location":"809 Canada Games Way","InstallDate":757382400000,"ShortName":"Plaza Building","LongName":"Canada Games Plaza","BldgArea":220,"BldgType":null,"OperHours":null,"OperDate":null,"ExpectedLife":40,"SubType_TEXT":"Cultural","gisuid":100000024,"barcode":"FAC-00000024","GlobalID":"{6CA83EAA-F825-4036-902E-1DFE65CD5547}"}},{"type":"Feature","id":22,"geometry":{"type":"Polygon","coordinates":[[[-122.7453272537189,53.912895525613294],[-122.74580830851623,53.91303091993041],[-122.74591908348782,53.91288707550564],[-122.74551446096409,53.91277241283606],[-122.74553757794979,53.912744942580794],[-122.74545251905683,53.91272167981098],[-122.74542752066169,53.91275247951436],[-122.74504862840848,53.91264885661216],[-122.74488157270122,53.91286474258254],[-122.74526672571238,53.912974261982676],[-122.7453272537189,53.912895525613294]]]},"properties":{"OBJECTID":22,"AssetID":"23","SubType":1,"AssetOwner":1,"AssetManager":3,"Location":"1100 Patricia Blvd","InstallDate":-126230400000,"ShortName":"City Hall","LongName":"City Hall","BldgArea":4153,"BldgType":null,"OperHours":null,"OperDate":null,"ExpectedLife":39,"SubType_TEXT":"Administration","gisuid":100000025,"barcode":"FAC-00000025","GlobalID":"{6D5A5755-5B41-4E2F-9BAB-6AEC5578B56D}"}},{"type":"Feature","id":26,"geometry":{"type":"Polygon","coordinates":[[[-122.74975247494167,53.91310383142368],[-122.74974739227184,53.91310219960805],[-122.74960998639025,53.91306335996649],[-122.74960782328968,53.91306612153629],[-122.74960326532907,53.91307189473506],[-122.74958063092527,53.91310054758366],[-122.7495052288295,53.9130893451045],[-122.74947639774328,53.91315241045665],[-122.74939230494272,53.9131370148156],[-122.74936267658198,53.9131742894435],[-122.74940829479395,53.91318614441676],[-122.7492961688286,53.91332007986959],[-122.74927450654585,53.91334745725902],[-122.74925342006081,53.91334288099562],[-122.74921434038471,53.913394246004174],[-122.74923082246796,53.91339835988533],[-122.74919136835658,53.91344836465787],[-122.74917203300505,53.913471667426016],[-122.74920344304549,53.91348329169089],[-122.74917578084991,53.91351313499284],[-122.7492298180925,53.9135282062479],[-122.74921898796026,53.91354155563903],[-122.74934123399288,53.91357716545111],[-122.7493282633108,53.913610479637235],[-122.74937543979618,53.913617377581105],[-122.74938389887943,53.91361512799316],[-122.74945561189261,53.91362729019153],[-122.74950031209926,53.91353473999391],[-122.74975835950525,53.91321452283525],[-122.74968135699149,53.913195003163295],[-122.74974875653204,53.91310859746608],[-122.74975247494167,53.91310383142368]]]},"properties":{"OBJECTID":26,"AssetID":"27","SubType":5,"AssetOwner":1,"AssetManager":16,"Location":"725 Canada Games Way","InstallDate":946684800000,"ShortName":"Art Gallery","LongName":"Two Rivers Gallery","BldgArea":1882,"BldgType":null,"OperHours":null,"OperDate":null,"ExpectedLife":43,"SubType_TEXT":"Cultural","gisuid":100000029,"barcode":"FAC-00000029","GlobalID":"{C4A51F16-8FE0-496C-871E-66CB1B2A6ABD}"}},{"type":"Feature","id":28,"geometry":{"type":"Polygon","coordinates":[[[-122.75703336516446,53.91385971143918],[-122.75712070244138,53.91376075866343],[-122.75715693233566,53.9137719052372],[-122.75721769567801,53.91370307160767],[-122.7571729402696,53.91368930127239],[-122.75718762155178,53.91367266707207],[-122.7568777083299,53.9135773147546],[-122.75686298102525,53.9135939937646],[-122.75663794405202,53.91352476120509],[-122.75648987251584,53.91369250204674],[-122.75703336516446,53.91385971143918]]]},"properties":{"OBJECTID":28,"AssetID":"29","SubType":7,"AssetOwner":1,"AssetManager":3,"Location":"1692 10th Ave","InstallDate":599616000000,"ShortName":"ECRC","LongName":"Elder Citizens Recreation Association","BldgArea":1270,"BldgType":null,"OperHours":null,"OperDate":null,"ExpectedLife":38,"SubType_TEXT":"Leased","gisuid":100000031,"barcode":"FAC-00000031","GlobalID":"{931D32AD-E09D-4439-B222-7D1DB2CBFCE7}"}},{"type":"Feature","id":29,"geometry":{"type":"Polygon","coordinates":[[[-122.74284692780674,53.91375931832069],[-122.74279674812563,53.91374455130766],[-122.74277931147935,53.91376516855764],[-122.74273679135804,53.913752593039554],[-122.74270825181193,53.91378630908294],[-122.74267670338918,53.913777019721245],[-122.74250982025123,53.91397419293684],[-122.74258872156348,53.91399749739158],[-122.74255464524177,53.914037798776],[-122.74321803397135,53.91423327162597],[-122.74324638945473,53.91419976179623],[-122.74336527451102,53.914234889642984],[-122.74346662631909,53.91411517831593],[-122.74343681016923,53.91410636023514],[-122.74350503733754,53.91402574812933],[-122.74355223868658,53.91403969057029],[-122.74359019399868,53.91399478630379],[-122.74354056117964,53.913980128627195],[-122.74355148010235,53.91396720012933],[-122.74284692780674,53.91375931832069]]]},"properties":{"OBJECTID":29,"AssetID":"30","SubType":8,"AssetOwner":1,"AssetManager":2,"Location":"1051 5th Ave","InstallDate":315532800000,"ShortName":null,"LongName":"Plaza Parkade","BldgArea":1153,"BldgType":null,"OperHours":null,"OperDate":null,"ExpectedLife":33,"SubType_TEXT":"Parkade","gisuid":100000032,"barcode":"FAC-00000032","GlobalID":"{CAF0D50C-FD80-4E45-8003-F511C755316E}"}},{"type":"Feature","id":30,"geometry":{"type":"Polygon","coordinates":[[[-122.74901019562394,53.915862201479435],[-122.74963059656439,53.91603568096238],[-122.74974477188121,53.91589520171341],[-122.74988108752646,53.91574131332598],[-122.74924845617693,53.91556919375177],[-122.74901019562394,53.915862201479435]]]},"properties":{"OBJECTID":30,"AssetID":"31","SubType":8,"AssetOwner":1,"AssetManager":2,"Location":"1405 5th Ave","InstallDate":-94694400000,"ShortName":null,"LongName":"5th Ave Parkade","BldgArea":1590,"BldgType":null,"OperHours":null,"OperDate":null,"ExpectedLife":35,"SubType_TEXT":"Parkade","gisuid":100000033,"barcode":"FAC-00000033","GlobalID":"{0E2AC998-E2E5-4A01-A1E7-67F6CA007102}"}},{"type":"Feature","id":31,"geometry":{"type":"Polygon","coordinates":[[[-122.74885689172461,53.916426044169086],[-122.74858652016697,53.91635294472952],[-122.74836513114948,53.916623857839795],[-122.74863691029086,53.91670364784291],[-122.74885689172461,53.916426044169086]]]},"properties":{"OBJECTID":31,"AssetID":"32","SubType":7,"AssetOwner":1,"AssetManager":3,"Location":"425 Brunswick St","InstallDate":-315619200000,"ShortName":"SAC","LongName":"Prince George Seniors Activity Centre","BldgArea":1133,"BldgType":null,"OperHours":null,"OperDate":null,"ExpectedLife":38,"SubType_TEXT":"Leased","gisuid":100000034,"barcode":"FAC-00000034","GlobalID":"{3C60F1D7-08B0-4A05-99CE-06DF1600449C}"}},{"type":"Feature","id":32,"geometry":{"type":"Polygon","coordinates":[[[-122.74586645621486,53.91742275887787],[-122.74607214611905,53.917476690950856],[-122.7461106983592,53.91748153613604],[-122.74616685550657,53.91741541277669],[-122.74618174055415,53.917421349398225],[-122.74629253640285,53.91745158568667],[-122.74641708753083,53.91729230153462],[-122.74629525143435,53.91725738621764],[-122.74632332883631,53.91722196063259],[-122.74628005377058,53.917207587172335],[-122.74608033162203,53.91714891338137],[-122.74586645621486,53.91742275887787]]]},"properties":{"OBJECTID":32,"AssetID":"33","SubType":7,"AssetOwner":1,"AssetManager":3,"Location":"1310 3rd Ave","InstallDate":-631152000000,"ShortName":"3rd Ave","LongName":"PG Farmers Market","BldgArea":900,"BldgType":null,"OperHours":null,"OperDate":null,"ExpectedLife":39,"SubType_TEXT":"Leased","gisuid":100000035,"barcode":"FAC-00000035","GlobalID":"{59E87305-70E9-45B1-8549-B6A8813E12AA}"}},{"type":"Feature","id":33,"geometry":{"type":"Polygon","coordinates":[[[-122.74595644270134,53.91844807438466],[-122.74597985772209,53.91845349877743],[-122.74630417364885,53.91854587158852],[-122.74675219151182,53.91867022332425],[-122.74723261426263,53.91880446554732],[-122.74748188949273,53.918490030106504],[-122.74722153709091,53.91841755988469],[-122.74646418679345,53.91820853679939],[-122.74621350246063,53.91813418831321],[-122.74595644270134,53.91844807438466]]]},"properties":{"OBJECTID":33,"AssetID":"34","SubType":8,"AssetOwner":1,"AssetManager":2,"Location":"1370 2nd Ave","InstallDate":189302400000,"ShortName":null,"LongName":"2nd Ave Parkade","BldgArea":3630,"BldgType":null,"OperHours":null,"OperDate":null,"ExpectedLife":35,"SubType_TEXT":"Parkade","gisuid":100000036,"barcode":"FAC-00000036","GlobalID":"{D733C6F8-DECD-4AD2-8776-78F0E658E5B2}"}},{"type":"Feature","id":34,"geometry":{"type":"Polygon","coordinates":[[[-122.7490044458068,53.91896619186363],[-122.74866071084303,53.91886310789871],[-122.74864094791589,53.918883298673784],[-122.74854538390508,53.91886132952618],[-122.74836628405419,53.91910871942554],[-122.74827940475946,53.9192376059835],[-122.74831036627737,53.919249166610186],[-122.74847734153606,53.91921549659955],[-122.74856002733654,53.91916104027954],[-122.74879737607044,53.91922652967146],[-122.74892042841216,53.91908287008603],[-122.74913604710372,53.9191385972787],[-122.74921654513473,53.91903997757018],[-122.7490044458068,53.91896619186363]]]},"properties":{"OBJECTID":34,"AssetID":"35","SubType":8,"AssetOwner":1,"AssetManager":2,"Location":"177 Victoria St","InstallDate":820454400000,"ShortName":"Westel Parkade","LongName":"Westel Parkade","BldgArea":12750,"BldgType":null,"OperHours":null,"OperDate":null,"ExpectedLife":35,"SubType_TEXT":"Parkade","gisuid":100000037,"barcode":"FAC-00000037","GlobalID":"{8F5D447D-6EBE-4114-B86E-5479881231AA}"}},{"type":"Feature","id":36,"geometry":{"type":"Polygon","coordinates":[[[-122.79260417473185,53.91967054544608],[-122.79266217975216,53.91967204773744],[-122.7926668956782,53.919608366510474],[-122.79237193772205,53.91960085524448],[-122.79236911477477,53.91963890579571],[-122.79201756829144,53.91962978581948],[-122.7920048726605,53.91980070767975],[-122.79232137389813,53.919808913229595],[-122.79235620682893,53.91980994416937],[-122.792350887028,53.9198816866247],[-122.79258803895729,53.91988782181793],[-122.79260417473185,53.91967054544608]]]},"properties":{"OBJECTID":36,"AssetID":"37","SubType":7,"AssetOwner":1,"AssetManager":16,"Location":"777 Kinsmen Pl","InstallDate":347155200000,"ShortName":"Kinsmen Hall","LongName":"Kinsmen Community Complex","BldgArea":943,"BldgType":null,"OperHours":null,"OperDate":null,"ExpectedLife":39,"SubType_TEXT":"Leased","gisuid":100000039,"barcode":"FAC-00000039","GlobalID":"{191251E6-C9C8-401A-8EA4-EF3890B6D677}"}},{"type":"Feature","id":37,"geometry":{"type":"Polygon","coordinates":[[[-122.79371112420948,53.920141565533434],[-122.79363938930994,53.92014210741132],[-122.79363930049838,53.92013850304845],[-122.79355510991262,53.92013912234178],[-122.79355326230976,53.920050667709845],[-122.79348844078315,53.92005113150071],[-122.79348856395028,53.92005702787708],[-122.79333102485984,53.92005816800637],[-122.79333133147942,53.92007316061101],[-122.79331796209169,53.92007326343658],[-122.79331863787014,53.920105999098524],[-122.79333258582702,53.92010590625655],[-122.79333313825504,53.92014512209409],[-122.7933422440042,53.9201450658586],[-122.79334580559522,53.920314937248286],[-122.79341245475298,53.92031446768988],[-122.79341280970785,53.92033201298451],[-122.7935528843461,53.920330986536236],[-122.79363952602756,53.920330524252755],[-122.79363930318802,53.9203201336779],[-122.79369430356584,53.92031975180349],[-122.79369417014975,53.92031283975977],[-122.79371475727145,53.920312686373535],[-122.79371112420948,53.920141565533434]]]},"properties":{"OBJECTID":37,"AssetID":"38","SubType":6,"AssetOwner":1,"AssetManager":5,"Location":"3999 5th Ave","InstallDate":-63158400000,"ShortName":"Hall 2 Ospika","LongName":"Fire Hall 2","BldgArea":750,"BldgType":null,"OperHours":null,"OperDate":null,"ExpectedLife":41,"SubType_TEXT":"Fire Hall","gisuid":100000040,"barcode":"FAC-00000040","GlobalID":"{C17B58A4-808B-40AA-BF33-375ECC2297D6}"}},{"type":"Feature","id":38,"geometry":{"type":"Polygon","coordinates":[[[-122.76855282687595,53.96208635777226],[-122.76855489031593,53.962159604935124],[-122.76859119821873,53.962159279394506],[-122.7685926162555,53.962205965781834],[-122.76880121303235,53.962203841709616],[-122.76880107272709,53.96219889804135],[-122.76884702975703,53.96219839325358],[-122.7688434903016,53.962083286154815],[-122.76855282687595,53.96208635777226]]]},"properties":{"OBJECTID":38,"AssetID":"39","SubType":7,"AssetOwner":1,"AssetManager":3,"Location":"4057 Hart Hwy","InstallDate":-94694400000,"ShortName":"SARS","LongName":"Prince George Search and Rescue Society","BldgArea":365,"BldgType":null,"OperHours":null,"OperDate":null,"ExpectedLife":41,"SubType_TEXT":"Leased","gisuid":100000041,"barcode":"FAC-00000041","GlobalID":"{B2FE5FC0-CB28-4DA9-BD55-8994ABF48806}"}},{"type":"Feature","id":39,"geometry":{"type":"Polygon","coordinates":[[[-122.8015744332386,53.98854777267712],[-122.80177586120412,53.98855063066154],[-122.80177581054166,53.98855166419239],[-122.80192012560062,53.98855370869294],[-122.80192649208007,53.98839803887806],[-122.80196702766145,53.98839860899838],[-122.80196868464708,53.98835795922349],[-122.80192447380007,53.988357329119225],[-122.8019250249196,53.98834403684702],[-122.80177932284639,53.98834196310039],[-122.80177904672996,53.98834872158468],[-122.8015826981176,53.98834593490571],[-122.8015744332386,53.98854777267712]]]},"properties":{"OBJECTID":39,"AssetID":"40","SubType":6,"AssetOwner":1,"AssetManager":5,"Location":"6555 Kelly Rd","InstallDate":315532800000,"ShortName":"Hall 4 Hart","LongName":"Fire Hall 4","BldgArea":535,"BldgType":null,"OperHours":null,"OperDate":null,"ExpectedLife":41,"SubType_TEXT":"Fire Hall","gisuid":100000042,"barcode":"FAC-00000042","GlobalID":"{5462E8E1-39BA-4827-B0E2-74E372A38E6D}"}},{"type":"Feature","id":40,"geometry":{"type":"Polygon","coordinates":[[[-122.81021418487241,53.992632753208575],[-122.80999686310649,53.99263219416118],[-122.80999737256555,53.99258059518053],[-122.80989607890052,53.992580336149985],[-122.8098956412819,53.99263287897805],[-122.80973853752336,53.99263247760493],[-122.80973817864206,53.992674396807125],[-122.80964689108826,53.99267405453774],[-122.8096458237768,53.99281777006813],[-122.80953106128659,53.99281747142352],[-122.80952888533913,53.99310375195026],[-122.80974482111657,53.993104399527525],[-122.80974397267033,53.99321021323894],[-122.81020978391773,53.993211452971344],[-122.81021418487241,53.992632753208575]]]},"properties":{"OBJECTID":40,"AssetID":"41","SubType":3,"AssetOwner":1,"AssetManager":5,"Location":"4833 Heather Rd","InstallDate":189302400000,"ShortName":"Elksentre","LongName":"Elksentre Arena","BldgArea":2573,"BldgType":null,"OperHours":null,"OperDate":null,"ExpectedLife":46,"SubType_TEXT":"Arena","gisuid":100000043,"barcode":"FAC-00000043","GlobalID":"{6A0B202C-D417-4D01-AE17-9B3ACB00E6F3}"}},{"type":"Feature","id":41,"geometry":{"type":"Polygon","coordinates":[[[-122.75019202539599,53.917116434081166],[-122.75041453672449,53.91717660783039],[-122.75036809109791,53.917202824989204],[-122.75051185823419,53.91724360600198],[-122.75052913464799,53.917221377323],[-122.75074310942597,53.91727546016464],[-122.75100220394687,53.91695011612412],[-122.75108606455446,53.916974579099794],[-122.75113961135828,53.91690688183656],[-122.75130904960083,53.91695479993562],[-122.75128314177219,53.91698713141676],[-122.75134307219926,53.91699940064643],[-122.75135344291616,53.91698525355249],[-122.75145271463597,53.91701278389858],[-122.75147341803233,53.91699056217593],[-122.75156755162162,53.917017070636135],[-122.75170395842663,53.91685339913446],[-122.7505247193458,53.91652406142016],[-122.75047666840305,53.916532057595404],[-122.7504900886345,53.91658167602688],[-122.75050015597246,53.91661813120453],[-122.75050838380982,53.916675835972335],[-122.75050978482571,53.916728465150385],[-122.75050450980888,53.91675071988534],[-122.75030569919768,53.916741198405134],[-122.75029336588787,53.91679683587241],[-122.75048523526372,53.9168205115183],[-122.75046785641143,53.91685994539013],[-122.7504453472852,53.91689734515963],[-122.75041419804543,53.91694585869168],[-122.7503693466856,53.916992320295506],[-122.75032108576177,53.917035737950116],[-122.75026771069425,53.91707408579144],[-122.75019202539599,53.917116434081166]]]},"properties":{"OBJECTID":41,"AssetID":"42","SubType":9,"AssetOwner":1,"AssetManager":5,"Location":"455 Victoria St","InstallDate":1420070400000,"ShortName":"RCMP","LongName":"RCMP Detachment ","BldgArea":5913,"BldgType":null,"OperHours":null,"OperDate":null,"ExpectedLife":51,"SubType_TEXT":"Police","gisuid":100000044,"barcode":"FAC-00000044","GlobalID":"{A3378395-A3FF-4C25-ACA3-ED2D52B0C3FC}"}},{"type":"Feature","id":43,"geometry":{"type":"Polygon","coordinates":[[[-122.79392393653069,53.907744654809456],[-122.79455461673547,53.907747543213745],[-122.79455702594284,53.90763076416438],[-122.79458458486111,53.90763008889443],[-122.79458408571486,53.90760694824334],[-122.79451060793131,53.907606822526624],[-122.7945069102492,53.907486779341845],[-122.79396072335564,53.907486205186686],[-122.79396382814527,53.90760190837933],[-122.7938787187342,53.90760103877774],[-122.79387919612854,53.90762851838765],[-122.79391961004353,53.90762822598186],[-122.79392393653069,53.907744654809456]]]},"properties":{"OBJECTID":43,"AssetID":"44","SubType":1,"AssetOwner":1,"AssetManager":3,"Location":"3990 18th Ave","InstallDate":1325376000000,"ShortName":"Yard Admin","LongName":"18th Ave Yard Admin","BldgArea":919,"BldgType":null,"OperHours":null,"OperDate":null,"ExpectedLife":48,"SubType_TEXT":"Administration","gisuid":100000001,"barcode":"FAC-00000001","GlobalID":"{4F613C23-303C-4992-A961-A3E88ABE8F37}"}},{"type":"Feature","id":44,"geometry":{"type":"Polygon","coordinates":[[[-122.80293197497663,53.90542567640573],[-122.80293212970774,53.905392801647494],[-122.80311770481374,53.90539310606324],[-122.80311987755132,53.9049310359816],[-122.80293120654886,53.90493163990006],[-122.80293139802859,53.90489095680753],[-122.80247469575332,53.90489020640871],[-122.80247469295486,53.90489079961719],[-122.80237777024615,53.9048906401419],[-122.80237524924202,53.905424761436606],[-122.80293197497663,53.90542567640573]]]},"properties":{"OBJECTID":44,"AssetID":"45","SubType":3,"AssetOwner":1,"AssetManager":3,"Location":"2187 Ospika Blvd","InstallDate":1388534400000,"ShortName":"Kin 1 Arena","LongName":"Kin Centre 1","BldgArea":5472,"BldgType":null,"OperHours":null,"OperDate":null,"ExpectedLife":49,"SubType_TEXT":"Arena","gisuid":100000046,"barcode":"FAC-00000046","GlobalID":"{F3565E1E-8395-46BF-AD72-429E6555C775}"}},{"type":"Feature","id":45,"geometry":{"type":"Polygon","coordinates":[[[-122.80214883142169,53.904787140681954],[-122.80214871250843,53.904812305978766],[-122.8023251220903,53.90481259539555],[-122.80232524091875,53.90478742560447],[-122.80238168927043,53.90478752188866],[-122.80238530932229,53.90478967150274],[-122.80247516932964,53.90478981935433],[-122.80247519597852,53.90478417039166],[-122.80258484876603,53.904784350718295],[-122.80258497606731,53.904757350743616],[-122.80262203877338,53.90475741167147],[-122.8026220865129,53.90474728443392],[-122.80272282342077,53.90468812866879],[-122.80272284339821,53.90468388857612],[-122.80276066707945,53.90468395071146],[-122.80276059760051,53.90469870003217],[-122.80293230157423,53.904698981951256],[-122.80293344577605,53.904455872063366],[-122.80293355386799,53.90443290545538],[-122.80294229245592,53.90443291979656],[-122.8029424828057,53.904392473759344],[-122.8028055726865,53.90439224899861],[-122.80280613098134,53.90427370278639],[-122.80273285497593,53.90427358242769],[-122.80263508787537,53.90421552506737],[-122.80263556622492,53.90412776513549],[-122.80182670959229,53.904126432928194],[-122.8017846500266,53.90413386405736],[-122.80174221743336,53.90414051371658],[-122.80169945177948,53.90414637972444],[-122.80165639877158,53.90415145316803],[-122.80161309838739,53.904155729619035],[-122.8015695943992,53.904159206902534],[-122.80152592489293,53.904161878340126],[-122.80152553247238,53.90416198105439],[-122.801525143825,53.904162090515975],[-122.80152476274537,53.904162208978114],[-122.80152438924404,53.90416233419384],[-122.80152402331575,53.904162467286675],[-122.80152366495517,53.90416260938007],[-122.80152331608079,53.904162757106704],[-122.80152297668738,53.90416291159007],[-122.801522644867,53.9041630739505],[-122.80152232443541,53.90416324194732],[-122.80152201348474,53.90416341670085],[-122.80152171200972,53.90416359933464],[-122.8015214219288,53.90416378648132],[-122.80152114323671,53.904163979264325],[-122.80152087593346,53.90416417768372],[-122.80152062001372,53.904164382862994],[-122.80152037739602,53.904164591434785],[-122.80152014616712,53.90416480564294],[-122.80151993013756,53.90416502437024],[-122.80151972550215,53.90416524761044],[-122.80151953416876,53.90416547424316],[-122.80151935422954,53.90416570538876],[-122.80151918949495,53.90416593992999],[-122.80151903806242,53.90416617786377],[-122.80151890183983,53.9041664180697],[-122.80151878082187,53.90416666167127],[-122.80151867120873,53.904166907538745],[-122.80151857870813,53.90416715568149],[-122.8015184995202,53.904167404969776],[-122.80151843554222,53.90416765653021],[-122.80151838488233,53.90416790811267],[-122.80151412835332,53.90417040762706],[-122.80136682329584,53.904170164042064],[-122.8013666069035,53.904215779304906],[-122.80130814092384,53.90425011140853],[-122.80123089428236,53.90424998356291],[-122.80123029803433,53.904375585350145],[-122.80110777153045,53.90437538246269],[-122.80110593614401,53.9047617690209],[-122.80118071795555,53.904761892865025],[-122.80120882377166,53.90474539010061],[-122.80130817246379,53.90480438599474],[-122.80133981939062,53.90478580270177],[-122.80170666620704,53.90478640906593],[-122.80170681841537,53.904786409317275],[-122.80170669923118,53.904811575736915],[-122.80188295659151,53.90481186667544],[-122.80188307565915,53.90478670250253],[-122.80214883142169,53.904787140681954]]]},"properties":{"OBJECTID":45,"AssetID":"46","SubType":3,"AssetOwner":1,"AssetManager":5,"Location":"2187 Ospika Blvd","InstallDate":788918400000,"ShortName":"CN Centre","LongName":"CN Centre","BldgArea":14011,"BldgType":null,"OperHours":null,"OperDate":null,"ExpectedLife":47,"SubType_TEXT":"Arena","gisuid":100000002,"barcode":"FAC-00000002","GlobalID":"{7A94718B-3188-47D8-A537-CCE0AE7A734A}"}},{"type":"Feature","id":46,"geometry":{"type":"Polygon","coordinates":[[[-122.8035625609691,53.90485205697459],[-122.8035628296547,53.90479478651121],[-122.80356336426385,53.904675156079534],[-122.80357264133829,53.904675171255704],[-122.8035735323971,53.90448522992208],[-122.80356425536469,53.90448521474599],[-122.80356517644591,53.90428888068511],[-122.80312287565349,53.904288156305185],[-122.80312211033986,53.90445618154583],[-122.80293344577605,53.904455872063366],[-122.80293230157423,53.904698981951256],[-122.80293139802859,53.90489095680753],[-122.80293120654886,53.90493163990006],[-122.80312038175377,53.90493103456127],[-122.80312025541024,53.90485067645223],[-122.8035625609691,53.90485205697459]]]},"properties":{"OBJECTID":46,"AssetID":"47","SubType":3,"AssetOwner":1,"AssetManager":5,"Location":"2187 Ospika Blvd","InstallDate":157766400000,"ShortName":"Kin 3","LongName":"Kin Centre 3","BldgArea":2239,"BldgType":null,"OperHours":null,"OperDate":null,"ExpectedLife":44,"SubType_TEXT":"Arena","gisuid":100000047,"barcode":"FAC-00000047","GlobalID":"{FF12F62C-DD41-4111-A8B3-05F703100DD2}"}},{"type":"Feature","id":47,"geometry":{"type":"Polygon","coordinates":[[[-122.80355983830579,53.90542670519125],[-122.80356051959538,53.90528149270012],[-122.80359070286866,53.90528154207413],[-122.80359169235481,53.90507060477378],[-122.80371265315473,53.90507080256565],[-122.80371328220114,53.90493012558827],[-122.80364856296066,53.90493002539398],[-122.80364875966532,53.904888079484586],[-122.80368611168603,53.904888140557],[-122.8036864456952,53.90481690160549],[-122.80360600352192,53.90481677006423],[-122.80360610630338,53.90479485730065],[-122.8035628296547,53.90479478651121],[-122.8035625609691,53.90485205697459],[-122.80312025541024,53.90485067645223],[-122.80312038175377,53.90493103456127],[-122.80311987755132,53.9049310359816],[-122.80311770481374,53.90539310606324],[-122.80311755022831,53.905425980821846],[-122.80355983830579,53.90542670519125]]]},"properties":{"OBJECTID":47,"AssetID":"48","SubType":3,"AssetOwner":1,"AssetManager":5,"Location":"2187 Ospika Blvd","InstallDate":126230400000,"ShortName":"Kin 2","LongName":"Kin Centre 2","BldgArea":4353,"BldgType":null,"OperHours":null,"OperDate":null,"ExpectedLife":46,"SubType_TEXT":"Arena","gisuid":100000048,"barcode":"FAC-00000048","GlobalID":"{352E597D-F61C-4FB7-BF57-A6B1AF6949E0}"}},{"type":"Feature","id":48,"geometry":{"type":"Polygon","coordinates":[[[-122.80293139802859,53.90489095680753],[-122.80293230157423,53.904698981951256],[-122.80276059760051,53.90469870003217],[-122.80276066707945,53.90468395071146],[-122.80272284339821,53.90468388857612],[-122.80272282342077,53.90468812866879],[-122.8026220865129,53.90474728443392],[-122.80262203877338,53.90475741167147],[-122.80258497606731,53.904757350743616],[-122.80258484876603,53.904784350718295],[-122.80247519597852,53.90478417039166],[-122.80247469575332,53.90489020640871],[-122.80293139802859,53.90489095680753]]]},"properties":{"OBJECTID":48,"AssetID":"49","SubType":3,"AssetOwner":1,"AssetManager":5,"Location":"2187 Ospika Blvd","InstallDate":1136073600000,"ShortName":null,"LongName":"Kin Atrium Connector","BldgArea":644,"BldgType":null,"OperHours":null,"OperDate":null,"ExpectedLife":42,"SubType_TEXT":"Arena","gisuid":100000049,"barcode":"FAC-00000049","GlobalID":"{9020C1DA-F3A2-4A7C-9468-F5DEB5ED4330}"}},{"type":"Feature","id":49,"geometry":{"type":"Polygon","coordinates":[[[-122.80306475561554,53.90604649166156],[-122.80325949310532,53.906044366125876],[-122.80325119590505,53.90576936236463],[-122.80305659668474,53.90577148811277],[-122.80306475561554,53.90604649166156]]]},"properties":{"OBJECTID":49,"AssetID":"50","SubType":7,"AssetOwner":1,"AssetManager":5,"Location":"4199 18th Ave","InstallDate":-315619200000,"ShortName":"Dairy Barn","LongName":"PGX Dairy Barn","BldgArea":350,"BldgType":null,"OperHours":null,"OperDate":null,"ExpectedLife":44,"SubType_TEXT":"Leased","gisuid":100000050,"barcode":"FAC-00000050","GlobalID":"{FC66C769-A707-418A-8C79-1D51DB1F91D9}"}},{"type":"Feature","id":50,"geometry":{"type":"Polygon","coordinates":[[[-122.80327154677529,53.90605444353043],[-122.8035528987349,53.90605133588092],[-122.8035433368051,53.905766479141754],[-122.80326204743264,53.90576963181049],[-122.80327154677529,53.90605444353043]]]},"properties":{"OBJECTID":50,"AssetID":"51","SubType":7,"AssetOwner":1,"AssetManager":5,"Location":"4199 18th Ave","InstallDate":-315619200000,"ShortName":"Beef Barn","LongName":"PGX Beef Barn","BldgArea":525,"BldgType":null,"OperHours":null,"OperDate":null,"ExpectedLife":44,"SubType_TEXT":"Leased","gisuid":100000051,"barcode":"FAC-00000051","GlobalID":"{2F2925F4-B921-4864-8DA8-6FF0A37CB4D5}"}},{"type":"Feature","id":52,"geometry":{"type":"Polygon","coordinates":[[[-122.80232127511921,53.90606386634462],[-122.80279679713288,53.90606281465835],[-122.80279489681767,53.905777925498136],[-122.80231924092148,53.90577900391827],[-122.80232127511921,53.90606386634462]]]},"properties":{"OBJECTID":52,"AssetID":"53","SubType":7,"AssetOwner":1,"AssetManager":5,"Location":"4199 18th Ave","InstallDate":631152000000,"ShortName":null,"LongName":"PGX Barn","BldgArea":953,"BldgType":null,"OperHours":null,"OperDate":null,"ExpectedLife":44,"SubType_TEXT":"Leased","gisuid":100000053,"barcode":"FAC-00000053","GlobalID":"{B47A6EDF-406D-4F01-AB10-EE9510E7F2D5}"}},{"type":"Feature","id":53,"geometry":{"type":"Polygon","coordinates":[[[-122.80094608297978,53.90564402654774],[-122.80095015513957,53.90607776188586],[-122.80105206393729,53.90607747238056],[-122.80105189293215,53.90604939334933],[-122.80148402030306,53.906047978350834],[-122.80148038792935,53.90564231352167],[-122.80094608297978,53.90564402654774]]]},"properties":{"OBJECTID":53,"AssetID":"54","SubType":7,"AssetOwner":1,"AssetManager":5,"Location":"4175 18th Ave","InstallDate":-946771200000,"ShortName":"Gymnastics Drill Hall","LongName":"Exhibition Sports Centre","BldgArea":1580,"BldgType":null,"OperHours":null,"OperDate":null,"ExpectedLife":39,"SubType_TEXT":"Leased","gisuid":100000054,"barcode":"FAC-00000054","GlobalID":"{3A3EC176-9D9D-41A3-A432-19532B964444}"}},{"type":"Feature","id":54,"geometry":{"type":"Polygon","coordinates":[[[-122.8030385465276,53.90620134017276],[-122.80248446903866,53.90620152660701],[-122.8024848757397,53.90680257780212],[-122.80303915893644,53.90680241866154],[-122.8030385465276,53.90620134017276]]]},"properties":{"OBJECTID":54,"AssetID":"55","SubType":7,"AssetOwner":1,"AssetManager":5,"Location":"4199 18th Ave","InstallDate":157766400000,"ShortName":"Livestock Arena","LongName":"Exhibition Grounds Agriplex","BldgArea":2340,"BldgType":null,"OperHours":null,"OperDate":null,"ExpectedLife":44,"SubType_TEXT":"Leased","gisuid":100000055,"barcode":"FAC-00000055","GlobalID":"{3C4ADD31-F2AB-48C2-BF05-CB1CB94FC34D}"}},{"type":"Feature","id":56,"geometry":{"type":"Polygon","coordinates":[[[-122.7654242654114,53.88743613133123],[-122.76542132717637,53.88754685011601],[-122.76539562952532,53.88754651452893],[-122.76539500424775,53.88757191145833],[-122.76542205410686,53.88757224968765],[-122.76542089579529,53.88760793246714],[-122.76566531132812,53.887609537801445],[-122.76566677702718,53.88752021907476],[-122.7656679109302,53.887455878780074],[-122.76550000683045,53.88745397239479],[-122.7655001042604,53.88743656486312],[-122.7654242654114,53.88743613133123]]]},"properties":{"OBJECTID":56,"AssetID":"57","SubType":4,"AssetOwner":1,"AssetManager":13,"Location":"3277 Memorial Park Lane","InstallDate":1136073600000,"ShortName":"Mausoleum","LongName":"Cemetery Mausoleum","BldgArea":190,"BldgType":null,"OperHours":null,"OperDate":null,"ExpectedLife":50,"SubType_TEXT":"Cemetery","gisuid":100000057,"barcode":"FAC-00000057","GlobalID":"{D96A70C2-B828-478B-9C45-EF59DD5498DA}"}},{"type":"Feature","id":57,"geometry":{"type":"Polygon","coordinates":[[[-122.76381642897238,53.88765182035615],[-122.76400501827727,53.887651355327854],[-122.76400413312199,53.88752488189152],[-122.76381552917185,53.88752534688915],[-122.76381642897238,53.88765182035615]]]},"properties":{"OBJECTID":57,"AssetID":"58","SubType":4,"AssetOwner":1,"AssetManager":13,"Location":"3308 Memorial Park Lane","InstallDate":1199145600000,"ShortName":"Storage","LongName":"Cemetery Storage","BldgArea":130,"BldgType":null,"OperHours":null,"OperDate":null,"ExpectedLife":47,"SubType_TEXT":"Cemetery","gisuid":100000058,"barcode":"FAC-00000058","GlobalID":"{21D7D6C6-4084-4F60-A169-39F201BB5E8B}"}},{"type":"Feature","id":58,"geometry":{"type":"MultiPolygon","coordinates":[[[[-122.76472532085981,53.88712017974926],[-122.76479808763361,53.88711960777731],[-122.76479714757484,53.887096670524386],[-122.76482495780797,53.88709633851696],[-122.76482310294246,53.88703444050638],[-122.76479603619055,53.887034463880106],[-122.7647960455915,53.88700975221159],[-122.76472079534908,53.88701098218822],[-122.76472130319152,53.88703569487047],[-122.76457378554845,53.887037317897004],[-122.764575107194,53.8870989384817],[-122.7647239533335,53.887097848355445],[-122.76472532085981,53.88712017974926]]],[[[-122.76443346808986,53.88707108849007],[-122.76443410607979,53.88713486263422],[-122.76455005115433,53.887134063191546],[-122.76454950029229,53.887069982499746],[-122.76443346808986,53.88707108849007]]]]},"properties":{"OBJECTID":58,"AssetID":"59","SubType":4,"AssetOwner":1,"AssetManager":13,"Location":"3300 Memorial Park Lane","InstallDate":1199145600000,"ShortName":"Admin Building","LongName":"Cemetery Administration","BldgArea":135,"BldgType":null,"OperHours":null,"OperDate":null,"ExpectedLife":39,"SubType_TEXT":"Cemetery","gisuid":100000059,"barcode":"FAC-00000059","GlobalID":"{C8161F15-FAFF-4F5C-9C4E-3772A8A418B4}"}},{"type":"Feature","id":60,"geometry":{"type":"Polygon","coordinates":[[[-122.77540111597794,53.90430379890457],[-122.77552479415405,53.9043560082583],[-122.77612703321898,53.90385828500631],[-122.77600302105282,53.903806048680586],[-122.77540111597794,53.90430379890457]]]},"properties":{"OBJECTID":60,"AssetID":"63","SubType":10,"AssetOwner":1,"AssetManager":13,"Location":"2121 Massey Dr","InstallDate":599616000000,"ShortName":"Masich Place","LongName":"Masich Place Stadium","BldgArea":635,"BldgType":null,"OperHours":" ","OperDate":-2209161600000,"ExpectedLife":40,"SubType_TEXT":"Stadium","gisuid":100000061,"barcode":"FAC-00000061","GlobalID":"{278E2B8F-988B-4669-98F4-E78D62055663}"}},{"type":"Feature","id":61,"geometry":{"type":"Polygon","coordinates":[[[-122.77172525951258,53.90140971423458],[-122.77159592320884,53.9014095311953],[-122.77159727167776,53.901502731241784],[-122.77164369094879,53.90156711132213],[-122.77174800752246,53.90162851854324],[-122.77185779591835,53.901655008362155],[-122.77201130983828,53.90165655827724],[-122.77201161513186,53.901578119818296],[-122.77185413597125,53.90157810832026],[-122.77172343587796,53.901504139616776],[-122.77172525431905,53.90141066696201],[-122.77172525951258,53.90140971423458]]]},"properties":{"OBJECTID":61,"AssetID":"62","SubType":10,"AssetOwner":1,"AssetManager":13,"Location":"2420 Massey","InstallDate":1104537600000,"ShortName":"Citizen Field","LongName":"Citizen Field Statium","BldgArea":325,"BldgType":null,"OperHours":" ","OperDate":-2209161600000,"ExpectedLife":40,"SubType_TEXT":"Stadium","gisuid":100000062,"barcode":"FAC-00000062","GlobalID":"{3BA7C7A5-E1C7-4CFD-A1B9-84D04368996E}"}},{"type":"Feature","id":62,"geometry":{"type":"Polygon","coordinates":[[[-122.7684247770851,53.96741634152352],[-122.76829628045553,53.96742032716161],[-122.76830630977767,53.96753320867914],[-122.7684349741348,53.96752927728125],[-122.7684247770851,53.96741634152352]]]},"properties":{"OBJECTID":62,"AssetID":"64","SubType":1,"AssetOwner":1,"AssetManager":20,"Location":"2374 Knell Rd","InstallDate":1325376000000,"ShortName":"Red Barn","LongName":"Red Barn","BldgArea":112,"BldgType":null,"OperHours":" ","OperDate":-2209161600000,"ExpectedLife":44,"SubType_TEXT":"Administration","gisuid":100000063,"barcode":"FAC-00000063","GlobalID":"{A5E1DBF2-FBA9-4CEA-BB9A-66BE1B2B4FA8}"}},{"type":"Feature","id":63,"geometry":{"type":"Polygon","coordinates":[[[-122.79592277450672,53.90918562755398],[-122.79592187956405,53.90903898676521],[-122.79529584222634,53.90903832903262],[-122.79529455989064,53.90918500319202],[-122.79592277450672,53.90918562755398]]]},"properties":{"OBJECTID":63,"AssetID":"61","SubType":1,"AssetOwner":1,"AssetManager":3,"Location":"4001 15th Ave","InstallDate":1483228800000,"ShortName":"Yard Utilities Garage","LongName":"18th Ave Utilities Parking Garage","BldgArea":708,"BldgType":null,"OperHours":" ","OperDate":-2209161600000,"ExpectedLife":40,"SubType_TEXT":"Administration","gisuid":100000003,"barcode":"FAC-00000003","GlobalID":"{AA4F186D-2763-41D7-BF50-29645B02B5D5}"}},{"type":"Feature","id":64,"geometry":{"type":"MultiPolygon","coordinates":[[[[-122.73575952488287,53.91290377206125],[-122.73492084236824,53.912670022299565],[-122.7349354544724,53.91264882471188],[-122.73484307582117,53.91262245647655],[-122.73481674899341,53.912647250380346],[-122.73431812969628,53.912504648949046],[-122.73423665466937,53.91260733722708],[-122.73567923690906,53.91301178486231],[-122.73575952488287,53.91290377206125]]],[[[-122.73599785129737,53.9125013247408],[-122.73576035048382,53.91243536018135],[-122.73556768665954,53.91267989718042],[-122.735802019728,53.91274863246411],[-122.73599785129737,53.9125013247408]]],[[[-122.73475286269037,53.91222313262184],[-122.7343063200129,53.912101085033584],[-122.73420537418603,53.912215837158485],[-122.73435090728904,53.91226224106747],[-122.73437927999612,53.91222212711443],[-122.73466830152259,53.91230138478052],[-122.73469608890672,53.91227191134554],[-122.73471394323373,53.912277199827194],[-122.73472844011637,53.91225706260212],[-122.73475286269037,53.91222313262184]]],[[[-122.73472844011637,53.91225706260212],[-122.73470919014609,53.91228732788016],[-122.73492551377905,53.912345841602225],[-122.73496259297801,53.91230107292936],[-122.73494952294037,53.912295138914665],[-122.73504191185424,53.91218028639548],[-122.73488174022823,53.91213997188893],[-122.73477635506516,53.91226843049927],[-122.73472844011637,53.91225706260212]]]]},"properties":{"OBJECTID":64,"AssetID":"65","SubType":7,"AssetOwner":1,"AssetManager":16,"Location":"505 4th Ave","InstallDate":-946771200000,"ShortName":"Old Yard","LongName":"4th Ave Yard Buildings","BldgArea":0,"BldgType":null,"OperHours":" ","OperDate":-2209161600000,"ExpectedLife":47,"SubType_TEXT":"Leased","gisuid":100000064,"barcode":"FAC-00000064","GlobalID":"{940963FA-C1D5-4852-808D-B7EBDD545941}"}},{"type":"Feature","id":67,"geometry":{"type":"Polygon","coordinates":[[[-122.74280133489786,53.91367850776727],[-122.74361153719508,53.91390800819589],[-122.74395839568662,53.91348277639639],[-122.74414963425244,53.91323423002528],[-122.74470315724552,53.913139126649064],[-122.74439290803768,53.91261918171857],[-122.74354691414095,53.912794764469396],[-122.74351466891142,53.91280145688444],[-122.74313377643405,53.91326977651994],[-122.74280133489786,53.91367850776727]]]},"properties":{"OBJECTID":67,"AssetID":"66","SubType":8,"AssetOwner":1,"AssetManager":3,"Location":"1079 6th Ave","InstallDate":1598918400000,"ShortName":"George St Prkd","LongName":"George St Parkade","BldgArea":null,"BldgType":null,"OperHours":null,"OperDate":null,"ExpectedLife":35,"SubType_TEXT":"Parkade","gisuid":100000065,"barcode":"FAC-00000065","GlobalID":"{ADD44393-FFB9-4522-B867-83A8C6B7BD9B}"}},{"type":"Feature","id":466,"geometry":{"type":"Polygon","coordinates":[[[-122.76935016138926,53.90514889605405],[-122.77038433922579,53.90515278019142],[-122.77037559207288,53.90498534582226],[-122.76935429616873,53.90498338845319],[-122.76935016138926,53.90514889605405]]]},"properties":{"OBJECTID":466,"AssetID":"67","SubType":6,"AssetOwner":1,"AssetManager":5,"Location":"2012 Massey Dr","InstallDate":1577836800000,"ShortName":"Hall 1 Massey","LongName":"Fire Hall 1","BldgArea":null,"BldgType":null,"OperHours":null,"OperDate":null,"ExpectedLife":41,"SubType_TEXT":"Fire Hall","gisuid":100000066,"barcode":"FAC-00000066","GlobalID":"{5A202729-3944-449C-AACD-1F6DCEC8DF69}"}},{"type":"Feature","id":866,"geometry":{"type":"Polygon","coordinates":[[[-122.74796894070772,53.9140566629609],[-122.7479200934524,53.914042752507854],[-122.74787124623639,53.914028840911406],[-122.7478191143402,53.91409264226936],[-122.74775811418162,53.91407527053844],[-122.74788400939839,53.9139211928318],[-122.74790671442888,53.91389340330872],[-122.747902861686,53.913892305416994],[-122.74775493968292,53.9138501541945],[-122.7470464482645,53.913648264710545],[-122.7467246527362,53.91404639853766],[-122.74669719366692,53.914080372839734],[-122.74675745438712,53.91409753345443],[-122.74771318803647,53.914369696227794],[-122.74796810289871,53.914057689213514],[-122.74796894070772,53.9140566629609]]]},"properties":{"OBJECTID":866,"AssetID":"68","SubType":2,"AssetOwner":1,"AssetManager":5,"Location":"670 Quebec St","InstallDate":1651363200000,"ShortName":"Canfor Leisure Pool","LongName":"Canfor Leisure Pool","BldgArea":null,"BldgType":null,"OperHours":null,"OperDate":null,"ExpectedLife":null,"SubType_TEXT":"Aquatic","gisuid":100000067,"barcode":"FAC-00000067","GlobalID":"{91F4C0AC-7CCA-4C22-80DB-F9A2EE9CD1C8}"}},{"type":"Feature","id":1266,"geometry":{"type":"Polygon","coordinates":[[[-122.76552903724867,53.84971218574321],[-122.76550833728365,53.84961597977604],[-122.76548292964242,53.849497890775694],[-122.76535474073611,53.84950667554623],[-122.76536094899265,53.84953952707713],[-122.76525364628671,53.84954690098749],[-122.7652444942056,53.849515860425434],[-122.76507096072363,53.84952806718146],[-122.765118493095,53.84974510536411],[-122.76512298431037,53.84977000351188],[-122.76520202927748,53.84976461025191],[-122.7651969711929,53.8497394773056],[-122.76552903724867,53.84971218574321]]]},"properties":{"OBJECTID":1266,"AssetID":"69","SubType":7,"AssetOwner":1,"AssetManager":3,"Location":"8008 Malaspina Ave","InstallDate":1640995200000,"ShortName":"Malaspina Daycare","LongName":"Malaspina Daycare Kool Cats","BldgArea":null,"BldgType":null,"OperHours":null,"OperDate":null,"ExpectedLife":null,"SubType_TEXT":"Leased","gisuid":100000068,"barcode":"FAC-00000068","GlobalID":"{DC43B6D3-5764-491B-BC4E-64DB4B8D90D7}"}},{"type":"Feature","id":1267,"geometry":{"type":"Polygon","coordinates":[[[-122.78499174414347,53.99096551900008],[-122.78512278278845,53.99088444833221],[-122.78515140590501,53.99089922513321],[-122.78526559841727,53.990827308757744],[-122.78524263251265,53.9908146576308],[-122.78527351228912,53.990795101092296],[-122.78510852088829,53.9907046660642],[-122.7850374269722,53.990749685415025],[-122.78501211901583,53.990735735790146],[-122.78481254145139,53.99086581291501],[-122.78499174414347,53.99096551900008]]]},"properties":{"OBJECTID":1267,"AssetID":"70","SubType":7,"AssetOwner":1,"AssetManager":3,"Location":"6742 Dagg Rd","InstallDate":-631152000000,"ShortName":"Abra-kid-abra Daycare","LongName":"Abra-kid-abra Daycare (Old Eagles Hall)","BldgArea":407,"BldgType":null,"OperHours":null,"OperDate":null,"ExpectedLife":40,"SubType_TEXT":"Leased","gisuid":100000069,"barcode":"FAC-00000069","GlobalID":"{98AE8B07-B6E0-45FA-8C7A-EF8CE2B1CD10}"}},{"type":"Feature","id":1268,"geometry":{"type":"Polygon","coordinates":[[[-122.74336668728239,53.91337904592731],[-122.74383282292204,53.91350272727236],[-122.74386669103478,53.91345823775964],[-122.74392101577745,53.91347265139531],[-122.74399489068023,53.913375603993394],[-122.74395489909574,53.913364992572966],[-122.744019046441,53.91328709373194],[-122.74382771473505,53.913236327796625],[-122.74381190110985,53.913257102580616],[-122.74351873053645,53.91317931528834],[-122.74336668728239,53.91337904592731]]]},"properties":{"OBJECTID":1268,"AssetID":"71","SubType":7,"AssetOwner":1,"AssetManager":3,"Location":"1075 6th Ave","InstallDate":1654473600000,"ShortName":"Parkhouse Daycare","LongName":"YMCA Parkhouse Daycare","BldgArea":null,"BldgType":null,"OperHours":null,"OperDate":null,"ExpectedLife":null,"SubType_TEXT":"Leased","gisuid":100000070,"barcode":"FAC-00000070","GlobalID":"{0FE57D3F-7981-4EAB-9EB8-61F83C5CA353}"}},{"type":"Feature","id":1269,"geometry":{"type":"Polygon","coordinates":[[[-122.78560828118134,53.9913299840263],[-122.78564421224159,53.99130808493146],[-122.7854554689357,53.99120078258567],[-122.78547121120403,53.99119042960152],[-122.7854469568841,53.991175792124956],[-122.7854289774213,53.99118741403061],[-122.78538678392093,53.99116358804148],[-122.78530964921194,53.99121237956763],[-122.78528849995492,53.991200484436106],[-122.78524866765892,53.99122541101154],[-122.78526873018308,53.99123730533205],[-122.78518797896695,53.99128747895702],[-122.78522525733386,53.99131094008529],[-122.78520792275297,53.99132244851369],[-122.78523631429253,53.9913378315659],[-122.78525249591216,53.99132733558837],[-122.78544205088578,53.99143178377841],[-122.7854499551024,53.99142704213878],[-122.78546937229189,53.991438773490245],[-122.78549425203256,53.99142412259608],[-122.78547414195626,53.991412176548124],[-122.78558249014439,53.991345759059264],[-122.78560228064882,53.9913568203296],[-122.7856279023084,53.99134098544516],[-122.78560828118134,53.9913299840263]]]},"properties":{"OBJECTID":1269,"AssetID":"72","SubType":7,"AssetOwner":1,"AssetManager":3,"Location":"6776 Dagg Rd","InstallDate":1672531200000,"ShortName":"Dagg Rd Daycare","LongName":"Tsulh'Choh Daycare","BldgArea":null,"BldgType":null,"OperHours":null,"OperDate":null,"ExpectedLife":null,"SubType_TEXT":"Leased","gisuid":100000071,"barcode":"FAC-00000071","GlobalID":"{442F0159-3AD0-48F4-99C7-62EF04872414}"}},{"type":"Feature","id":1666,"geometry":{"type":"Polygon","coordinates":[[[-122.73716495567186,53.916844432941154],[-122.73752555008393,53.91640002778536],[-122.7377060724136,53.916177277573006],[-122.73769777991282,53.91617493155034],[-122.7355781651075,53.91557531773205],[-122.73554632015929,53.91556630897111],[-122.73534210106732,53.915817911640104],[-122.7350048767608,53.916233375336724],[-122.73503522130466,53.91624195961351],[-122.73615208506472,53.91655791245424],[-122.73716495567186,53.916844432941154]]]},"properties":{"OBJECTID":1666,"AssetID":"288","SubType":7,"AssetOwner":1,"AssetManager":3,"Location":"805 1st Ave","InstallDate":null,"ShortName":null,"LongName":"805 1st Ave","BldgArea":null,"BldgType":null,"OperHours":null,"OperDate":null,"ExpectedLife":null,"SubType_TEXT":"Leased","gisuid":100000072,"barcode":"FAC-00000072","GlobalID":"{C6D58862-1D0E-432E-B0F1-A9A3B5054065}"}}]}
