{"type":"FeatureCollection","features":[{"type":"Feature","id":53,"geometry":{"type":"Point","coordinates":[-122.73606213725117,53.912206751725094]},"properties":{"OBJECTID":53,"LifeCycleStatus":"PRP","ID":"P3","FeatureName":"LW Patricia Greenway","GlobalID":"{FEFD6331-50E4-479D-B021-B3B9B17A0443}"}},{"type":"Feature","id":54,"geometry":{"type":"Point","coordinates":[-122.73449281671252,53.90671320920202]},"properties":{"OBJECTID":54,"LifeCycleStatus":"ACT","ID":"P1","FeatureName":"LTMP Plygnd Renewal","GlobalID":"{7D8C7761-AADC-4A64-84B4-FF94BCFC8933}"}},{"type":"Feature","id":55,"geometry":{"type":"Point","coordinates":[-122.76947505668117,53.90330666097902]},"properties":{"OBJECTID":55,"LifeCycleStatus":"PRP","ID":"P2","FeatureName":"CJG Park Renewal","GlobalID":"{B0972A92-BB6E-4411-8B79-69F106EE5782}"}}]}
