{"type":"FeatureCollection","features":[{"type":"Feature","id":1,"geometry":{"type":"Point","coordinates":[-122.87565227646877,53.83097448858387]},"properties":{"OBJECTID":1,"LifeCycleStatus":"ACT","Comm_Facility":"3","Facility_Desc":"Beaverly Elementary","GlobalID":"{A7CF7EC2-76A0-44FF-ABAB-241532F7C30D}"}},{"type":"Feature","id":2,"geometry":{"type":"Point","coordinates":[-122.76345989139975,53.85041656137103]},"properties":{"OBJECTID":2,"LifeCycleStatus":"ACT","Comm_Facility":"3","Facility_Desc":"Malaspina Elementary","GlobalID":"{49880D35-681A-487E-988F-46A043106C3F}"}},{"type":"Feature","id":3,"geometry":{"type":"Point","coordinates":[-122.7788018636788,53.85841523647795]},"properties":{"OBJECTID":3,"LifeCycleStatus":"ACT","Comm_Facility":"3","Facility_Desc":"Southridge Elementary","GlobalID":"{18FC2609-1804-4743-A3F7-EDCBF033DDE2}"}},{"type":"Feature","id":4,"geometry":{"type":"Point","coordinates":[-122.76432460969531,53.861816637554924]},"properties":{"OBJECTID":4,"LifeCycleStatus":"ACT","Comm_Facility":"3","Facility_Desc":"College Heights Secondary","GlobalID":"{AB66644A-A2A7-47B5-9C09-B87F01FB2CB1}"}},{"type":"Feature","id":5,"geometry":{"type":"Point","coordinates":[-122.76547509320899,53.873200388553876]},"properties":{"OBJECTID":5,"LifeCycleStatus":"ACT","Comm_Facility":"3","Facility_Desc":"College Heights Elementary","GlobalID":"{EF839482-A6AF-478C-A0BD-ED9B447F33E3}"}},{"type":"Feature","id":6,"geometry":{"type":"Point","coordinates":[-122.76205136603899,53.88997978677922]},"properties":{"OBJECTID":6,"LifeCycleStatus":"ACT","Comm_Facility":"3","Facility_Desc":"Van Bien Elementary","GlobalID":"{388BE37F-8AC1-4CAA-AC83-63C88B6A9B6F}"}},{"type":"Feature","id":7,"geometry":{"type":"Point","coordinates":[-122.78620812175089,53.89485617183935]},"properties":{"OBJECTID":7,"LifeCycleStatus":"ACT","Comm_Facility":"3","Facility_Desc":"Westwood Elementary","GlobalID":"{1649F05A-8FB5-4B6C-97C1-660C1177CBA7}"}},{"type":"Feature","id":9,"geometry":{"type":"Point","coordinates":[-122.64279615726552,53.897568217703316]},"properties":{"OBJECTID":9,"LifeCycleStatus":"ACT","Comm_Facility":"3","Facility_Desc":"Blackburn Elementary","GlobalID":"{A5B653C2-8883-4C4F-BD78-99F016BC82E0}"}},{"type":"Feature","id":11,"geometry":{"type":"Point","coordinates":[-122.75714612987856,53.899113291825316]},"properties":{"OBJECTID":11,"LifeCycleStatus":"ACT","Comm_Facility":"3","Facility_Desc":"Aboriginal Choice School","GlobalID":"{47DEC835-6FD3-494F-99DD-1522D4CF86B3}"}},{"type":"Feature","id":12,"geometry":{"type":"Point","coordinates":[-122.80040114124054,53.8994110763272]},"properties":{"OBJECTID":12,"LifeCycleStatus":"ACT","Comm_Facility":"3","Facility_Desc":"Pinewood Elementary","GlobalID":"{EB04F6CE-1952-410A-959A-C30D80771134}"}},{"type":"Feature","id":13,"geometry":{"type":"Point","coordinates":[-122.75195768819944,53.907608860823]},"properties":{"OBJECTID":13,"LifeCycleStatus":"ACT","Comm_Facility":"3","Facility_Desc":"Ron Brent Elementary","GlobalID":"{B6DE4D39-2A7C-4621-BDF4-C8831DE5772B}"}},{"type":"Feature","id":15,"geometry":{"type":"Point","coordinates":[-122.79025674331132,53.92265544299541]},"properties":{"OBJECTID":15,"LifeCycleStatus":"ACT","Comm_Facility":"3","Facility_Desc":"Quinson Elementary","GlobalID":"{9DDDD779-5F54-4D7D-994B-75F1F5174610}"}},{"type":"Feature","id":17,"geometry":{"type":"Point","coordinates":[-122.75786674459717,53.91648411908399]},"properties":{"OBJECTID":17,"LifeCycleStatus":"ACT","Comm_Facility":"3","Facility_Desc":"Duchess Park Secondary","GlobalID":"{B41BA1BE-4FBB-4536-BC43-8B176AD05C39}"}},{"type":"Feature","id":18,"geometry":{"type":"Point","coordinates":[-122.76546937468888,53.88981487920589]},"properties":{"OBJECTID":18,"LifeCycleStatus":"ACT","Comm_Facility":"3","Facility_Desc":"School District 57 Office","GlobalID":"{622ADE79-1CD1-4C75-9A9E-2588B463B699}"}},{"type":"Feature","id":20,"geometry":{"type":"Point","coordinates":[-122.77795206919188,53.88543505557188]},"properties":{"OBJECTID":20,"LifeCycleStatus":"ACT","Comm_Facility":"3","Facility_Desc":"Peden Hill Elementary","GlobalID":"{EA05A985-9F61-4CAC-8B13-41A34B734A77}"}},{"type":"Feature","id":22,"geometry":{"type":"Point","coordinates":[-122.80224502174015,53.946624110669916]},"properties":{"OBJECTID":22,"LifeCycleStatus":"ACT","Comm_Facility":"3","Facility_Desc":"Edgewood Elementary","GlobalID":"{6FF83E13-E97F-44A8-AA68-AFE31342BF52}"}},{"type":"Feature","id":23,"geometry":{"type":"Point","coordinates":[-122.79202719512364,53.97392764308072]},"properties":{"OBJECTID":23,"LifeCycleStatus":"ACT","Comm_Facility":"3","Facility_Desc":"Hart Highlands Elementary","GlobalID":"{46D6331F-97E8-4AFE-AE1B-016552452141}"}},{"type":"Feature","id":25,"geometry":{"type":"Point","coordinates":[-122.77571581570439,53.99518013839694]},"properties":{"OBJECTID":25,"LifeCycleStatus":"ACT","Comm_Facility":"3","Facility_Desc":"Glenview Elementary","GlobalID":"{2539D4EE-9F99-453E-B702-7D8308278A72}"}},{"type":"Feature","id":26,"geometry":{"type":"Point","coordinates":[-122.80462714900199,54.015981139155755]},"properties":{"OBJECTID":26,"LifeCycleStatus":"ACT","Comm_Facility":"3","Facility_Desc":"Springwood Elementary","GlobalID":"{47B826D0-0748-4A57-A83B-5A1BC8B615F0}"}},{"type":"Feature","id":27,"geometry":{"type":"Point","coordinates":[-122.81258210179564,53.92375326350484]},"properties":{"OBJECTID":27,"LifeCycleStatus":"ACT","Comm_Facility":"3","Facility_Desc":"DP Todd Secondary","GlobalID":"{5D0CDE58-ADC9-4297-95FA-57AAE7F12986}"}},{"type":"Feature","id":28,"geometry":{"type":"Point","coordinates":[-122.81186553318334,53.92556261872659]},"properties":{"OBJECTID":28,"LifeCycleStatus":"ACT","Comm_Facility":"3","Facility_Desc":"Heritage Elementary","GlobalID":"{F6FBCED5-A27E-46B2-813A-4C129B25A15E}"}},{"type":"Feature","id":29,"geometry":{"type":"Point","coordinates":[-122.79915545386137,53.91623106879127]},"properties":{"OBJECTID":29,"LifeCycleStatus":"ACT","Comm_Facility":"3","Facility_Desc":"Ecole Lac des Bois","GlobalID":"{737BBA55-2433-4F20-9F8D-71B570723FBE}"}},{"type":"Feature","id":32,"geometry":{"type":"Point","coordinates":[-122.82059453307488,53.85118061690003]},"properties":{"OBJECTID":32,"LifeCycleStatus":"ACT","Comm_Facility":"3","Facility_Desc":"Vanway Elementary","GlobalID":"{2C431EC1-E0F6-40F9-89D7-39B894875A3C}"}},{"type":"Feature","id":33,"geometry":{"type":"Point","coordinates":[-122.76198431856355,53.85762482462837]},"properties":{"OBJECTID":33,"LifeCycleStatus":"ACT","Comm_Facility":"3","Facility_Desc":"Gladstone Elementary","GlobalID":"{2A90F2B4-66E4-4EF7-83E3-9F7A4895C76B}"}},{"type":"Feature","id":34,"geometry":{"type":"Point","coordinates":[-122.78462478676802,53.90547671107061]},"properties":{"OBJECTID":34,"LifeCycleStatus":"ACT","Comm_Facility":"3","Facility_Desc":"CNC","GlobalID":"{604EF03F-E636-4479-ACEF-30F98C0E6BB1}"}},{"type":"Feature","id":35,"geometry":{"type":"Point","coordinates":[-122.77788204827831,53.90253739397162]},"properties":{"OBJECTID":35,"LifeCycleStatus":"ACT","Comm_Facility":"3","Facility_Desc":"Prince George Secondary","GlobalID":"{BB563A0E-C618-4098-ADC4-B582F0F88631}"}},{"type":"Feature","id":36,"geometry":{"type":"Point","coordinates":[-122.77143893180673,53.90686980727216]},"properties":{"OBJECTID":36,"LifeCycleStatus":"ACT","Comm_Facility":"3","Facility_Desc":"Ecole Elementaire Franco-Nord","GlobalID":"{47B61047-7EC1-42A9-B279-925FDC918ECA}"}},{"type":"Feature","id":37,"geometry":{"type":"Point","coordinates":[-122.77822043148545,53.91344125208425]},"properties":{"OBJECTID":37,"LifeCycleStatus":"ACT","Comm_Facility":"3","Facility_Desc":"Harwin Elementary","GlobalID":"{2F60F874-F442-433C-BD4D-DFDF3863BA33}"}},{"type":"Feature","id":38,"geometry":{"type":"Point","coordinates":[-122.79251541707295,53.9147866409399]},"properties":{"OBJECTID":38,"LifeCycleStatus":"ACT","Comm_Facility":"3","Facility_Desc":"Spruceland Traditional Choice Elementary","GlobalID":"{2BAA1059-F790-41F9-876A-F7A465B4A7E1}"}},{"type":"Feature","id":39,"geometry":{"type":"Point","coordinates":[-122.81183244917275,53.91602290866994]},"properties":{"OBJECTID":39,"LifeCycleStatus":"ACT","Comm_Facility":"3","Facility_Desc":"Foothills Elementary","GlobalID":"{AD976792-00E8-44AB-AEF2-F96ECF19F6C9}"}},{"type":"Feature","id":40,"geometry":{"type":"Point","coordinates":[-122.82306003148544,53.8850226784299]},"properties":{"OBJECTID":40,"LifeCycleStatus":"ACT","Comm_Facility":"3","Facility_Desc":"UNBC","GlobalID":"{916ED6F6-2C7D-4FD3-8564-E534174F2EEB}"}},{"type":"Feature","id":41,"geometry":{"type":"Point","coordinates":[-122.80443102351632,53.997623513280594]},"properties":{"OBJECTID":41,"LifeCycleStatus":"ACT","Comm_Facility":"3","Facility_Desc":"Shas Ti Kelly Road Secondary","GlobalID":"{2B4C2C22-2DD0-4534-8EA1-9522AB34BDAF}"}},{"type":"Feature","id":42,"geometry":{"type":"Point","coordinates":[-122.80876253366291,53.9949084106753]},"properties":{"OBJECTID":42,"LifeCycleStatus":"ACT","Comm_Facility":"3","Facility_Desc":"Heather Park Elementary","GlobalID":"{A4B2829E-E87A-4FF5-ACEA-F7584A0B790E}"}},{"type":"Feature","id":43,"geometry":{"type":"Point","coordinates":[-122.77046682007544,53.90203486192408]},"properties":{"OBJECTID":43,"LifeCycleStatus":"ACT","Comm_Facility":"4","Facility_Desc":"Carrie Jane Gray Park","GlobalID":"{3A334862-599F-4B57-ABAD-D5278C9DE317}"}},{"type":"Feature","id":44,"geometry":{"type":"Point","coordinates":[-122.77525226809635,53.91240490288324]},"properties":{"OBJECTID":44,"LifeCycleStatus":"ACT","Comm_Facility":"4","Facility_Desc":"Freeman Park","GlobalID":"{FDFB4ADD-630F-49F0-A2BA-D3A866C3EACD}"}},{"type":"Feature","id":45,"geometry":{"type":"Point","coordinates":[-122.80074662872725,53.90879024720533]},"properties":{"OBJECTID":45,"LifeCycleStatus":"ACT","Comm_Facility":"4","Facility_Desc":"Exhibition Park (Fields)","GlobalID":"{68FAA718-DFFE-409A-90DA-89FD6046A8C9}"}},{"type":"Feature","id":46,"geometry":{"type":"Point","coordinates":[-122.7749264327677,53.903826217490405]},"properties":{"OBJECTID":46,"LifeCycleStatus":"ACT","Comm_Facility":"1","Facility_Desc":"Masich Place Stadium","GlobalID":"{2A250854-F9C8-4F0F-8DC4-637D57A10E72}"}},{"type":"Feature","id":47,"geometry":{"type":"Point","coordinates":[-122.8119932759646,53.993202027115416]},"properties":{"OBJECTID":47,"LifeCycleStatus":"ACT","Comm_Facility":"4","Facility_Desc":"Volunteer Park","GlobalID":"{60AC02FE-6FF0-497D-BAAE-F854722F025E}"}},{"type":"Feature","id":48,"geometry":{"type":"Point","coordinates":[-122.80302524958896,53.95062971054418]},"properties":{"OBJECTID":48,"LifeCycleStatus":"ACT","Comm_Facility":"4","Facility_Desc":"Nechako Park","GlobalID":"{80613E4F-540E-43A5-8E7A-3C2AAED987C4}"}},{"type":"Feature","id":49,"geometry":{"type":"Point","coordinates":[-122.79582800938577,53.9860493249207]},"properties":{"OBJECTID":49,"LifeCycleStatus":"ACT","Comm_Facility":"4","Facility_Desc":"Balsum Park","GlobalID":"{F33CA06F-A540-471B-BFB6-8B45D0E3941C}"}},{"type":"Feature","id":50,"geometry":{"type":"Point","coordinates":[-122.76315393136106,53.901475834279005]},"properties":{"OBJECTID":50,"LifeCycleStatus":"ACT","Comm_Facility":"4","Facility_Desc":"Strathcona Park","GlobalID":"{A0C1B0F9-1648-42ED-9643-24521607055B}"}},{"type":"Feature","id":51,"geometry":{"type":"Point","coordinates":[-122.78491118896758,53.9916923165131]},"properties":{"OBJECTID":51,"LifeCycleStatus":"ACT","Comm_Facility":"4","Facility_Desc":"Cpl Darren Fitzpatrick Bravery Park","GlobalID":"{D7537242-236F-42C4-9691-92FA1D917AD8}"}},{"type":"Feature","id":52,"geometry":{"type":"Point","coordinates":[-122.80884554528974,53.991641364286]},"properties":{"OBJECTID":52,"LifeCycleStatus":"ACT","Comm_Facility":"4","Facility_Desc":"Heather Road Park","GlobalID":"{AD3436D5-3B46-405B-A210-8D8FFC251428}"}},{"type":"Feature","id":53,"geometry":{"type":"Point","coordinates":[-122.64278774675259,53.89602863452287]},"properties":{"OBJECTID":53,"LifeCycleStatus":"ACT","Comm_Facility":"4","Facility_Desc":"Blackburn Park","GlobalID":"{1BF595BE-BE18-408E-A5AC-4C3FD2B16AE3}"}},{"type":"Feature","id":54,"geometry":{"type":"Point","coordinates":[-122.76005696757358,53.91676819046044]},"properties":{"OBJECTID":54,"LifeCycleStatus":"ACT","Comm_Facility":"4","Facility_Desc":"Duchess Park","GlobalID":"{35F16770-D7ED-43E0-87A2-40E2951B6D64}"}},{"type":"Feature","id":55,"geometry":{"type":"Point","coordinates":[-122.7416395644969,53.91792922303617]},"properties":{"OBJECTID":55,"LifeCycleStatus":"ACT","Comm_Facility":"4","Facility_Desc":"Millennium Park","GlobalID":"{ABD47D73-54FF-498C-AE3A-FD015E737E70}"}},{"type":"Feature","id":56,"geometry":{"type":"Point","coordinates":[-122.75685943134438,53.91368988329598]},"properties":{"OBJECTID":56,"LifeCycleStatus":"ACT","Comm_Facility":"4","Facility_Desc":"Elder Citiizens Recreation Association","GlobalID":"{66586AB8-F8A6-4CEA-BE79-D64B563AD0C3}"}},{"type":"Feature","id":57,"geometry":{"type":"Point","coordinates":[-122.74529970571135,53.91318342990499]},"properties":{"OBJECTID":57,"LifeCycleStatus":"ACT","Comm_Facility":"4","Facility_Desc":"Veteran's Plaza","GlobalID":"{3C6CC370-AEE5-4585-B4A3-0301566434ED}"}},{"type":"Feature","id":59,"geometry":{"type":"Point","coordinates":[-122.74774206040705,53.9133906388656]},"properties":{"OBJECTID":59,"LifeCycleStatus":"ACT","Comm_Facility":"4","Facility_Desc":"Community Foundation","GlobalID":"{24BF3D50-F6E8-42C1-9158-585DBE85A277}"}},{"type":"Feature","id":60,"geometry":{"type":"Point","coordinates":[-122.74987937635076,53.912744743187176]},"properties":{"OBJECTID":60,"LifeCycleStatus":"ACT","Comm_Facility":"4","Facility_Desc":"Canada Games Plaza","GlobalID":"{880167E5-4923-4F17-A958-7BA61A3EF301}"}},{"type":"Feature","id":61,"geometry":{"type":"Point","coordinates":[-122.74482227410103,53.915051125037685]},"properties":{"OBJECTID":61,"LifeCycleStatus":"ACT","Comm_Facility":"4","Facility_Desc":"Wood Innovation Square","GlobalID":"{4472E1A0-7FE8-472F-A44B-76163A2E8C0C}"}},{"type":"Feature","id":62,"geometry":{"type":"Point","coordinates":[-122.73495343321262,53.905964294882594]},"properties":{"OBJECTID":62,"LifeCycleStatus":"ACT","Comm_Facility":"4","Facility_Desc":"Lheidli T’enneh Memorial Park","GlobalID":"{45BFE0F3-91AA-4ABD-B524-B5DBA8F08CDB}"}},{"type":"Feature","id":63,"geometry":{"type":"Point","coordinates":[-122.74702324350635,53.91084751082365]},"properties":{"OBJECTID":63,"LifeCycleStatus":"ACT","Comm_Facility":"4","Facility_Desc":"Connaught Hill Park","GlobalID":"{3501EC2F-8E85-4F8A-B971-0E24FBC77919}"}},{"type":"Feature","id":64,"geometry":{"type":"Point","coordinates":[-122.79185380360207,53.917169012372185]},"properties":{"OBJECTID":64,"LifeCycleStatus":"ACT","Comm_Facility":"4","Facility_Desc":"Rainbow Park","GlobalID":"{165E6093-BB34-4BB5-85F1-5B0D52E8D7FA}"}},{"type":"Feature","id":65,"geometry":{"type":"Point","coordinates":[-122.77749422129341,53.91919535005451]},"properties":{"OBJECTID":65,"LifeCycleStatus":"ACT","Comm_Facility":"4","Facility_Desc":"Harper Park","GlobalID":"{A8918488-5B1A-4910-A261-6977591EC264}"}},{"type":"Feature","id":66,"geometry":{"type":"Point","coordinates":[-122.74014350404777,53.90899938233388]},"properties":{"OBJECTID":66,"LifeCycleStatus":"ACT","Comm_Facility":"4","Facility_Desc":"Ingledew Park","GlobalID":"{D10B2B28-3124-4C6C-8061-F6B910BF58AA}"}},{"type":"Feature","id":67,"geometry":{"type":"Point","coordinates":[-122.76437416361627,53.92209536758629]},"properties":{"OBJECTID":67,"LifeCycleStatus":"ACT","Comm_Facility":"4","Facility_Desc":"Watrous Park","GlobalID":"{A175BBA7-53BE-4F73-85B3-98DF8F440177}"}},{"type":"Feature","id":68,"geometry":{"type":"Point","coordinates":[-122.78236942888586,53.921564088031744]},"properties":{"OBJECTID":68,"LifeCycleStatus":"ACT","Comm_Facility":"4","Facility_Desc":"Kelly Park","GlobalID":"{AD700ED7-D7D8-45E7-914E-BF16FD812EB8}"}},{"type":"Feature","id":69,"geometry":{"type":"Point","coordinates":[-122.77693414733876,53.92548679646725]},"properties":{"OBJECTID":69,"LifeCycleStatus":"ACT","Comm_Facility":"4","Facility_Desc":"Hammond Park","GlobalID":"{25CC0274-C799-4075-A137-19DA4C276C21}"}},{"type":"Feature","id":70,"geometry":{"type":"Point","coordinates":[-122.77190525087538,53.908632485813676]},"properties":{"OBJECTID":70,"LifeCycleStatus":"ACT","Comm_Facility":"4","Facility_Desc":"Seymour Park","GlobalID":"{78ED4B84-E309-498B-B2C2-7874FCB18F71}"}},{"type":"Feature","id":71,"geometry":{"type":"Point","coordinates":[-122.7451898420665,53.898693023858854]},"properties":{"OBJECTID":71,"LifeCycleStatus":"ACT","Comm_Facility":"4","Facility_Desc":"Jasper Park","GlobalID":"{D6173985-E9CE-455A-B266-7F0727D5E287}"}},{"type":"Feature","id":72,"geometry":{"type":"Point","coordinates":[-122.79817361550381,53.92672375366622]},"properties":{"OBJECTID":72,"LifeCycleStatus":"ACT","Comm_Facility":"4","Facility_Desc":"Gordon Bryant Park","GlobalID":"{C08B2A6D-8B59-442B-B768-3F13E5795D0A}"}},{"type":"Feature","id":73,"geometry":{"type":"Point","coordinates":[-122.76372115385747,53.88996698782379]},"properties":{"OBJECTID":73,"LifeCycleStatus":"ACT","Comm_Facility":"4","Facility_Desc":"Perry Park","GlobalID":"{0724509A-681C-41DD-AF66-D71D8B513F6E}"}},{"type":"Feature","id":74,"geometry":{"type":"Point","coordinates":[-122.78818502721636,53.9149685899669]},"properties":{"OBJECTID":74,"LifeCycleStatus":"ACT","Comm_Facility":"4","Facility_Desc":"Harry Loder Park","GlobalID":"{BB02FF7D-3CCB-47F1-9011-FA87036A44BB}"}},{"type":"Feature","id":75,"geometry":{"type":"Point","coordinates":[-122.80065503589613,53.91296740061814]},"properties":{"OBJECTID":75,"LifeCycleStatus":"ACT","Comm_Facility":"4","Facility_Desc":"Bednesti Park","GlobalID":"{D2DA5014-3B45-47A4-91AA-CC307E3CE80E}"}},{"type":"Feature","id":76,"geometry":{"type":"Point","coordinates":[-122.7862171578736,53.893579170948684]},"properties":{"OBJECTID":76,"LifeCycleStatus":"ACT","Comm_Facility":"4","Facility_Desc":"Vanier Park","GlobalID":"{3AB34D55-35F8-4124-9F9E-42EB85DD3C40}"}},{"type":"Feature","id":77,"geometry":{"type":"Point","coordinates":[-122.764144371257,53.89939530166962]},"properties":{"OBJECTID":77,"LifeCycleStatus":"ACT","Comm_Facility":"4","Facility_Desc":"Moosehart Park","GlobalID":"{DA72F00E-8875-464D-AE6D-8AB21E937CE0}"}},{"type":"Feature","id":78,"geometry":{"type":"Point","coordinates":[-122.80564824817839,53.919502105751256]},"properties":{"OBJECTID":78,"LifeCycleStatus":"ACT","Comm_Facility":"4","Facility_Desc":"Punchaw Park","GlobalID":"{86ADE271-FB20-4DFF-9DEC-1099789FAA1E}"}},{"type":"Feature","id":79,"geometry":{"type":"Point","coordinates":[-122.80557011943067,53.936675427759745]},"properties":{"OBJECTID":79,"LifeCycleStatus":"ACT","Comm_Facility":"4","Facility_Desc":"Stirling Park","GlobalID":"{DF59ECD5-BBE5-4903-805F-22FB60865F89}"}},{"type":"Feature","id":80,"geometry":{"type":"Point","coordinates":[-122.79847126099207,53.90054265234669]},"properties":{"OBJECTID":80,"LifeCycleStatus":"ACT","Comm_Facility":"4","Facility_Desc":"Campbell Park","GlobalID":"{994A8537-FEA9-43CC-8AEB-2903D24F2D4A}"}},{"type":"Feature","id":81,"geometry":{"type":"Point","coordinates":[-122.75563102082843,53.89239485726722]},"properties":{"OBJECTID":81,"LifeCycleStatus":"ACT","Comm_Facility":"4","Facility_Desc":"Clapperton Park","GlobalID":"{71B18D11-2C13-48E9-AC71-170E5A4DCD77}"}},{"type":"Feature","id":82,"geometry":{"type":"Point","coordinates":[-122.80485831531158,53.928331865133586]},"properties":{"OBJECTID":82,"LifeCycleStatus":"ACT","Comm_Facility":"4","Facility_Desc":"Corless Park","GlobalID":"{F2A4CAC6-A17E-4D52-A298-7B95A8B75EA0}"}},{"type":"Feature","id":83,"geometry":{"type":"Point","coordinates":[-122.77399662078228,53.87133205118708]},"properties":{"OBJECTID":83,"LifeCycleStatus":"ACT","Comm_Facility":"4","Facility_Desc":"North College Park","GlobalID":"{8993AD45-DA71-4D1A-8D71-25218D9A49D9}"}},{"type":"Feature","id":84,"geometry":{"type":"Point","coordinates":[-122.7612501522155,53.85946165512191]},"properties":{"OBJECTID":84,"LifeCycleStatus":"ACT","Comm_Facility":"4","Facility_Desc":"Fairmont Park","GlobalID":"{29077310-0A5A-4346-9AC5-C8D4AF3E1E09}"}},{"type":"Feature","id":85,"geometry":{"type":"Point","coordinates":[-122.76875653908449,53.852990697154816]},"properties":{"OBJECTID":85,"LifeCycleStatus":"ACT","Comm_Facility":"4","Facility_Desc":"Renison Park","GlobalID":"{0CAFF801-BAA9-4353-BC44-9947505ECD12}"}},{"type":"Feature","id":86,"geometry":{"type":"Point","coordinates":[-122.76346941007131,53.8525194466008]},"properties":{"OBJECTID":86,"LifeCycleStatus":"ACT","Comm_Facility":"4","Facility_Desc":"McMaster Park","GlobalID":"{406B0A41-2765-4FC0-B8E2-D9F9B78E94B4}"}},{"type":"Feature","id":87,"geometry":{"type":"Point","coordinates":[-122.76530261769483,53.85031284366129]},"properties":{"OBJECTID":87,"LifeCycleStatus":"ACT","Comm_Facility":"4","Facility_Desc":"Malaspina Park","GlobalID":"{3D44E6ED-8AFA-43E1-98E4-E06F8154AB97}"}},{"type":"Feature","id":88,"geometry":{"type":"Point","coordinates":[-122.79344325387065,53.89854080208828]},"properties":{"OBJECTID":88,"LifeCycleStatus":"ACT","Comm_Facility":"4","Facility_Desc":"Foot Park","GlobalID":"{66F97BDE-6AC4-490F-B83C-36B57297B81D}"}},{"type":"Feature","id":89,"geometry":{"type":"Point","coordinates":[-122.78341555090098,53.89705572596223]},"properties":{"OBJECTID":89,"LifeCycleStatus":"ACT","Comm_Facility":"4","Facility_Desc":"Lorne Park","GlobalID":"{1CB1F503-815D-42D0-94CE-A444515691BA}"}},{"type":"Feature","id":90,"geometry":{"type":"Point","coordinates":[-122.78523060415704,53.889983621916876]},"properties":{"OBJECTID":90,"LifeCycleStatus":"ACT","Comm_Facility":"4","Facility_Desc":"Sycamore Park","GlobalID":"{794884F1-03D9-49A9-8A73-43B64ECC4F4E}"}},{"type":"Feature","id":91,"geometry":{"type":"Point","coordinates":[-122.78281742791324,53.889261136679345]},"properties":{"OBJECTID":91,"LifeCycleStatus":"ACT","Comm_Facility":"4","Facility_Desc":"Cherry Park","GlobalID":"{430B29A5-2848-4B47-89E9-4A9F9C1263F4}"}},{"type":"Feature","id":92,"geometry":{"type":"Point","coordinates":[-122.81138074567929,53.912796078377184]},"properties":{"OBJECTID":92,"LifeCycleStatus":"ACT","Comm_Facility":"4","Facility_Desc":"Eaglenest Park","GlobalID":"{2C8D405E-6010-4CEF-91A2-1D8E1A4A0D7C}"}},{"type":"Feature","id":93,"geometry":{"type":"Point","coordinates":[-122.81448196477666,53.91805764500544]},"properties":{"OBJECTID":93,"LifeCycleStatus":"ACT","Comm_Facility":"4","Facility_Desc":"Ochakwin Park","GlobalID":"{D692BAE5-6C90-40F7-BCC6-E9AE67036F74}"}},{"type":"Feature","id":94,"geometry":{"type":"Point","coordinates":[-122.809358121057,53.91183517380506]},"properties":{"OBJECTID":94,"LifeCycleStatus":"ACT","Comm_Facility":"4","Facility_Desc":"Antler Park","GlobalID":"{13F2881A-8630-4491-8567-E4590F2E6672}"}},{"type":"Feature","id":95,"geometry":{"type":"Point","coordinates":[-122.80953803917303,53.91948292832171]},"properties":{"OBJECTID":95,"LifeCycleStatus":"ACT","Comm_Facility":"4","Facility_Desc":"Jackpine Park","GlobalID":"{93505576-22ED-4BBD-B95D-82FE9C97CBCE}"}},{"type":"Feature","id":96,"geometry":{"type":"Point","coordinates":[-122.78687899776595,53.89715524875662]},"properties":{"OBJECTID":96,"LifeCycleStatus":"ACT","Comm_Facility":"4","Facility_Desc":"Byng Park","GlobalID":"{139FF2F2-F163-498E-9707-683DE06A0634}"}},{"type":"Feature","id":97,"geometry":{"type":"Point","coordinates":[-122.79117209971925,54.00152179572817]},"properties":{"OBJECTID":97,"LifeCycleStatus":"ACT","Comm_Facility":"4","Facility_Desc":"Nordic Park","GlobalID":"{BC74AE9C-C240-4C51-B314-CEC73C3EC5B4}"}},{"type":"Feature","id":98,"geometry":{"type":"Point","coordinates":[-122.81214568447012,53.960082936937226]},"properties":{"OBJECTID":98,"LifeCycleStatus":"ACT","Comm_Facility":"4","Facility_Desc":"Fairburn Park","GlobalID":"{8520A9CF-4A82-45EE-9926-C4362DE41794}"}},{"type":"Feature","id":99,"geometry":{"type":"Point","coordinates":[-122.81762480733629,53.92891446635767]},"properties":{"OBJECTID":99,"LifeCycleStatus":"ACT","Comm_Facility":"4","Facility_Desc":"Freimuller Park","GlobalID":"{AAD3BAE2-FC04-4CBB-B8AD-DE26875CC11A}"}},{"type":"Feature","id":100,"geometry":{"type":"Point","coordinates":[-122.77581118151143,53.908558370024565]},"properties":{"OBJECTID":100,"LifeCycleStatus":"ACT","Comm_Facility":"4","Facility_Desc":"Elroy Garden Park","GlobalID":"{E970C777-265C-4E6F-8147-DF29693995DE}"}},{"type":"Feature","id":101,"geometry":{"type":"Point","coordinates":[-122.79112322248133,53.897124462994825]},"properties":{"OBJECTID":101,"LifeCycleStatus":"ACT","Comm_Facility":"4","Facility_Desc":"Coyle Park","GlobalID":"{71C15887-BAEE-4B07-A517-9828348B7193}"}},{"type":"Feature","id":102,"geometry":{"type":"Point","coordinates":[-122.78955078349844,53.88117885388329]},"properties":{"OBJECTID":102,"LifeCycleStatus":"ACT","Comm_Facility":"4","Facility_Desc":"Charella Park","GlobalID":"{23FD2D2B-4EAA-4716-8F18-177EE1FFB8ED}"}},{"type":"Feature","id":103,"geometry":{"type":"Point","coordinates":[-122.79839859124809,53.9763554976191]},"properties":{"OBJECTID":103,"LifeCycleStatus":"ACT","Comm_Facility":"4","Facility_Desc":"Ridgeview Park","GlobalID":"{FE44B4E9-29D1-4AFB-B6F1-3ADEEC3DD33A}"}},{"type":"Feature","id":104,"geometry":{"type":"Point","coordinates":[-122.79783489374762,53.981081159714364]},"properties":{"OBJECTID":104,"LifeCycleStatus":"ACT","Comm_Facility":"4","Facility_Desc":"Poyner Park","GlobalID":"{EBAD50E9-0C4A-4BA4-9612-C3A1EE9D315B}"}},{"type":"Feature","id":105,"geometry":{"type":"Point","coordinates":[-122.76047105474322,53.9568560868954]},"properties":{"OBJECTID":105,"LifeCycleStatus":"ACT","Comm_Facility":"4","Facility_Desc":"Clearwood Park","GlobalID":"{50342646-0204-4304-8218-8CBC126B27D6}"}},{"type":"Feature","id":106,"geometry":{"type":"Point","coordinates":[-122.80501526503498,53.99187927313279]},"properties":{"OBJECTID":106,"LifeCycleStatus":"ACT","Comm_Facility":"4","Facility_Desc":"Snowdrop Park","GlobalID":"{569BD2A2-A96D-4A40-ABE3-F4B36A1934C0}"}},{"type":"Feature","id":107,"geometry":{"type":"Point","coordinates":[-122.81334219215934,53.92715373726474]},"properties":{"OBJECTID":107,"LifeCycleStatus":"ACT","Comm_Facility":"4","Facility_Desc":"Moran Park","GlobalID":"{601F32C8-690E-43BA-BEB0-60BA2454FC0C}"}},{"type":"Feature","id":108,"geometry":{"type":"Point","coordinates":[-122.81564435156007,53.8498624172768]},"properties":{"OBJECTID":108,"LifeCycleStatus":"ACT","Comm_Facility":"4","Facility_Desc":"Parkridge Heights Park","GlobalID":"{AFA79731-4F32-45BB-8341-58C43B7482ED}"}},{"type":"Feature","id":109,"geometry":{"type":"Point","coordinates":[-122.77363103453223,53.85245323929126]},"properties":{"OBJECTID":109,"LifeCycleStatus":"ACT","Comm_Facility":"4","Facility_Desc":"St Mathew Park","GlobalID":"{0397E372-3FCD-4FA4-8E34-B0E6182F34D1}"}},{"type":"Feature","id":110,"geometry":{"type":"Point","coordinates":[-122.81396204610546,53.91123747157984]},"properties":{"OBJECTID":110,"LifeCycleStatus":"ACT","Comm_Facility":"4","Facility_Desc":"Azure Park","GlobalID":"{4A088C0F-E4AE-4A18-BDF9-8010836E9E15}"}},{"type":"Feature","id":111,"geometry":{"type":"Point","coordinates":[-122.77843782806252,53.88249349211934]},"properties":{"OBJECTID":111,"LifeCycleStatus":"ACT","Comm_Facility":"4","Facility_Desc":"Sanderson Park","GlobalID":"{0D46050E-7B7B-4A5E-AB09-805A44C99250}"}},{"type":"Feature","id":112,"geometry":{"type":"Point","coordinates":[-122.77843796751249,53.87817179212836]},"properties":{"OBJECTID":112,"LifeCycleStatus":"ACT","Comm_Facility":"4","Facility_Desc":"Starlane Park","GlobalID":"{9534BFE1-F2C4-4983-8876-4AABDEA10AE8}"}},{"type":"Feature","id":113,"geometry":{"type":"Point","coordinates":[-122.77987245431109,53.87705653893134]},"properties":{"OBJECTID":113,"LifeCycleStatus":"ACT","Comm_Facility":"4","Facility_Desc":"Prudente Park","GlobalID":"{F53851D5-8288-4593-9306-6DF9BC374F9E}"}},{"type":"Feature","id":114,"geometry":{"type":"Point","coordinates":[-122.77356849770284,53.85677061796821]},"properties":{"OBJECTID":114,"LifeCycleStatus":"ACT","Comm_Facility":"4","Facility_Desc":"St John Park","GlobalID":"{F4DD256C-1793-44C7-8D1E-90810CA4325B}"}},{"type":"Feature","id":115,"geometry":{"type":"Point","coordinates":[-122.77454704848556,53.855013248081264]},"properties":{"OBJECTID":115,"LifeCycleStatus":"ACT","Comm_Facility":"4","Facility_Desc":"St Mary Park","GlobalID":"{3CEE90A9-95A6-49EA-93E2-169A52F3CF90}"}},{"type":"Feature","id":116,"geometry":{"type":"Point","coordinates":[-122.73618937842569,53.89907701115224]},"properties":{"OBJECTID":116,"LifeCycleStatus":"ACT","Comm_Facility":"4","Facility_Desc":"Paddlewheel Park","GlobalID":"{FA563F58-0ED7-4A2C-A203-DA28C21C38E8}"}},{"type":"Feature","id":117,"geometry":{"type":"Point","coordinates":[-122.78375583561152,53.87142442086163]},"properties":{"OBJECTID":117,"LifeCycleStatus":"ACT","Comm_Facility":"4","Facility_Desc":"Baker Park","GlobalID":"{8930FBE1-B43E-40F2-B390-CDA9CB32FA4B}"}},{"type":"Feature","id":118,"geometry":{"type":"Point","coordinates":[-122.75401619966205,53.907455209742665]},"properties":{"OBJECTID":118,"LifeCycleStatus":"ACT","Comm_Facility":"4","Facility_Desc":"Ron Brent Park","GlobalID":"{739D3B7D-9B75-4560-8FF2-56009B9C8B3F}"}},{"type":"Feature","id":119,"geometry":{"type":"Point","coordinates":[-122.7644727066532,53.884047191537164]},"properties":{"OBJECTID":119,"LifeCycleStatus":"ACT","Comm_Facility":"4","Facility_Desc":"Sinclair Park","GlobalID":"{C093BDD6-D5FD-4B00-963E-781E9BFC159B}"}},{"type":"Feature","id":120,"geometry":{"type":"Point","coordinates":[-122.78279027418534,53.85893068336887]},"properties":{"OBJECTID":120,"LifeCycleStatus":"ACT","Comm_Facility":"4","Facility_Desc":"Southridge Park","GlobalID":"{22B29DA2-EA15-410F-952F-53AF8A29A2BC}"}},{"type":"Feature","id":121,"geometry":{"type":"Point","coordinates":[-122.80378879743512,53.8589264461841]},"properties":{"OBJECTID":121,"LifeCycleStatus":"ACT","Comm_Facility":"4","Facility_Desc":"Westgate Park","GlobalID":"{857A7160-D60E-4DAE-B5B3-0624DDCE91A2}"}},{"type":"Feature","id":122,"geometry":{"type":"Point","coordinates":[-122.75501418789312,53.8547336665487]},"properties":{"OBJECTID":122,"LifeCycleStatus":"ACT","Comm_Facility":"4","Facility_Desc":"Jean de Brebeuf Park","GlobalID":"{3B171E92-FCDC-4C73-9EE9-DF7BFA131A4E}"}},{"type":"Feature","id":123,"geometry":{"type":"Point","coordinates":[-122.81312970456098,53.93125572840059]},"properties":{"OBJECTID":123,"LifeCycleStatus":"ACT","Comm_Facility":"4","Facility_Desc":"Zimmaro Park","GlobalID":"{BC26160B-5235-42C3-94FD-E623F23FD6F5}"}},{"type":"Feature","id":124,"geometry":{"type":"Point","coordinates":[-122.74442546190957,53.89769695428657]},"properties":{"OBJECTID":124,"LifeCycleStatus":"ACT","Comm_Facility":"4","Facility_Desc":"South Fort George Family Res. Centre","GlobalID":"{D3065C67-BA1E-4806-AC22-A9F54765A768}"}},{"type":"Feature","id":125,"geometry":{"type":"Point","coordinates":[-122.76056302172312,53.84773182707485]},"properties":{"OBJECTID":125,"LifeCycleStatus":"ACT","Comm_Facility":"4","Facility_Desc":"Latrobe Park","GlobalID":"{F3F8D9E5-FA44-41CD-8B44-999EFDDC4EA7}"}},{"type":"Feature","id":126,"geometry":{"type":"Point","coordinates":[-122.76364864845176,53.85706065384794]},"properties":{"OBJECTID":126,"LifeCycleStatus":"ACT","Comm_Facility":"4","Facility_Desc":"Gladstone Park","GlobalID":"{A67F6853-264B-453D-919E-81EDC93DB15C}"}},{"type":"Feature","id":127,"geometry":{"type":"Point","coordinates":[-122.79133439207314,53.92853870764055]},"properties":{"OBJECTID":127,"LifeCycleStatus":"ACT","Comm_Facility":"4","Facility_Desc":"Quinson Park","GlobalID":"{E0043214-5B6F-4210-B198-F21746CA1227}"}},{"type":"Feature","id":128,"geometry":{"type":"Point","coordinates":[-122.81045632403506,53.921996288162234]},"properties":{"OBJECTID":128,"LifeCycleStatus":"ACT","Comm_Facility":"4","Facility_Desc":"Hill Park","GlobalID":"{42989E89-F031-4F88-AA2F-B7AE4F455AFE}"}},{"type":"Feature","id":129,"geometry":{"type":"Point","coordinates":[-122.75527336712587,53.888769925277956]},"properties":{"OBJECTID":129,"LifeCycleStatus":"ACT","Comm_Facility":"4","Facility_Desc":"Bob Martin Park","GlobalID":"{046D0EC4-FBDC-4E13-82AA-1499C2495798}"}},{"type":"Feature","id":130,"geometry":{"type":"Point","coordinates":[-122.80202096385342,53.94788867149883]},"properties":{"OBJECTID":130,"LifeCycleStatus":"ACT","Comm_Facility":"4","Facility_Desc":"Edgewood Park","GlobalID":"{B0542D62-5248-47DA-9F9F-BBD3A071863A}"}},{"type":"Feature","id":131,"geometry":{"type":"Point","coordinates":[-122.75904361277291,53.93038759503113]},"properties":{"OBJECTID":131,"LifeCycleStatus":"ACT","Comm_Facility":"4","Facility_Desc":"McMillan Creek Regional Park","GlobalID":"{285CE181-FE27-4D31-834F-B1454348027E}"}},{"type":"Feature","id":132,"geometry":{"type":"Point","coordinates":[-122.800529805583,53.906119876634975]},"properties":{"OBJECTID":132,"LifeCycleStatus":"ACT","Comm_Facility":"4","Facility_Desc":"Exhibition Park","GlobalID":"{CCD1EC90-124D-4888-BA24-97AD475BE6F8}"}},{"type":"Feature","id":133,"geometry":{"type":"Point","coordinates":[-122.77335080509181,53.88637073696402]},"properties":{"OBJECTID":133,"LifeCycleStatus":"ACT","Comm_Facility":"4","Facility_Desc":"Pine Valley Golf Course","GlobalID":"{D5B6FBFA-A7F7-4A57-8D85-AC0AF90496BB}"}},{"type":"Feature","id":134,"geometry":{"type":"Point","coordinates":[-122.76793299817325,53.88309670700687]},"properties":{"OBJECTID":134,"LifeCycleStatus":"ACT","Comm_Facility":"4","Facility_Desc":"Cemetery","GlobalID":"{9085801B-1AC1-4A5C-958F-1CC029159C55}"}},{"type":"Feature","id":137,"geometry":{"type":"Point","coordinates":[-122.7927154442207,53.9339375949445]},"properties":{"OBJECTID":137,"LifeCycleStatus":"ACT","Comm_Facility":"4","Facility_Desc":"Wilson Park","GlobalID":"{3207F089-8D54-4606-845B-07DF118B8801}"}},{"type":"Feature","id":138,"geometry":{"type":"Point","coordinates":[-122.81523767384994,53.935591871640696]},"properties":{"OBJECTID":138,"LifeCycleStatus":"ACT","Comm_Facility":"4","Facility_Desc":"Moore's Meadow Park","GlobalID":"{AA0EDCA8-3B98-43E4-ACFB-4E2B504805E2}"}},{"type":"Feature","id":139,"geometry":{"type":"Point","coordinates":[-122.72945659128271,53.92224199890491]},"properties":{"OBJECTID":139,"LifeCycleStatus":"ACT","Comm_Facility":"4","Facility_Desc":"Cottonwood Island Park","GlobalID":"{A22E80D4-D1BA-4C6D-BF7B-2D4B7E2AF75A}"}},{"type":"Feature","id":140,"geometry":{"type":"Point","coordinates":[-122.74347471940065,53.901809275344434]},"properties":{"OBJECTID":140,"LifeCycleStatus":"ACT","Comm_Facility":"4","Facility_Desc":"Hudson’s Bay Wetland Nature Park","GlobalID":"{6704EA95-ECFF-4F3C-B731-73ACC77C74DE}"}},{"type":"Feature","id":141,"geometry":{"type":"Point","coordinates":[-122.84544614708518,54.03615255794287]},"properties":{"OBJECTID":141,"LifeCycleStatus":"ACT","Comm_Facility":"4","Facility_Desc":"Ferguson Lake Nature Reserve","GlobalID":"{0D7D8FF1-2C49-4B8B-B215-B66C65B1419D}"}},{"type":"Feature","id":142,"geometry":{"type":"Point","coordinates":[-122.64576317864083,53.8976990533042]},"properties":{"OBJECTID":142,"LifeCycleStatus":"ACT","Comm_Facility":"4","Facility_Desc":"Bittner Park","GlobalID":"{BBCC1859-1EA2-4D97-A1B8-65149C3185EA}"}},{"type":"Feature","id":143,"geometry":{"type":"Point","coordinates":[-122.72406850004356,53.90679438649558]},"properties":{"OBJECTID":143,"LifeCycleStatus":"ACT","Comm_Facility":"4","Facility_Desc":"LC Gunn Park","GlobalID":"{4ADD2ABB-C686-4902-B853-698D7FA76DA2}"}},{"type":"Feature","id":144,"geometry":{"type":"Point","coordinates":[-122.73822241521519,53.89649290958758]},"properties":{"OBJECTID":144,"LifeCycleStatus":"ACT","Comm_Facility":"4","Facility_Desc":"Hazelton Park","GlobalID":"{371D00C4-54C4-4584-94B4-F2E0174D1902}"}},{"type":"Feature","id":145,"geometry":{"type":"Point","coordinates":[-122.76493170239237,53.928689871109086]},"properties":{"OBJECTID":145,"LifeCycleStatus":"ACT","Comm_Facility":"4","Facility_Desc":"McMillan Ck. Fishing Park","GlobalID":"{790009BD-58D5-4F5D-9C0F-933F32B5EE49}"}},{"type":"Feature","id":146,"geometry":{"type":"Point","coordinates":[-122.8027727231935,53.893078034135215]},"properties":{"OBJECTID":146,"LifeCycleStatus":"ACT","Comm_Facility":"4","Facility_Desc":"UNBC Connector Trail","GlobalID":"{8B87321B-E551-439E-AF1E-3DA75A3E7886}"}},{"type":"Feature","id":147,"geometry":{"type":"Point","coordinates":[-122.84075089131605,53.89219833775213]},"properties":{"OBJECTID":147,"LifeCycleStatus":"ACT","Comm_Facility":"4","Facility_Desc":"Forests for the World","GlobalID":"{AA685402-2364-4C07-9A85-0A7592CA1D6D}"}},{"type":"Feature","id":148,"geometry":{"type":"Point","coordinates":[-122.89063230676882,53.90046453119038]},"properties":{"OBJECTID":148,"LifeCycleStatus":"ACT","Comm_Facility":"4","Facility_Desc":"Cranbrook Hill Greenway","GlobalID":"{D22EB2D3-4DEC-4710-9AA8-BE3415BF884A}"}},{"type":"Feature","id":149,"geometry":{"type":"Point","coordinates":[-122.75524106239338,53.92663039398266]},"properties":{"OBJECTID":149,"LifeCycleStatus":"ACT","Comm_Facility":"4","Facility_Desc":"Heritage River Trail System","GlobalID":"{85718DCA-7E7C-4095-AE69-4D2BE704DF4B}"}},{"type":"Feature","id":150,"geometry":{"type":"Point","coordinates":[-122.73980914181188,53.92624424777783]},"properties":{"OBJECTID":150,"LifeCycleStatus":"ACT","Comm_Facility":"4","Facility_Desc":"Kiwanis Park","GlobalID":"{42B3ED3A-FB72-4910-BF43-AB73014BA833}"}},{"type":"Feature","id":151,"geometry":{"type":"Point","coordinates":[-122.81420472964817,53.94819242455691]},"properties":{"OBJECTID":151,"LifeCycleStatus":"ACT","Comm_Facility":"4","Facility_Desc":"Nechako Riverside Park","GlobalID":"{39C4BCB3-665E-48DF-9D61-40B5D2E67FD1}"}},{"type":"Feature","id":152,"geometry":{"type":"Point","coordinates":[-122.80979531459703,53.99274246962368]},"properties":{"OBJECTID":152,"LifeCycleStatus":"ACT","Comm_Facility":"1","Facility_Desc":"Elksentre Arena","GlobalID":"{6F8D1A32-7158-4F49-8657-E5B06795FF97}"}},{"type":"Feature","id":153,"geometry":{"type":"Point","coordinates":[-122.80128032247114,53.904500078255445]},"properties":{"OBJECTID":153,"LifeCycleStatus":"ACT","Comm_Facility":"1","Facility_Desc":"CN Centre","GlobalID":"{C8430C47-5031-4A4F-B586-4E6DEF77867F}"}},{"type":"Feature","id":154,"geometry":{"type":"Point","coordinates":[-122.80296492354772,53.905360416651064]},"properties":{"OBJECTID":154,"LifeCycleStatus":"ACT","Comm_Facility":"1","Facility_Desc":"Kin Centre Arenas","GlobalID":"{B0ABEB03-8BB4-4552-B778-6DA8310AC716}"}},{"type":"Feature","id":155,"geometry":{"type":"Point","coordinates":[-122.80302027264763,53.907953139063665]},"properties":{"OBJECTID":155,"LifeCycleStatus":"ACT","Comm_Facility":"1","Facility_Desc":"Prince George Aquatic Centre","GlobalID":"{62C419FD-D11A-44A3-82C5-E4A4090C53BE}"}},{"type":"Feature","id":156,"geometry":{"type":"Point","coordinates":[-122.76830019689116,53.89548640316218]},"properties":{"OBJECTID":156,"LifeCycleStatus":"ACT","Comm_Facility":"1","Facility_Desc":"Prince George Playhouse","GlobalID":"{5BFA8A10-D8A8-4639-A0DB-137151EF6928}"}},{"type":"Feature","id":157,"geometry":{"type":"Point","coordinates":[-122.74689205618907,53.91235514166616]},"properties":{"OBJECTID":157,"LifeCycleStatus":"ACT","Comm_Facility":"1","Facility_Desc":"Kopar Memorial Arena","GlobalID":"{8E4E9E32-C7F4-41FD-A170-367378EEB8C1}"}},{"type":"Feature","id":158,"geometry":{"type":"Point","coordinates":[-122.7473886296452,53.91403142601472]},"properties":{"OBJECTID":158,"LifeCycleStatus":"ACT","Comm_Facility":"1","Facility_Desc":"Canfor Leisure Pool","GlobalID":"{E4ED3B7D-C9D8-4C15-BF28-FDAE16FBE5C2}"}},{"type":"Feature","id":159,"geometry":{"type":"Point","coordinates":[-122.7489183136624,53.91243916807551]},"properties":{"OBJECTID":159,"LifeCycleStatus":"ACT","Comm_Facility":"1","Facility_Desc":"Prince George Confrence and Civic Centre","GlobalID":"{CE4BB0EC-FABC-4493-ADA3-28005B99964A}"}},{"type":"Feature","id":160,"geometry":{"type":"Point","coordinates":[-122.75010296125585,53.91204277348231]},"properties":{"OBJECTID":160,"LifeCycleStatus":"ACT","Comm_Facility":"1","Facility_Desc":"Prince George Public Library - Downtown Branch","GlobalID":"{81BB1064-588C-47C4-AD89-654E0DA639B6}"}},{"type":"Feature","id":161,"geometry":{"type":"Point","coordinates":[-122.77614237348348,53.910749021227794]},"properties":{"OBJECTID":161,"LifeCycleStatus":"ACT","Comm_Facility":"1","Facility_Desc":"Studio 2880","GlobalID":"{91E8ED21-88EA-4A46-8535-A858D56197F2}"}},{"type":"Feature","id":162,"geometry":{"type":"Point","coordinates":[-122.74540031393461,53.91280669593745]},"properties":{"OBJECTID":162,"LifeCycleStatus":"ACT","Comm_Facility":"1","Facility_Desc":"City Hall","GlobalID":"{8D30A8A4-AFCA-4637-BAA3-1EDD92D517B0}"}},{"type":"Feature","id":163,"geometry":{"type":"Point","coordinates":[-122.76524382631241,53.84942706080028]},"properties":{"OBJECTID":163,"LifeCycleStatus":"ACT","Comm_Facility":"2","Facility_Desc":"College Heights Community Association","GlobalID":"{43F9178E-9EF7-4D47-BB17-F1EE77F5D02A}"}},{"type":"Feature","id":164,"geometry":{"type":"Point","coordinates":[-122.64161493535399,53.895803707069085]},"properties":{"OBJECTID":164,"LifeCycleStatus":"ACT","Comm_Facility":"2","Facility_Desc":"Blackburn Community Association","GlobalID":"{115A516F-F12C-4D67-B1AD-19C875C3D93E}"}},{"type":"Feature","id":165,"geometry":{"type":"Point","coordinates":[-122.80540356439862,53.859009364590946]},"properties":{"OBJECTID":165,"LifeCycleStatus":"ACT","Comm_Facility":"3","Facility_Desc":"Westside Academy","GlobalID":"{B3F1E099-2450-457B-AEAE-DC21E265A94B}"}},{"type":"Feature","id":166,"geometry":{"type":"Point","coordinates":[-122.79638124651666,53.85860382363215]},"properties":{"OBJECTID":166,"LifeCycleStatus":"ACT","Comm_Facility":"3","Facility_Desc":"Immaculate Conception School","GlobalID":"{F2512C97-F0EC-44B3-95DD-3C3459702D88}"}},{"type":"Feature","id":167,"geometry":{"type":"Point","coordinates":[-122.77436216350986,53.91383995778242]},"properties":{"OBJECTID":167,"LifeCycleStatus":"ACT","Comm_Facility":"3","Facility_Desc":"St Mary's Catholic School","GlobalID":"{0F911C49-8A7A-4D76-B2A0-848FA7D2EB28}"}},{"type":"Feature","id":168,"geometry":{"type":"Point","coordinates":[-122.80278233091343,53.925480245925385]},"properties":{"OBJECTID":168,"LifeCycleStatus":"ACT","Comm_Facility":"3","Facility_Desc":"Zion Lutheran Christian School","GlobalID":"{F324024F-7336-4471-87FB-8753803C5611}"}},{"type":"Feature","id":169,"geometry":{"type":"Point","coordinates":[-122.78362114623319,53.93062717076157]},"properties":{"OBJECTID":169,"LifeCycleStatus":"ACT","Comm_Facility":"3","Facility_Desc":"Cedar's Christian School","GlobalID":"{C8EFC280-28FE-4C32-9769-0EA78D521FFA}"}},{"type":"Feature","id":170,"geometry":{"type":"Point","coordinates":[-122.78334677529546,53.93427389563493]},"properties":{"OBJECTID":170,"LifeCycleStatus":"ACT","Comm_Facility":"3","Facility_Desc":"Seventh Day Adventist School","GlobalID":"{B3459369-BC5E-4AC4-B916-E6EBA2E306C7}"}},{"type":"Feature","id":171,"geometry":{"type":"Point","coordinates":[-122.81987452758858,53.99000755095854]},"properties":{"OBJECTID":171,"LifeCycleStatus":"ACT","Comm_Facility":"6","Facility_Desc":"Foothills Boulevard Regional Landfill","GlobalID":"{81B07D70-806F-45DB-9F96-2821DA994D11}"}},{"type":"Feature","id":172,"geometry":{"type":"Point","coordinates":[-122.79246774797166,53.90781367927808]},"properties":{"OBJECTID":172,"LifeCycleStatus":"ACT","Comm_Facility":"6","Facility_Desc":"Quinn Street Regional Recycling Depot","GlobalID":"{6A57F320-7EA8-4D5F-A7CE-3EF23C22AC91}"}},{"type":"Feature","id":173,"geometry":{"type":"Point","coordinates":[-122.80336798455569,53.86236343472907]},"properties":{"OBJECTID":173,"LifeCycleStatus":"ACT","Comm_Facility":"6","Facility_Desc":"Vanway Regional Transfer Station","GlobalID":"{78467F2F-A819-4481-86E6-5C2713D3779D}"}},{"type":"Feature","id":174,"geometry":{"type":"Point","coordinates":[-122.76645488933622,53.88012018263799]},"properties":{"OBJECTID":174,"LifeCycleStatus":"ACT","Comm_Facility":"6","Facility_Desc":"Wastewater Treatment Facility","GlobalID":"{E0327B71-560A-445D-966F-4476031C8D77}"}},{"type":"Feature","id":175,"geometry":{"type":"Point","coordinates":[-122.62690351877856,53.9492734013882]},"properties":{"OBJECTID":175,"LifeCycleStatus":"ACT","Comm_Facility":"6","Facility_Desc":"Shelley Lagoon","GlobalID":"{9F3AC4E8-02CF-4A85-9507-B9AC9C62CFA4}"}},{"type":"Feature","id":176,"geometry":{"type":"Point","coordinates":[-122.75516887072361,53.880665297788305]},"properties":{"OBJECTID":176,"LifeCycleStatus":"ACT","Comm_Facility":"6","Facility_Desc":"BCR Lagoon","GlobalID":"{EFAB87C1-00ED-4709-92E5-673212756112}"}},{"type":"Feature","id":177,"geometry":{"type":"Point","coordinates":[-122.65337296651492,53.92862451679365]},"properties":{"OBJECTID":177,"LifeCycleStatus":"ACT","Comm_Facility":"6","Facility_Desc":"Foreman Rd Lagoon","GlobalID":"{56F49873-57F9-426F-8514-D550B7F13A26}"}},{"type":"Feature","id":178,"geometry":{"type":"Point","coordinates":[-122.7335044638099,53.829678198924825]},"properties":{"OBJECTID":178,"LifeCycleStatus":"ACT","Comm_Facility":"6","Facility_Desc":"Danson Lagoon","GlobalID":"{0D6F08ED-F441-429C-8C72-9BAE0FCCC496}"}},{"type":"Feature","id":179,"geometry":{"type":"Point","coordinates":[-122.87661271577747,53.820534060515655]},"properties":{"OBJECTID":179,"LifeCycleStatus":"ACT","Comm_Facility":"6","Facility_Desc":"Western Acres Lagoon","GlobalID":"{DD3B1B3E-649D-4F70-87FB-B44263F920B2}"}},{"type":"Feature","id":180,"geometry":{"type":"Point","coordinates":[-122.74968467977956,53.91330152174563]},"properties":{"OBJECTID":180,"LifeCycleStatus":"ACT","Comm_Facility":"1","Facility_Desc":"Two Rivers Art Gallery","GlobalID":"{9E69CD38-11B0-4CB1-B594-EA2F052872C2}"}},{"type":"Feature","id":181,"geometry":{"type":"Point","coordinates":[-122.78690267106863,53.98841257038406]},"properties":{"OBJECTID":181,"LifeCycleStatus":"ACT","Comm_Facility":"1","Facility_Desc":"Prince George Public Library - Bob Harkins Branch","GlobalID":"{ACD5615B-3603-49BB-8387-E019CF326641}"}}]}
