{"features":[{"geometry":{"type":"Point","coordinates":[-122.64275026512202,53.89661699005476],"crs":null},"id":1,"type":"Feature","properties":{"install_by":"City","watersource":"Hydrant 1800","address":"2451 Blackburn Rd","notes":null,"surface":"Tennis Court","organization":"2","name":"Blackburn Park","globalid":"{B9D4F1CC-0932-40B5-9EBB-4D080118000F}","active":"YES","location":"1","objectid":1}},{"geometry":{"type":"Point","coordinates":[-122.77284118717711,53.87190140000025],"crs":null},"id":2,"type":"Feature","properties":{"install_by":"City","watersource":"Hydrant 2216","address":"5355 Eton Ave","notes":null,"surface":"1","organization":"2","name":"North College Park","globalid":"{123733A6-F304-4AC8-BC1F-41C92B3C96AC}","active":"YES","location":"2","objectid":2}},{"geometry":{"type":"Point","coordinates":[-122.77462491614124,53.8550316326423],"crs":null},"id":3,"type":"Feature","properties":{"install_by":"City","watersource":"Stand Pipe","address":"7540 St Mary Cres","notes":"Rink fits between hoop standards","surface":"3","organization":"2","name":"St Mary Park","globalid":"{14C2460B-0A24-4E9B-A01E-795A81AF8EF5}","active":"YES","location":"2","objectid":3}},{"geometry":{"type":"Point","coordinates":[-122.76529383770564,53.85039790553367],"crs":null},"id":4,"type":"Feature","properties":{"install_by":"City","watersource":"Hydrant 1830","address":"8008 Malaspina Ave","notes":null,"surface":"1","organization":"2","name":"Malaspina Park","globalid":"{6AB63B8E-6189-4F75-B0A3-84C87F9E6C29}","active":"YES","location":"2","objectid":4}},{"geometry":{"type":"Point","coordinates":[-122.7830499043739,53.85889743016124],"crs":null},"id":5,"type":"Feature","properties":{"install_by":"City","watersource":"Stand Pipe","address":"7043 Southridge ave","notes":"Permanent boards have been removed","surface":"2","organization":"2","name":"SouthridgePark","globalid":"{AB8EB4B7-2006-445E-88F8-541FD3BA71A5}","active":"YES","location":"2","objectid":5}},{"geometry":{"type":"Point","coordinates":[-122.7640239073548,53.862574288764414],"crs":null},"id":6,"type":"Feature","properties":{"install_by":"SD","watersource":"Private Hydrant 1328","address":"6180 Domano Blvd","notes":"Key to parking lot required. Permission requested to place 8'-10' storage container within fence","surface":"1","organization":"2","name":"College Heights Secondary","globalid":"{4D12E2A1-1CA9-4579-B553-C8F26EE3BD1A}","active":"YES","location":"2","objectid":6}},{"geometry":{"type":"Point","coordinates":[-122.78552106102435,53.99120400021974],"crs":null},"id":8,"type":"Feature","properties":{"install_by":null,"watersource":null,"address":"6776 Dagg Rd","notes":null,"surface":"6","organization":"2","name":"Cpl. Darren Fitzpatrick Bravery Park","globalid":"{7281D422-65C9-44CC-9680-E966158E9F30}","active":"NO","location":"4","objectid":8}},{"geometry":{"type":"Point","coordinates":[-122.79841515611743,53.97642343843247],"crs":null},"id":9,"type":"Feature","properties":{"install_by":"City","watersource":"Hydrant 2704","address":"2992 Ridgeview Dr","notes":null,"surface":"1","organization":"2","name":"Ridgeview Park","globalid":"{15B457C5-72BC-4F45-A4BB-3377E1E6198D}","active":"YES","location":"4","objectid":9}},{"geometry":{"type":"Point","coordinates":[-122.7923671433642,53.895197102500596],"crs":null},"id":10,"type":"Feature","properties":{"install_by":"City","watersource":"Hydrant 1954","address":"3640 Forest Ave","notes":null,"surface":"7","organization":"2","name":"Pinecone Park","globalid":"{6E6F9658-A9DB-4A1F-90BD-B4AD0397C6A5}","active":"NO","location":"6","objectid":10}},{"geometry":{"type":"Point","coordinates":[-122.77754894317081,53.876737263641274],"crs":null},"id":11,"type":"Feature","properties":{"install_by":"City","watersource":"Stand Pipe","address":"2748 Starlane Dr","notes":"Uses standpipe. Double up boards along north side of the  hard surface court","surface":"8","organization":"2","name":"Starlane Park","globalid":"{3002B99D-9260-4BC4-ACE1-1FD3A678C460}","active":"YES","location":"6","objectid":11}},{"geometry":{"type":"Point","coordinates":[-122.80044651197782,53.89888756999908],"crs":null},"id":12,"type":"Feature","properties":{"install_by":"SD","watersource":"Hydrant 1746","address":"4140 Campbell Ave","notes":null,"surface":"6","organization":"2","name":"Pinewood Elementary School","globalid":"{54BD3DF2-EE0F-4555-96FE-B54B4E53539F}","active":"YES","location":"6","objectid":12}},{"geometry":{"type":"Point","coordinates":[-122.75223862707146,53.90819943263632],"crs":null},"id":13,"type":"Feature","properties":{"install_by":"SD","watersource":"Hydrant 1568","address":"1401 17th Ave","notes":"Boards placed butted up to concrete below bench in SE corner","surface":"10","organization":"2","name":"Ron Brent Elementary","globalid":"{6D33FC1E-CB5D-4C04-9BD4-8EB0D48E0478}","active":"YES","location":"6","objectid":13}},{"geometry":{"type":"Point","coordinates":[-122.78637746001901,53.89537164780557],"crs":null},"id":14,"type":"Feature","properties":{"install_by":"SD","watersource":"Hydrant 1950","address":"2633 Vanier Dr","notes":null,"surface":"1","organization":"2","name":"Westwood Elementary","globalid":"{0B313F62-7DDA-4752-B369-E80E207213AA}","active":"YES","location":"5","objectid":14}},{"geometry":{"type":"Point","coordinates":[-122.76306569420417,53.89047409051527],"crs":null},"id":15,"type":"Feature","properties":{"install_by":"SD","watersource":"Hydrant 2027","address":"311 Wilson Cres","notes":"Hydrant is located at parking lot entrance","surface":"1","organization":"2","name":"Van Bien Elementary","globalid":"{D5F15776-358D-41D9-B775-DE8AC85F5E8A}","active":"YES","location":"6","objectid":15}},{"geometry":{"type":"Point","coordinates":[-122.81096135975208,53.915008168071154],"crs":null},"id":16,"type":"Feature","properties":{"install_by":"City","watersource":"Stand Pipe","address":"4343 Eaglenest Cres","notes":null,"surface":"1","organization":"2","name":"Eaglesnest Park","globalid":"{8C7FB7C5-7935-4B8F-AEE5-159626F81572}","active":"YES","location":"5","objectid":16}},{"geometry":{"type":"Point","coordinates":[-122.77873473461722,53.91396109653556],"crs":null},"id":17,"type":"Feature","properties":{"install_by":"SD","watersource":"Hydrant 638","address":"1193 Harper St","notes":null,"surface":"1","organization":"2","name":"Harwin Elementary","globalid":"{F70C5712-9A5F-4F81-A6AF-5E3D6BB41ABB}","active":"NO","location":"5","objectid":17}},{"geometry":{"type":"Point","coordinates":[-122.79760203615655,53.915427347527135],"crs":null},"id":18,"type":"Feature","properties":{"install_by":"SD","watersource":"Stand Pipe","address":"4131 Rainbow Dr","notes":null,"surface":"1","organization":"2","name":"Ecole Lac de Bois","globalid":"{F89F0CB7-DBB4-4403-9544-65BEC1C7F786}","active":"YES","location":"5","objectid":18}},{"geometry":{"type":"Point","coordinates":[-122.80472461365262,53.90436302798658],"crs":null},"id":19,"type":"Feature","properties":{"install_by":null,"watersource":null,"address":"2187 Ospika Blvd","notes":"Ice Oval Society responsible","surface":"5","organization":"1","name":"Ice Oval","globalid":"{9A12EDF8-82F9-4B05-9100-7C9F70A2148B}","active":"YES","location":"5","objectid":19}},{"geometry":{"type":"Point","coordinates":[-122.74987464302764,53.91274773288456],"crs":null},"id":20,"type":"Feature","properties":{"install_by":null,"watersource":null,"address":"808 Civic Plaza","notes":null,"surface":"8","organization":"1","name":"Civic Centre","globalid":"{CEADBA0C-46F1-4242-9A2A-93DE5720DD5B}","active":"NO","location":null,"objectid":20}},{"geometry":{"type":"Point","coordinates":[-122.78859683326837,53.91523786458311],"crs":null},"id":21,"type":"Feature","properties":{"install_by":"City","watersource":"Hydrant 619 ","address":"3655 Rainbow Dr","notes":"Rink fits between hoop standards","surface":"1","organization":"2","name":"Harry Loder Park","globalid":"{D60F8AA2-61FC-4000-B22F-701C2B171B99}","active":"YES","location":"5","objectid":21}},{"geometry":{"type":"Point","coordinates":[-122.81173058443495,53.95984006306492],"crs":null},"id":22,"type":"Feature","properties":{"install_by":"City","watersource":"Hydrant 930","address":"4990 Meadowbrook Rd","notes":"CA would like to have stand pipe installed if possible due to distance to hydrant","surface":"1","organization":"2","name":"Fairburn Park","globalid":"{EAC933AB-5931-4996-9B0D-730C6898F6C9}","active":"YES","location":"5","objectid":22}},{"geometry":{"type":"Point","coordinates":[-122.80123917011319,53.92338969925199],"crs":null},"id":23,"type":"Feature","properties":{"install_by":null,"watersource":null,"address":"290 Voyageur Dr","notes":null,"surface":"1","organization":"2","name":"Highglen Montessori Choice","globalid":"{65ECA21E-778F-42C1-B0A0-D7109E2125E0}","active":"NO","location":"5","objectid":23}},{"geometry":{"type":"Point","coordinates":[-122.77663875754854,53.92544357007464],"crs":null},"id":24,"type":"Feature","properties":{"install_by":"City","watersource":"Stand Pipe","address":"2748 Hammond Ave","notes":null,"surface":"4","organization":"2","name":"Hammond Park","globalid":"{FEF4F2B8-44D3-4574-8A2A-247ACA90FCFF}","active":"NO","location":"3","objectid":24}},{"geometry":{"type":"Point","coordinates":[-122.7600844399994,53.91586245294208],"crs":null},"id":25,"type":"Feature","properties":{"install_by":"City","watersource":"Hydrant 618","address":"2435 Ross Cres","notes":null,"surface":"8","organization":"2","name":"Duchess Park","globalid":"{BD1DB7FE-7F37-41F1-AEA3-A76578405E56}","active":"YES","location":"3","objectid":25}},{"geometry":{"type":"Point","coordinates":[-122.78997931443949,53.88066219475009],"crs":null},"id":26,"type":"Feature","properties":{"install_by":"City","watersource":"Stand Pipe","address":"3034 Charella Dr","notes":null,"surface":"3","organization":"2","name":"Charella Park","globalid":"{F3DA2DE9-C6C3-4E7B-8CC4-949483E08D18}","active":"YES","location":"6","objectid":26}},{"geometry":{"type":"Point","coordinates":[-122.81412010758228,53.93109956016471],"crs":null},"id":27,"type":"Feature","properties":{"install_by":"City","watersource":"Hydrant 322","address":"4750 1st Ave","notes":"Kiddie Rink at north end","surface":"6","organization":"2","name":"Zimmaro Park","globalid":"{BB8B7A42-CA80-44D6-A5D6-E8ED04EE73D5}","active":"YES","location":"5","objectid":27}},{"geometry":{"type":"Point","coordinates":[-122.77771232785639,53.885872173183124],"crs":null},"id":28,"type":"Feature","properties":{"install_by":"SD","watersource":"Private Hydrant 2062","address":"3500 Westwood Dr","notes":null,"surface":"1","organization":"2","name":"Peden Hill Elementary","globalid":"{7969EFF1-3B2E-42B7-A1AE-E230F7327073}","active":"YES","location":"6","objectid":28}},{"geometry":{"type":"Point","coordinates":[-122.76199882981993,53.90157448436433],"crs":null},"id":29,"type":"Feature","properties":{"install_by":null,"watersource":null,"address":"1991 Strathcona Ave","notes":null,"surface":"6","organization":"2","name":"Strathcona Park","globalid":"{015F0D85-D097-4710-8522-BBD5EB2D5099}","active":"NO","location":"3","objectid":29}},{"geometry":{"type":"Point","coordinates":[-122.78926508641497,53.92202388397781],"crs":null},"id":30,"type":"Feature","properties":{"install_by":"SD","watersource":"Stand Pipe","address":"251 Ogilvie St","notes":null,"surface":"1","organization":"2","name":"Quinson Elementary","globalid":"{0746FF59-1C6B-428E-BDBB-6A593B02B94D}","active":"YES","location":"5","objectid":30}},{"geometry":{"type":"Point","coordinates":[-122.75982547816086,53.95652904760685],"crs":null},"id":31,"type":"Feature","properties":{"install_by":"City","watersource":"Hydrant 944","address":"3495 Bellamy Rd","notes":null,"surface":"3","organization":"2","name":"Clearwood Park","globalid":"{C226647B-2E6A-43B7-9874-9722153E30B0}","active":"YES","location":"4","objectid":31}},{"geometry":{"type":"Point","coordinates":[-122.82165279564997,53.850629506225594],"crs":null},"id":33,"type":"Feature","properties":{"install_by":"SD","watersource":"Private Hydrant 1829","address":"4509 Highway 16 West","notes":null,"surface":"1","organization":"2","name":"Vanway Elementary","globalid":"{18AA2302-311C-413E-AC7E-24D497535163}","active":"YES","location":"2","objectid":33}},{"geometry":{"type":"Point","coordinates":[-122.80305650774702,53.94641987066199],"crs":null},"id":34,"type":"Feature","properties":{"install_by":"SD","watersource":"Hydrant #975","address":"4440 Craig Dr","notes":null,"surface":"7","organization":"2","name":"Edgewood Elementary","globalid":"{B8591C3A-9C10-4E67-81F0-C4854AE962ED}","active":"YES","location":"5","objectid":34}},{"geometry":{"type":"Point","coordinates":[-122.75624118760084,53.89806520031354],"crs":null},"id":35,"type":"Feature","properties":{"install_by":"SD","watersource":"Hydrant #1784","address":"2579 Victoria St","notes":null,"surface":"3","organization":"2","name":"Nusdeh Yoh Elementary","globalid":"{9D58D3C5-9E24-4D30-A6C4-60A6C9101CA1}","active":"YES","location":"6","objectid":35}}],"type":"FeatureCollection","properties":{"exceededTransferLimit":false}}
