{"type":"FeatureCollection","features":[{"type":"Feature","id":1,"geometry":{"type":"Point","coordinates":[-122.73065091513833,53.907907952026086]},"properties":{"OBJECTID":1,"AssetID":"75","LifeCycleStatus":"ACT","SubType":15,"AssetOwner":1,"AssetManager":13,"Location":"Lheidli T'enneh Memorial Park","Artist":null,"Title":"Alexander MacKenzie's Route","Description":"Alexander MacKenzie's Route 1793 \"From Canada by Land\"","Material":"Bronze","ProjectInitiative":null,"Year":null,"Sponsor":null,"Custodian":"CPG","Size_HxWxD_m":null,"Placement":null,"LimitedAccess":0,"AccessContact":"CPG","gisuid":1000008363,"barcode":"PRK-00008363","GlobalID":"{931062A4-1279-46CB-974A-179E2A15978C}"}},{"type":"Feature","id":6,"geometry":{"type":"Point","coordinates":[-122.74794467426875,53.913988149254294]},"properties":{"OBJECTID":6,"AssetID":"76","LifeCycleStatus":"ACT","SubType":15,"AssetOwner":1,"AssetManager":13,"Location":"670 Quebec St","Artist":null,"Title":"Terry Fox","Description":null,"Material":"Brass","ProjectInitiative":null,"Year":null,"Sponsor":null,"Custodian":null,"Size_HxWxD_m":null,"Placement":null,"LimitedAccess":0,"AccessContact":null,"gisuid":1000008364,"barcode":"PRK-00008364","GlobalID":"{E0B4C058-7B19-4683-8EAF-96E5DBA5AA7E}"}},{"type":"Feature","id":8,"geometry":{"type":"Point","coordinates":[-122.79500167420242,53.98590272328721]},"properties":{"OBJECTID":8,"AssetID":"77","LifeCycleStatus":"ACT","SubType":9,"AssetOwner":1,"AssetManager":13,"Location":"Balsum Park","Artist":null,"Title":null,"Description":null,"Material":null,"ProjectInitiative":null,"Year":null,"Sponsor":null,"Custodian":null,"Size_HxWxD_m":null,"Placement":null,"LimitedAccess":null,"AccessContact":null,"gisuid":1000008365,"barcode":"PRK-00008365","GlobalID":"{664ED0FE-84D0-4DA8-8AB3-125E57E7B39B}"}},{"type":"Feature","id":9,"geometry":{"type":"Point","coordinates":[-122.74312090390099,53.91220012321766]},"properties":{"OBJECTID":9,"AssetID":"78","LifeCycleStatus":"ACT","SubType":15,"AssetOwner":1,"AssetManager":13,"Location":"Connaught Park","Artist":null,"Title":null,"Description":null,"Material":"Brass","ProjectInitiative":null,"Year":null,"Sponsor":null,"Custodian":null,"Size_HxWxD_m":null,"Placement":null,"LimitedAccess":null,"AccessContact":null,"gisuid":1000008366,"barcode":"PRK-00008366","GlobalID":"{C6B3FFB2-5DE9-4AED-968C-4D6B6357022D}"}},{"type":"Feature","id":10,"geometry":{"type":"Point","coordinates":[-122.76473635437615,53.928382811030914]},"properties":{"OBJECTID":10,"AssetID":"79","LifeCycleStatus":"ACT","SubType":15,"AssetOwner":1,"AssetManager":13,"Location":"McMillan Creek Fishing Park","Artist":null,"Title":"McMillan Creek Fishing Park","Description":"This park is dedicated to the RON LIND FAMILY, whose contribution enabled the City of Prince George to create this parkland as a legacy for the community.","Material":"Brass","ProjectInitiative":null,"Year":"2010","Sponsor":"City of Prince George","Custodian":"City of Prince George","Size_HxWxD_m":"0.55x0.40","Placement":"McMillan Creek Fishing Park","LimitedAccess":0,"AccessContact":"City of Prince George","gisuid":1000008367,"barcode":"PRK-00008367","GlobalID":"{4B28C019-A8E9-4812-B5EF-0008A99D707B}"}},{"type":"Feature","id":11,"geometry":{"type":"Point","coordinates":[-122.73066505089702,53.90791426191098]},"properties":{"OBJECTID":11,"AssetID":"80","LifeCycleStatus":"ACT","SubType":15,"AssetOwner":1,"AssetManager":13,"Location":"Lheidli T'enneh Memorial Park","Artist":null,"Title":"The Explorations of Sir Alexander MacKenzie - Les Explorations de Sir Alexander MacKenzie","Description":"Alexander MacKenzie","Material":"Bronze","ProjectInitiative":null,"Year":null,"Sponsor":null,"Custodian":"CPG","Size_HxWxD_m":null,"Placement":null,"LimitedAccess":0,"AccessContact":"CPG","gisuid":1000008368,"barcode":"PRK-00008368","GlobalID":"{383ACC70-BD2A-4BA2-AB27-B34F2687AFC1}"}},{"type":"Feature","id":13,"geometry":{"type":"Point","coordinates":[-122.74420411197309,53.9191160243743]},"properties":{"OBJECTID":13,"AssetID":"5","LifeCycleStatus":"ACT","SubType":3,"AssetOwner":null,"AssetManager":null,"Location":"1300 1st Ave","Artist":"Ron Sebastian","Title":null,"Description":"Carved Cedar Doors","Material":null,"ProjectInitiative":"Tourism Prince George","Year":"2000","Sponsor":null,"Custodian":"Tourism Prince George","Size_HxWxD_m":null,"Placement":"17","LimitedAccess":null,"AccessContact":null,"gisuid":1000008369,"barcode":"PRK-00008369","GlobalID":"{8F6101F5-943A-41E1-B8FB-BE8DFC45B6A9}"}},{"type":"Feature","id":14,"geometry":{"type":"Point","coordinates":[-122.74587601912549,53.913194401110516]},"properties":{"OBJECTID":14,"AssetID":"9","LifeCycleStatus":"ACT","SubType":3,"AssetOwner":null,"AssetManager":null,"Location":"1100 Patricia Blvd","Artist":"Robert Fredrick, Jennfer Pighin","Title":"En Cha Ghuna (He too Lives)","Description":"This collaborative project includes a dugout canoe and glass tile mosaic. Mr. Frederick hewed the original canoe  and Jennifer Pighin created a colourful glass tile mosaic of eleven life-size native fish.","Material":null,"ProjectInitiative":"Spirit Square Program","Year":"2012","Sponsor":null,"Custodian":"City of Prince George","Size_HxWxD_m":null,"Placement":"3","LimitedAccess":null,"AccessContact":null,"gisuid":1000008370,"barcode":"PRK-00008370","GlobalID":"{B1BC3C37-0C2F-44E5-A916-CFE8B566AF07}"}},{"type":"Feature","id":15,"geometry":{"type":"Point","coordinates":[-122.80124396491917,53.90463625217235]},"properties":{"OBJECTID":15,"AssetID":"27","LifeCycleStatus":"ACT","SubType":3,"AssetOwner":null,"AssetManager":null,"Location":"2187 Ospika Blvd","Artist":"Jerry Strelioff","Title":"Untitled","Description":"Chainsaw Carving","Material":null,"ProjectInitiative":"Forest Expo invitational Chain Saw program","Year":"2008","Sponsor":null,"Custodian":"City of Prince George","Size_HxWxD_m":null,"Placement":"11","LimitedAccess":null,"AccessContact":null,"gisuid":1000008371,"barcode":"PRK-00008371","GlobalID":"{39E00314-CF37-41E5-9911-F9C6998558B7}"}},{"type":"Feature","id":16,"geometry":{"type":"Point","coordinates":[-122.80123651968424,53.904507821789096]},"properties":{"OBJECTID":16,"AssetID":"28","LifeCycleStatus":"ACT","SubType":3,"AssetOwner":null,"AssetManager":null,"Location":"2187 Ospika Blvd","Artist":"Dan Richey","Title":"Three is a Crowd","Description":"Chainsaw Carving","Material":null,"ProjectInitiative":"Forest Expo invitational Chain Saw program","Year":"2008","Sponsor":null,"Custodian":"City of Prince George","Size_HxWxD_m":null,"Placement":"11","LimitedAccess":null,"AccessContact":null,"gisuid":1000008372,"barcode":"PRK-00008372","GlobalID":"{11BEE57B-ABA8-4536-A287-7E27FA0A607D}"}},{"type":"Feature","id":17,"geometry":{"type":"Point","coordinates":[-122.73238211613867,53.90612201228543]},"properties":{"OBJECTID":17,"AssetID":"30","LifeCycleStatus":"ACT","SubType":3,"AssetOwner":null,"AssetManager":null,"Location":"101 17th Ave","Artist":null,"Title":"Lheidli T'enneh Entrance Gate","Description":"Carved entrance gate to Lheidli T'enneh burial ground","Material":null,"ProjectInitiative":null,"Year":null,"Sponsor":null,"Custodian":"Lheidli T'enneh","Size_HxWxD_m":null,"Placement":"12","LimitedAccess":null,"AccessContact":null,"gisuid":1000008373,"barcode":"PRK-00008373","GlobalID":"{EDCA757A-F638-48DD-BE2F-89EAFF9BA641}"}},{"type":"Feature","id":18,"geometry":{"type":"Point","coordinates":[-122.74545028537567,53.91278257181681]},"properties":{"OBJECTID":18,"AssetID":"37","LifeCycleStatus":"ACT","SubType":3,"AssetOwner":null,"AssetManager":null,"Location":"1100 Patricia Blvd","Artist":"Elmer Gunderson","Title":"Dedication Pole","Description":"The piece commemorates retired staff that work in City Hall. Small plates bearing the name of retired individuals are attached to the piece.  ","Material":null,"ProjectInitiative":"City of Prince George. Elmer Gunderson","Year":"2006","Sponsor":null,"Custodian":"City of Prince George","Size_HxWxD_m":null,"Placement":"3","LimitedAccess":null,"AccessContact":null,"gisuid":1000008374,"barcode":"PRK-00008374","GlobalID":"{14D109A5-42AF-4835-A16A-94537F40B799}"}},{"type":"Feature","id":19,"geometry":{"type":"Point","coordinates":[-122.73205261477547,53.9226295112757]},"properties":{"OBJECTID":19,"AssetID":"40","LifeCycleStatus":"ACT","SubType":3,"AssetOwner":null,"AssetManager":null,"Location":"850 River Rd","Artist":"Elmer Gunderson","Title":"Tree Spirits","Description":"Carvings In Cottonwood trees throughout Cottonwood Island park","Material":null,"ProjectInitiative":"City of Prince George 90th. Anniversary Committee","Year":"2005","Sponsor":null,"Custodian":"City of Prince George","Size_HxWxD_m":null,"Placement":"12","LimitedAccess":null,"AccessContact":null,"gisuid":1000008375,"barcode":"PRK-00008375","GlobalID":"{7E3D8ACA-94B3-4B24-A79E-E81C566CC858}"}},{"type":"Feature","id":20,"geometry":{"type":"Point","coordinates":[-122.70919435387293,53.9076281720394]},"properties":{"OBJECTID":20,"AssetID":"46","LifeCycleStatus":"ACT","SubType":3,"AssetOwner":null,"AssetManager":null,"Location":"655 Hwy 16","Artist":"Inmates of Prince George Regional Correctional Facility","Title":"Sun Spirit","Description":null,"Material":null,"ProjectInitiative":"Hutla Lake Work Crew","Year":"2002","Sponsor":null,"Custodian":"Prince George Regional Correctional Facility ","Size_HxWxD_m":null,"Placement":"7","LimitedAccess":null,"AccessContact":null,"gisuid":1000008376,"barcode":"PRK-00008376","GlobalID":"{3DF6C9CE-9A5F-4157-815D-CD6409DA67BA}"}},{"type":"Feature","id":21,"geometry":{"type":"Point","coordinates":[-122.77577393649534,53.91076820287324]},"properties":{"OBJECTID":21,"AssetID":"48","LifeCycleStatus":"ACT","SubType":3,"AssetOwner":null,"AssetManager":null,"Location":"2880 15th Ave","Artist":"John Rogers, Elmer Gunderson","Title":"Bear, Weathered Old Face","Description":"Carving by various artists John Rogers, Elmer Gunderson, Keith Carlson","Material":null,"ProjectInitiative":"Community Arts Council,John Rogers, Elmer Gunderson","Year":"2003","Sponsor":null,"Custodian":"Community Arts Council","Size_HxWxD_m":null,"Placement":"17","LimitedAccess":null,"AccessContact":null,"gisuid":1000008377,"barcode":"PRK-00008377","GlobalID":"{875D8DA7-E7CF-4893-B892-FEDB925C1C63}"}},{"type":"Feature","id":22,"geometry":{"type":"Point","coordinates":[-122.79576249535404,53.907952124360065]},"properties":{"OBJECTID":22,"AssetID":"49","LifeCycleStatus":"ACT","SubType":3,"AssetOwner":null,"AssetManager":null,"Location":"4050 18th Ave","Artist":"Elmer Gunderson","Title":"Dedication Pole #2","Description":"The piece commemorates retired staff that work at the City Yards. Small plates bearing the name of retired individuals are attached to the piece.  ","Material":null,"ProjectInitiative":"City of Prince George. Elmer Gunderson","Year":"2006","Sponsor":null,"Custodian":"City of Prince George","Size_HxWxD_m":null,"Placement":"11","LimitedAccess":null,"AccessContact":null,"gisuid":1000008378,"barcode":"PRK-00008378","GlobalID":"{A80E3F89-D8BA-4691-953F-F9A54485CDC7}"}},{"type":"Feature","id":23,"geometry":{"type":"Point","coordinates":[-122.74492966107384,53.91284796810155]},"properties":{"OBJECTID":23,"AssetID":"50","LifeCycleStatus":"ACT","SubType":3,"AssetOwner":null,"AssetManager":null,"Location":"1100 Patricia Blvd","Artist":"Judy Whyte","Title":"City of Prince George Coat of Arms","Description":"City of Prince George Coat of Arms","Material":null,"ProjectInitiative":null,"Year":"1996","Sponsor":null,"Custodian":"City of Prince George","Size_HxWxD_m":null,"Placement":"3","LimitedAccess":null,"AccessContact":null,"gisuid":1000008379,"barcode":"PRK-00008379","GlobalID":"{D9FC8B93-2F8C-4336-B747-F5E6EF800FF7}"}},{"type":"Feature","id":24,"geometry":{"type":"Point","coordinates":[-122.75009798874653,53.91251358460667]},"properties":{"OBJECTID":24,"AssetID":"65","LifeCycleStatus":"ACT","SubType":20,"AssetOwner":null,"AssetManager":null,"Location":"808 Canada Games Way","Artist":"Pioneer Log Homes","Title":"Canada Winter Games Cauldron","Description":"Pioneer Log Homes donated a cauldron, made of western red cedar","Material":null,"ProjectInitiative":"2015 Canada Winter Games","Year":"2015","Sponsor":null,"Custodian":"City of Prince George","Size_HxWxD_m":null,"Placement":"13","LimitedAccess":null,"AccessContact":null,"gisuid":1000008380,"barcode":"PRK-00008380","GlobalID":"{F094B228-9474-4C1D-B84F-3B9F0556CA56}"}},{"type":"Feature","id":25,"geometry":{"type":"Point","coordinates":[-122.74507190083438,53.913242954515624]},"properties":{"OBJECTID":25,"AssetID":"10","LifeCycleStatus":"ACT","SubType":9,"AssetOwner":null,"AssetManager":null,"Location":"1100 Patricia Blvd","Artist":null,"Title":"Cenotaph","Description":"Stone Marker - Replaced Stone and Bronze monument","Material":null,"ProjectInitiative":"Commemorative to soldiers and volunteers lost during military encounters.","Year":"2010","Sponsor":null,"Custodian":"City of Prince George","Size_HxWxD_m":null,"Placement":"12","LimitedAccess":null,"AccessContact":null,"gisuid":1000008381,"barcode":"PRK-00008381","GlobalID":"{79246E51-63DE-4A52-B0AD-8CD465908DB6}"}},{"type":"Feature","id":27,"geometry":{"type":"Point","coordinates":[-122.75281337101697,53.91852051217594]},"properties":{"OBJECTID":27,"AssetID":"18","LifeCycleStatus":"ACT","SubType":9,"AssetOwner":null,"AssetManager":null,"Location":"1685 3rd Ave","Artist":"Phil Morrison","Title":"Anti Totem Pole","Description":"This totem of western society comments on the discrepancy between our societal admirations of First Nation's art with the treatment of First Nation peoples.","Material":null,"ProjectInitiative":"Phil Morrison","Year":"2000","Sponsor":null,"Custodian":"Books & Co.","Size_HxWxD_m":null,"Placement":"4","LimitedAccess":null,"AccessContact":null,"gisuid":1000008383,"barcode":"PRK-00008383","GlobalID":"{1C976A70-2677-4B01-8C86-81CFBAC46783}"}},{"type":"Feature","id":28,"geometry":{"type":"Point","coordinates":[-122.74152669188061,53.918039101082506]},"properties":{"OBJECTID":28,"AssetID":"19","LifeCycleStatus":"ACT","SubType":9,"AssetOwner":null,"AssetManager":null,"Location":"101 George St","Artist":null,"Title":"Millennium Park Carin","Description":"Stone and Bronze Marker","Material":null,"ProjectInitiative":"To commemorate the opening of Millennium Park In honour of the first arrival of steel for the railway In 1923","Year":"2001","Sponsor":null,"Custodian":"City of Prince George","Size_HxWxD_m":null,"Placement":"12","LimitedAccess":null,"AccessContact":null,"gisuid":1000008384,"barcode":"PRK-00008384","GlobalID":"{19B3E752-3794-46DB-A914-9882D21B5A30}"}},{"type":"Feature","id":29,"geometry":{"type":"Point","coordinates":[-122.74893326426786,53.89234096715822]},"properties":{"OBJECTID":29,"AssetID":"31","LifeCycleStatus":"ACT","SubType":9,"AssetOwner":null,"AssetManager":null,"Location":"0 Ferry Ave","Artist":null,"Title":"Marker for Highway & Bridge Workers","Description":"Concrete and Bronze monument and","Material":null,"ProjectInitiative":"To commemorate  the past and present highway and bridge workers of British Columbia for their contributions on behalf of the citizens of the Province","Year":"2011","Sponsor":null,"Custodian":"Ministry of Transportation and Highways","Size_HxWxD_m":null,"Placement":"17","LimitedAccess":null,"AccessContact":null,"gisuid":1000008385,"barcode":"PRK-00008385","GlobalID":"{9AA6F0F6-9D07-4230-A419-56B974A3B69D}"}},{"type":"Feature","id":30,"geometry":{"type":"Point","coordinates":[-122.74794559566416,53.910217485941715]},"properties":{"OBJECTID":30,"AssetID":"32","LifeCycleStatus":"ACT","SubType":1,"AssetOwner":null,"AssetManager":null,"Location":"Connaught Hill Park","Artist":null,"Title":"Flywheel","Description":" Flywheel reminder of pioneer saw milling","Material":null,"ProjectInitiative":null,"Year":null,"Sponsor":null,"Custodian":"City of Prince George","Size_HxWxD_m":null,"Placement":"12","LimitedAccess":null,"AccessContact":null,"gisuid":1000008386,"barcode":"PRK-00008386","GlobalID":"{A5157783-0FB0-408A-BC77-172AE0B8AF3A}"}},{"type":"Feature","id":31,"geometry":{"type":"Point","coordinates":[-122.73065798378111,53.90791110652104]},"properties":{"OBJECTID":31,"AssetID":"36","LifeCycleStatus":"ACT","SubType":9,"AssetOwner":null,"AssetManager":null,"Location":"101 17th Ave","Artist":null,"Title":"Alexander Mackenzie Marker & Carin","Description":"Concrete and Bronze Marker","Material":null,"ProjectInitiative":"To commemorate the arrival of Sir Alexander MacKenzie In 1789","Year":"2009","Sponsor":null,"Custodian":"City of Prince George","Size_HxWxD_m":null,"Placement":"12","LimitedAccess":null,"AccessContact":null,"gisuid":1000008387,"barcode":"PRK-00008387","GlobalID":"{F8BA2594-E9E6-4392-961D-F879FBBC2B08}"}},{"type":"Feature","id":32,"geometry":{"type":"Point","coordinates":[-122.74581711386672,53.888970039716526]},"properties":{"OBJECTID":32,"AssetID":"38","LifeCycleStatus":"ACT","SubType":9,"AssetOwner":null,"AssetManager":null,"Location":"3500 Hwy 97","Artist":"Justin Russell","Title":"Simon Fraser Commemoration","Description":"This piece commemorates Simons Frasers influence and journey on the river which bears his name and commemorates Simon Fraser’s establishment of the original Fort George in 1807.","Material":null,"ProjectInitiative":"City of Prince George","Year":"2009","Sponsor":null,"Custodian":"Ministry of Transportation and Highways","Size_HxWxD_m":null,"Placement":"17","LimitedAccess":null,"AccessContact":null,"gisuid":1000008388,"barcode":"PRK-00008388","GlobalID":"{F608E9AC-4BF1-4569-9D1C-C4134BC45B65}"}},{"type":"Feature","id":33,"geometry":{"type":"Point","coordinates":[-122.7327953480658,53.90624011923712]},"properties":{"OBJECTID":33,"AssetID":"54","LifeCycleStatus":"ACT","SubType":9,"AssetOwner":null,"AssetManager":null,"Location":"101 17th Ave","Artist":"Unknown","Title":"Clan Marker","Description":"Marker commemorating clans in the region","Material":null,"ProjectInitiative":"Lheidli T'enneh","Year":null,"Sponsor":null,"Custodian":"Lheidli T'enneh","Size_HxWxD_m":null,"Placement":"12","LimitedAccess":null,"AccessContact":null,"gisuid":1000008389,"barcode":"PRK-00008389","GlobalID":"{C20CE30A-6F9E-41A9-96F4-9DFD49B2B696}"}},{"type":"Feature","id":34,"geometry":{"type":"Point","coordinates":[-122.7495949501352,53.91072363530685]},"properties":{"OBJECTID":34,"AssetID":"61","LifeCycleStatus":"ACT","SubType":9,"AssetOwner":null,"AssetManager":null,"Location":"1112 Connaught Dr","Artist":null,"Title":"Drinking Fountain","Description":"Drinking Fountain donated to City of Prince George","Material":null,"ProjectInitiative":null,"Year":"1969","Sponsor":null,"Custodian":"City of Prince George","Size_HxWxD_m":null,"Placement":"12","LimitedAccess":null,"AccessContact":null,"gisuid":1000008390,"barcode":"PRK-00008390","GlobalID":"{11872169-4B7F-4A6A-9A11-0B3C5F6C2540}"}},{"type":"Feature","id":35,"geometry":{"type":"Point","coordinates":[-122.76801017409078,53.88360480694391]},"properties":{"OBJECTID":35,"AssetID":"62","LifeCycleStatus":"ACT","SubType":9,"AssetOwner":null,"AssetManager":null,"Location":"2099 Ferry Ave","Artist":null,"Title":"Chinese Monument","Description":"Stone and Bronze Marker","Material":null,"ProjectInitiative":"To commemorate the early Chinese-Canadian settlers of Prince George","Year":"2002","Sponsor":null,"Custodian":"City of Prince George","Size_HxWxD_m":null,"Placement":"17","LimitedAccess":null,"AccessContact":null,"gisuid":1000008391,"barcode":"PRK-00008391","GlobalID":"{905156C5-EAE0-4E4E-B1F3-A06A5542BE1C}"}},{"type":"Feature","id":36,"geometry":{"type":"Point","coordinates":[-122.73665191972964,53.89863468946093]},"properties":{"OBJECTID":36,"AssetID":"63","LifeCycleStatus":"ACT","SubType":9,"AssetOwner":null,"AssetManager":null,"Location":"698 Hamilton Ave","Artist":null,"Title":"Paddlewheel Park Marker","Description":"Stone, Concrete and Bronze monument with plaque","Material":null,"ProjectInitiative":"To commemorate the arrival of the BX Paddlewheel Transport Boat","Year":null,"Sponsor":null,"Custodian":"City of Prince George","Size_HxWxD_m":null,"Placement":"12","LimitedAccess":null,"AccessContact":null,"gisuid":1000008392,"barcode":"PRK-00008392","GlobalID":"{607F441D-A412-4317-9F25-87BD277986DF}"}},{"type":"Feature","id":37,"geometry":{"type":"Point","coordinates":[-122.74762319285261,53.915263015510305]},"properties":{"OBJECTID":37,"AssetID":"4","LifeCycleStatus":"ACT","SubType":12,"AssetOwner":null,"AssetManager":null,"Location":"1323 5th Ave","Artist":"Milan Basic","Title":"Canada Games House","Description":null,"Material":null,"ProjectInitiative":"2015 Canada Winter Games","Year":"2012","Sponsor":null,"Custodian":"2015 Canada Winter Games","Size_HxWxD_m":null,"Placement":"4","LimitedAccess":null,"AccessContact":null,"gisuid":1000008393,"barcode":"PRK-00008393","GlobalID":"{82F81A86-11CA-4603-91D7-C98CD2FE37BF}"}},{"type":"Feature","id":38,"geometry":{"type":"Point","coordinates":[-122.74352346686477,53.91663499916015]},"properties":{"OBJECTID":38,"AssetID":"7","LifeCycleStatus":"ACT","SubType":12,"AssetOwner":null,"AssetManager":null,"Location":"1157 3rd Ave","Artist":"EA Rossett","Title":"Untitled","Description":null,"Material":null,"ProjectInitiative":"St. Vincent de Paul","Year":"1997","Sponsor":null,"Custodian":null,"Size_HxWxD_m":null,"Placement":"4","LimitedAccess":null,"AccessContact":null,"gisuid":1000008394,"barcode":"PRK-00008394","GlobalID":"{D95E5138-0B49-41B2-B817-08C8DA7E2FE8}"}},{"type":"Feature","id":39,"geometry":{"type":"Point","coordinates":[-122.75281337101697,53.91852051217594]},"properties":{"OBJECTID":39,"AssetID":"81","LifeCycleStatus":"ACT","SubType":12,"AssetOwner":null,"AssetManager":null,"Location":"1685 3rd Ave","Artist":"Phil Morrison","Title":"Anti Totem Pole","Description":"This totem of western society comments on the discrepancy between our societal admirations of First Nation's art with the treatment of First Nation peoples.","Material":null,"ProjectInitiative":"Phil Morrison","Year":"2000","Sponsor":null,"Custodian":"Books & Co.","Size_HxWxD_m":null,"Placement":"4","LimitedAccess":null,"AccessContact":null,"gisuid":1000008395,"barcode":"PRK-00008395","GlobalID":"{459EE8CD-4189-42D2-8C2F-3BC9EA438294}"}},{"type":"Feature","id":40,"geometry":{"type":"Point","coordinates":[-122.74152669188061,53.918039101082506]},"properties":{"OBJECTID":40,"AssetID":"82","LifeCycleStatus":"ACT","SubType":12,"AssetOwner":null,"AssetManager":null,"Location":"101 George St","Artist":null,"Title":"Millennium Park Carin","Description":"Stone and Bronze Marker","Material":null,"ProjectInitiative":"To commemorate the opening of Millennium Park In honour of the first arrival of steel for the railway In 1923","Year":"2001","Sponsor":null,"Custodian":"City of Prince George","Size_HxWxD_m":null,"Placement":"12","LimitedAccess":null,"AccessContact":null,"gisuid":1000008396,"barcode":"PRK-00008396","GlobalID":"{5029DDA1-02AA-4855-BF79-184C3B789456}"}},{"type":"Feature","id":41,"geometry":{"type":"Point","coordinates":[-122.75664462426974,53.90568422076971]},"properties":{"OBJECTID":41,"AssetID":"21","LifeCycleStatus":"ACT","SubType":12,"AssetOwner":null,"AssetManager":null,"Location":"1604 20th Ave","Artist":"Milan Basic","Title":"Tokyo Mural","Description":null,"Material":null,"ProjectInitiative":null,"Year":"2010","Sponsor":null,"Custodian":"Tokyo Japanese Cuisine","Size_HxWxD_m":null,"Placement":"4","LimitedAccess":null,"AccessContact":null,"gisuid":1000008397,"barcode":"PRK-00008397","GlobalID":"{4206747F-7C1F-4E04-A434-DCBEB7580D68}"}},{"type":"Feature","id":42,"geometry":{"type":"Point","coordinates":[-122.75944554148909,53.92286924783055]},"properties":{"OBJECTID":42,"AssetID":"25","LifeCycleStatus":"ACT","SubType":12,"AssetOwner":null,"AssetManager":null,"Location":"1991 1st Ave","Artist":"Rebecca Routley","Title":"Building a Future","Description":"Tree Planter","Material":null,"ProjectInitiative":"Celtic Reforestation","Year":"2001","Sponsor":null,"Custodian":"Celtic Reforestation","Size_HxWxD_m":null,"Placement":"4","LimitedAccess":null,"AccessContact":null,"gisuid":1000008398,"barcode":"PRK-00008398","GlobalID":"{EE161D77-3E4E-4857-9335-0598C6A9F9A9}"}},{"type":"Feature","id":43,"geometry":{"type":"Point","coordinates":[-122.7758024538064,53.910962375120626]},"properties":{"OBJECTID":43,"AssetID":"29","LifeCycleStatus":"ACT","SubType":12,"AssetOwner":null,"AssetManager":null,"Location":"2880 15th Ave","Artist":"Various","Title":"Various","Description":"Various works of latex on board, by many artists","Material":null,"ProjectInitiative":"Creative Fusion grant ","Year":"2010","Sponsor":null,"Custodian":"Community Arts Council","Size_HxWxD_m":null,"Placement":"17","LimitedAccess":null,"AccessContact":null,"gisuid":1000008399,"barcode":"PRK-00008399","GlobalID":"{F0485ED9-4EAC-4B68-9C72-55CECB7F3337}"}},{"type":"Feature","id":44,"geometry":{"type":"Point","coordinates":[-122.75460453176959,53.9081003609994]},"properties":{"OBJECTID":44,"AssetID":"35","LifeCycleStatus":"ACT","SubType":12,"AssetOwner":null,"AssetManager":null,"Location":"1491 17th Ave","Artist":"Larry Hunter, Art & Design Ltd and Gerry Houghton, Theme West Studios Inc. ","Title":"Connaught Youth Centre Mural","Description":"Capturing a time before, the mural pays homage to our natural and built history.  The mural is of the historic Cameron Street Bridge juxtaposed with an image of the Huble Homestead. The natural history incorporates the flora and cutbanks that exemplify PG","Material":null,"ProjectInitiative":"Gateway Business Improvement Association and City of Prince George","Year":"2006","Sponsor":null,"Custodian":"City of Prince George","Size_HxWxD_m":null,"Placement":"17","LimitedAccess":null,"AccessContact":null,"gisuid":1000008400,"barcode":"PRK-00008400","GlobalID":"{6FB5A475-9D02-482B-B9E5-A70526F27B29}"}},{"type":"Feature","id":45,"geometry":{"type":"Point","coordinates":[-122.74358033721394,53.91615747563802]},"properties":{"OBJECTID":45,"AssetID":"41","LifeCycleStatus":"ACT","SubType":12,"AssetOwner":null,"AssetManager":null,"Location":"1127 3rd Ave","Artist":"Milan Basic","Title":"Untitled","Description":"At the Groop Gallery","Material":null,"ProjectInitiative":null,"Year":"2012","Sponsor":null,"Custodian":null,"Size_HxWxD_m":null,"Placement":"4","LimitedAccess":null,"AccessContact":null,"gisuid":1000008401,"barcode":"PRK-00008401","GlobalID":"{E410DFE0-6557-4563-AA65-4D4B64FA9407}"}},{"type":"Feature","id":46,"geometry":{"type":"Point","coordinates":[-122.74168887132915,53.91446331476496]},"properties":{"OBJECTID":46,"AssetID":"42","LifeCycleStatus":"ACT","SubType":12,"AssetOwner":null,"AssetManager":null,"Location":"987 Queensway","Artist":"Lawrence Rosso, Peter George","Title":"Carrier Sekani Family Services","Description":"Mural Depicting Bear and Hand","Material":null,"ProjectInitiative":null,"Year":"2006","Sponsor":null,"Custodian":"Carrier Sekani Family Services","Size_HxWxD_m":null,"Placement":"17","LimitedAccess":null,"AccessContact":null,"gisuid":1000008402,"barcode":"PRK-00008402","GlobalID":"{74A9636F-7C96-406C-B82D-06A2B765B042}"}},{"type":"Feature","id":47,"geometry":{"type":"Point","coordinates":[-122.80052265687667,53.90863210414339]},"properties":{"OBJECTID":47,"AssetID":"43","LifeCycleStatus":"ACT","SubType":12,"AssetOwner":null,"AssetManager":null,"Location":"4111 15th Ave","Artist":"Milan Basic","Title":"Untitled","Description":"PGYSA","Material":null,"ProjectInitiative":null,"Year":"2012","Sponsor":null,"Custodian":"Prince George Youth Soccer","Size_HxWxD_m":null,"Placement":"12","LimitedAccess":null,"AccessContact":null,"gisuid":1000008403,"barcode":"PRK-00008403","GlobalID":"{9860CAE2-65A3-460C-9A22-8E8F7CC3B075}"}},{"type":"Feature","id":48,"geometry":{"type":"Point","coordinates":[-122.74530893621552,53.89729115119585]},"properties":{"OBJECTID":48,"AssetID":"44","LifeCycleStatus":"ACT","SubType":12,"AssetOwner":null,"AssetManager":null,"Location":"1200 LaSalle Ave","Artist":"Larry Hunter, Gerry Houghton, Peter George","Title":"Family is Natures Masterpiece","Description":"The images represent various elements represent in the community. Nature, Granny Seymour, School house, BX Sternwheeler, eagle, salmon, handprints and the Resource Centre's Logo.","Material":null,"ProjectInitiative":"City of Prince George Community Art Program","Year":"2007","Sponsor":null,"Custodian":"SFG Family Resource Centre","Size_HxWxD_m":null,"Placement":"17","LimitedAccess":null,"AccessContact":null,"gisuid":1000008404,"barcode":"PRK-00008404","GlobalID":"{C4182621-1A87-468F-9906-FF83125F88E3}"}},{"type":"Feature","id":49,"geometry":{"type":"Point","coordinates":[-122.74327038257384,53.91641915005846]},"properties":{"OBJECTID":49,"AssetID":"45","LifeCycleStatus":"ACT","SubType":12,"AssetOwner":null,"AssetManager":null,"Location":"1126 3rd Ave","Artist":null,"Title":"Re-Claimed","Description":null,"Material":null,"ProjectInitiative":null,"Year":null,"Sponsor":null,"Custodian":null,"Size_HxWxD_m":null,"Placement":"4","LimitedAccess":null,"AccessContact":null,"gisuid":1000008405,"barcode":"PRK-00008405","GlobalID":"{9A5DBB72-B8A1-45F6-A729-8EF83A8BA63A}"}},{"type":"Feature","id":50,"geometry":{"type":"Point","coordinates":[-122.7761370565577,53.91096270993528]},"properties":{"OBJECTID":50,"AssetID":"56","LifeCycleStatus":"ACT","SubType":12,"AssetOwner":null,"AssetManager":null,"Location":"2880 15th Ave","Artist":"Various","Title":null,"Description":"Depiction of CAC activities ","Material":null,"ProjectInitiative":null,"Year":"2011","Sponsor":null,"Custodian":"Community Arts Council","Size_HxWxD_m":null,"Placement":"17","LimitedAccess":null,"AccessContact":null,"gisuid":1000008406,"barcode":"PRK-00008406","GlobalID":"{B4DAFF2C-98F4-4F76-B360-ED7B5977C824}"}},{"type":"Feature","id":51,"geometry":{"type":"Point","coordinates":[-122.77589491316536,53.91105143614693]},"properties":{"OBJECTID":51,"AssetID":"57","LifeCycleStatus":"ACT","SubType":12,"AssetOwner":null,"AssetManager":null,"Location":"2880 15th Ave","Artist":"Milan Basic","Title":null,"Description":null,"Material":null,"ProjectInitiative":null,"Year":"2012","Sponsor":null,"Custodian":"Community Arts Council","Size_HxWxD_m":null,"Placement":"17","LimitedAccess":null,"AccessContact":null,"gisuid":1000008407,"barcode":"PRK-00008407","GlobalID":"{2E43D109-1FD8-4240-88DF-4841E3343285}"}},{"type":"Feature","id":52,"geometry":{"type":"Point","coordinates":[-122.7492475740899,53.91300265067175]},"properties":{"OBJECTID":52,"AssetID":"64","LifeCycleStatus":"ACT","SubType":12,"AssetOwner":null,"AssetManager":null,"Location":"808 Canada Games Way","Artist":null,"Title":null,"Description":"Various historic images of Prince George and it's people.","Material":null,"ProjectInitiative":"2015 Canada Winter Games","Year":"2014","Sponsor":null,"Custodian":"City of Prince George","Size_HxWxD_m":null,"Placement":"13","LimitedAccess":null,"AccessContact":null,"gisuid":1000008408,"barcode":"PRK-00008408","GlobalID":"{29FAEDFD-BB16-4EF7-B376-7EC477E18AA4}"}},{"type":"Feature","id":56,"geometry":{"type":"Point","coordinates":[-122.74253211288199,53.914002773655476]},"properties":{"OBJECTID":56,"AssetID":"69","LifeCycleStatus":"ACT","SubType":12,"AssetOwner":1,"AssetManager":13,"Location":"5th Ave and Queensway","Artist":"Facundo Gastiazoro","Title":"Alegria","Description":"A 10-year old girl happily jumping with her hands extended upwards. Her image and big smile representing optimism, youthfulness and energy puts an accent on one of the most important aspects of northern communities– our people and more specifically kids","Material":null,"ProjectInitiative":null,"Year":"2018","Sponsor":null,"Custodian":"City of Prince George","Size_HxWxD_m":null,"Placement":null,"LimitedAccess":null,"AccessContact":null,"gisuid":1000008412,"barcode":"PRK-00008412","GlobalID":"{3BA3F4ED-F8FA-406A-915A-B8AD4EC7751C}"}},{"type":"Feature","id":58,"geometry":{"type":"Point","coordinates":[-122.74321719094742,53.91609296708867]},"properties":{"OBJECTID":58,"AssetID":"73","LifeCycleStatus":"ACT","SubType":12,"AssetOwner":null,"AssetManager":null,"Location":null,"Artist":null,"Title":null,"Description":null,"Material":null,"ProjectInitiative":null,"Year":null,"Sponsor":null,"Custodian":null,"Size_HxWxD_m":null,"Placement":null,"LimitedAccess":null,"AccessContact":null,"gisuid":1000008414,"barcode":"PRK-00008414","GlobalID":"{7876236A-8D00-4014-B6D1-6198E6CCEC01}"}},{"type":"Feature","id":59,"geometry":{"type":"Point","coordinates":[-122.7434665574718,53.916131060278715]},"properties":{"OBJECTID":59,"AssetID":"74","LifeCycleStatus":"ACT","SubType":12,"AssetOwner":null,"AssetManager":null,"Location":null,"Artist":null,"Title":null,"Description":null,"Material":null,"ProjectInitiative":null,"Year":null,"Sponsor":null,"Custodian":null,"Size_HxWxD_m":null,"Placement":null,"LimitedAccess":null,"AccessContact":null,"gisuid":1000008415,"barcode":"PRK-00008415","GlobalID":"{E84143B1-FFE3-402A-B0D3-ABC4D31DBB45}"}},{"type":"Feature","id":60,"geometry":{"type":"Point","coordinates":[-122.80288242217661,53.90484529860889]},"properties":{"OBJECTID":60,"AssetID":"70","LifeCycleStatus":"ACT","SubType":10,"AssetOwner":1,"AssetManager":13,"Location":"Kin Centre Atrium","Artist":"General Public and Artists Lewis Lavoie, Paul Lavoie and Phil Alai","Title":"Canada 150 Mosaic","Description":"This mural was painted by members of the public and was part of a series of murals. The subject of each mural across the country is unique to the specific community and is placed on train tracks or a train car, which visually connects each piece.","Material":null,"ProjectInitiative":"Part of a series of murals spanning the country to celebrate Canada’s 150th anniversary. The Theme was “What makes Canada special to me”.","Year":"2017","Sponsor":null,"Custodian":"City of Prince George","Size_HxWxD_m":null,"Placement":"11","LimitedAccess":null,"AccessContact":null,"gisuid":1000008416,"barcode":"PRK-00008416","GlobalID":"{43CCABC7-24B3-4F29-9062-BAFFC36AAC60}"}},{"type":"Feature","id":61,"geometry":{"type":"Point","coordinates":[-122.80148618683242,53.904254619106396]},"properties":{"OBJECTID":61,"AssetID":"71","LifeCycleStatus":"ACT","SubType":10,"AssetOwner":1,"AssetManager":13,"Location":"CN Centre","Artist":"General Public and PG Potter Guild","Title":"Canada 150 Patchwork Mural","Description":"Clay tiles painted by the general public and fired by the local potter guild. The theme was “what makes Prince George special to me”","Material":null,"ProjectInitiative":null,"Year":null,"Sponsor":null,"Custodian":"City of Prince George","Size_HxWxD_m":null,"Placement":"11","LimitedAccess":null,"AccessContact":null,"gisuid":1000008417,"barcode":"PRK-00008417","GlobalID":"{0958134D-1929-4AAE-9971-0BCAC62DD18A}"}},{"type":"Feature","id":62,"geometry":{"type":"Point","coordinates":[-122.74281019547558,53.91188684834408]},"properties":{"OBJECTID":62,"AssetID":"58","LifeCycleStatus":"ACT","SubType":1,"AssetOwner":null,"AssetManager":null,"Location":"1399 Queensway","Artist":null,"Title":"Anchor","Description":"This anchor from a sternwheeler was found in the Fraser and can be seen below Connaught Hill on Queensway, near the Injured Workers Memorial.","Material":null,"ProjectInitiative":null,"Year":null,"Sponsor":null,"Custodian":"Exploration Place","Size_HxWxD_m":null,"Placement":"12","LimitedAccess":null,"AccessContact":null,"gisuid":1000008418,"barcode":"PRK-00008418","GlobalID":"{1B82C7F3-587C-4C54-8E89-1D5C7FF852F8}"}},{"type":"Feature","id":63,"geometry":{"type":"Point","coordinates":[-122.74928909338784,53.91618909441694]},"properties":{"OBJECTID":63,"AssetID":"59","LifeCycleStatus":"ACT","SubType":1,"AssetOwner":null,"AssetManager":null,"Location":"1448 5th Ave","Artist":null,"Title":"Bell","Description":"The bell located outside Knox United Church downtown was purchased by the congregation of the First Presbyterian Church, built in Central Fort George in 1911. The 44\" 1,000 pound bell was manufactured by the C.S. Bell Company.","Material":null,"ProjectInitiative":null,"Year":null,"Sponsor":null,"Custodian":"Knox United Church","Size_HxWxD_m":null,"Placement":"15","LimitedAccess":null,"AccessContact":null,"gisuid":1000008419,"barcode":"PRK-00008419","GlobalID":"{767F875F-8636-4B9C-8C10-4E163BDD15D5}"}},{"type":"Feature","id":64,"geometry":{"type":"Point","coordinates":[-122.73725495923746,53.90539699145459]},"properties":{"OBJECTID":64,"AssetID":"60","LifeCycleStatus":"ACT","SubType":1,"AssetOwner":null,"AssetManager":null,"Location":"333 Becott Pl","Artist":null,"Title":"Eagle Lake Sawmill Fly Wheel","Description":"This 16 foot diameter flywheel was installed by Eagle Lake Sawmills at Giscome, B.C., sometime prior to 1928. Drive by a \"Corliss\" steam engine, it used a 30 inch wide 3-ply leather belt to drive the entire mill.","Material":null,"ProjectInitiative":"To commemorate the early sawmill techniques","Year":null,"Sponsor":null,"Custodian":"Exploration Place","Size_HxWxD_m":null,"Placement":"12","LimitedAccess":null,"AccessContact":null,"gisuid":1000008420,"barcode":"PRK-00008420","GlobalID":"{26C7202D-E8CF-49C2-9D4A-079BB3FF80CF}"}},{"type":"Feature","id":115,"geometry":{"type":"Point","coordinates":[-122.74921591325945,53.9133524750206]},"properties":{"OBJECTID":115,"AssetID":"14","LifeCycleStatus":"ACT","SubType":21,"AssetOwner":null,"AssetManager":null,"Location":"725 Canada Games Way","Artist":"Ronald A. Sebastian, Peter George","Title":"Millennium Unity Pole","Description":"The entire pole is an expression of unity and a celebration of the multicultural and aboriginal nature of Prince George","Material":null,"ProjectInitiative":"BC Festival of the Arts Legacy Fund, BC Hydro, City of Prince George and Two Rivers Gallery","Year":"2000","Sponsor":null,"Custodian":"Two Rivers Gallery","Size_HxWxD_m":null,"Placement":"13","LimitedAccess":null,"AccessContact":null,"gisuid":1000008421,"barcode":"PRK-00008421","GlobalID":"{C1C02633-FFB5-4547-9AB0-E8F9515FB822}"}},{"type":"Feature","id":116,"geometry":{"type":"Point","coordinates":[-122.7096053349236,53.90755746772097]},"properties":{"OBJECTID":116,"AssetID":"39","LifeCycleStatus":"ACT","SubType":21,"AssetOwner":null,"AssetManager":null,"Location":"655 Hwy 16","Artist":"Inmates of Various Correctional Facilities","Title":"Totem Poles","Description":"Totem poles constructed by Inmates of various correctional facilities and Installed at the complete of the current facility","Material":null,"ProjectInitiative":"Hutla Lake Work Crew","Year":"2002","Sponsor":null,"Custodian":"Prince George Regional Correctional Facility","Size_HxWxD_m":null,"Placement":"7","LimitedAccess":null,"AccessContact":null,"gisuid":1000008422,"barcode":"PRK-00008422","GlobalID":"{54D8FC78-B3EA-40AC-891A-8767FFA6C8F2}"}},{"type":"Feature","id":117,"geometry":{"type":"Point","coordinates":[-122.709372745866,53.90767040664404]},"properties":{"OBJECTID":117,"AssetID":"47","LifeCycleStatus":"ACT","SubType":21,"AssetOwner":null,"AssetManager":null,"Location":"655 Hwy 16","Artist":"Inmates of Terrace Correctional Facility","Title":"Totem","Description":"Cedar Carving","Material":null,"ProjectInitiative":"Terrace Correctional Facility","Year":"2002","Sponsor":null,"Custodian":"Prince George Regional Correctional Facility","Size_HxWxD_m":null,"Placement":"7","LimitedAccess":null,"AccessContact":null,"gisuid":1000008423,"barcode":"PRK-00008423","GlobalID":"{0658C460-47F6-4664-94AF-FF8C78E33AA5}"}},{"type":"Feature","id":118,"geometry":{"type":"Point","coordinates":[-122.76808673535685,53.905981252780094]},"properties":{"OBJECTID":118,"AssetID":"52","LifeCycleStatus":"ACT","SubType":22,"AssetOwner":null,"AssetManager":null,"Location":"2005 Massey Dr","Artist":"Various","Title":"Fish","Description":"Painted wooden fish","Material":null,"ProjectInitiative":"Commemorate River's Day","Year":null,"Sponsor":null,"Custodian":"City of Prince George","Size_HxWxD_m":null,"Placement":"12","LimitedAccess":null,"AccessContact":null,"gisuid":1000008424,"barcode":"PRK-00008424","GlobalID":"{C5D48431-51F4-450F-98EF-B2835DFE344B}"}},{"type":"Feature","id":119,"geometry":{"type":"Point","coordinates":[-122.79721767939542,53.90665333041216]},"properties":{"OBJECTID":119,"AssetID":"53","LifeCycleStatus":"ACT","SubType":22,"AssetOwner":null,"AssetManager":null,"Location":"1800 Ospika Blvd","Artist":"Various","Title":"Fish","Description":"Painted wooden fish","Material":null,"ProjectInitiative":"Commemorate River's Day","Year":null,"Sponsor":null,"Custodian":"City of Prince George","Size_HxWxD_m":null,"Placement":"17","LimitedAccess":null,"AccessContact":null,"gisuid":1000008425,"barcode":"PRK-00008425","GlobalID":"{93338AFE-E71D-473B-9346-921EE8F5655D}"}},{"type":"Feature","id":126,"geometry":{"type":"Point","coordinates":[-122.74954293213258,53.912634555525315]},"properties":{"OBJECTID":126,"AssetID":"51","LifeCycleStatus":"ACT","SubType":17,"AssetOwner":null,"AssetManager":null,"Location":"808 Canada Games Way","Artist":"Clint George","Title":"The Legacy Prayer Drum","Description":"The Prayer Drum was created to incorporate the Lheidli T’enneh vision, the diversity of Canada, and the Canada Winter Games into a common vision. ","Material":null,"ProjectInitiative":"Canada Winter Games","Year":"2015","Sponsor":null,"Custodian":"City of Prince George","Size_HxWxD_m":null,"Placement":"13","LimitedAccess":null,"AccessContact":null,"gisuid":1000008426,"barcode":"PRK-00008426","GlobalID":"{2BCDA211-6D7C-403A-8363-E5564ADC133C}"}},{"type":"Feature","id":128,"geometry":{"type":"Point","coordinates":[-122.74855063213724,53.915016093855535]},"properties":{"OBJECTID":128,"AssetID":"1","LifeCycleStatus":"ACT","SubType":17,"AssetOwner":null,"AssetManager":null,"Location":"1340 6th Ave","Artist":"Jeanette Crydzuk","Title":"Meadow Bear","Description":null,"Material":null,"ProjectInitiative":"A public art project to generate funds for the BC Lions Club Easter Seal Campaign","Year":"2006","Sponsor":null,"Custodian":"Telus","Size_HxWxD_m":null,"Placement":"4","LimitedAccess":null,"AccessContact":null,"gisuid":1000008427,"barcode":"PRK-00008427","GlobalID":"{410E3283-FAE5-4971-9D1F-C8AB5ADE69FD}"}},{"type":"Feature","id":129,"geometry":{"type":"Point","coordinates":[-122.74815467970105,53.91584995128569]},"properties":{"OBJECTID":129,"AssetID":"2","LifeCycleStatus":"ACT","SubType":17,"AssetOwner":null,"AssetManager":null,"Location":"1378 5th Ave","Artist":"Jody Spies","Title":"Northern Flight","Description":null,"Material":null,"ProjectInitiative":"A public art project to generate funds for the BC Lions Club Easter Seal Campaign","Year":"2010","Sponsor":null,"Custodian":null,"Size_HxWxD_m":null,"Placement":"4","LimitedAccess":null,"AccessContact":null,"gisuid":1000008428,"barcode":"PRK-00008428","GlobalID":"{96863FCF-248F-4C33-80A2-5016B08413B9}"}},{"type":"Feature","id":130,"geometry":{"type":"Point","coordinates":[-122.74835021833744,53.91618453675188]},"properties":{"OBJECTID":130,"AssetID":"3","LifeCycleStatus":"ACT","SubType":17,"AssetOwner":null,"AssetManager":null,"Location":"490 Brunswick St","Artist":"Sonny Assu","Title":"When Raven Became Spider","Description":null,"Material":null,"ProjectInitiative":"A public art project to generate funds for the BC Lions Club Easter Seal Campaign","Year":"2006","Sponsor":null,"Custodian":"SpeeDee Printers","Size_HxWxD_m":null,"Placement":"4","LimitedAccess":null,"AccessContact":null,"gisuid":1000008429,"barcode":"PRK-00008429","GlobalID":"{88A42FE3-F579-4815-8AA3-3496D02C9914}"}},{"type":"Feature","id":131,"geometry":{"type":"Point","coordinates":[-122.74565115545637,53.91701331205707]},"properties":{"OBJECTID":131,"AssetID":"6","LifeCycleStatus":"ACT","SubType":17,"AssetOwner":null,"AssetManager":null,"Location":"1294 3rd Ave","Artist":"Nathan Scott","Title":"Bridget Moran","Description":"Moving to Prince George In 1952, Bridget Moran worked as a social worker, free-lance journalist and published writer. Her books Include Stoney Creek Woman, Judgement at Stoney Creek, A Little Rebellion and A Just First Nations Leader. ","Material":null,"ProjectInitiative":"City of Prince George and Friends of Briget Moran","Year":"2003","Sponsor":null,"Custodian":"City of Prince George","Size_HxWxD_m":null,"Placement":"17","LimitedAccess":null,"AccessContact":null,"gisuid":1000008430,"barcode":"PRK-00008430","GlobalID":"{6CA9B92A-6744-48CD-B371-BB04FDBC20A2}"}},{"type":"Feature","id":132,"geometry":{"type":"Point","coordinates":[-122.74641389996275,53.91536617675938]},"properties":{"OBJECTID":132,"AssetID":"8","LifeCycleStatus":"ACT","SubType":17,"AssetOwner":null,"AssetManager":null,"Location":"1268 5th Ave","Artist":"Dianne Clowes","Title":"Moon Bear","Description":null,"Material":null,"ProjectInitiative":" A public art project to generate funds for the BC Lions Club Easter Seal Campaign","Year":"2006","Sponsor":null,"Custodian":"Canfor","Size_HxWxD_m":null,"Placement":"4","LimitedAccess":null,"AccessContact":null,"gisuid":1000008431,"barcode":"PRK-00008431","GlobalID":"{CE521FB3-90EB-4666-8CFC-0AA334434A5A}"}},{"type":"Feature","id":133,"geometry":{"type":"Point","coordinates":[-122.74310332186239,53.91219519878891]},"properties":{"OBJECTID":133,"AssetID":"11","LifeCycleStatus":"ACT","SubType":17,"AssetOwner":null,"AssetManager":null,"Location":"900 Queensway","Artist":"Bert de Vink","Title":"Killed & Injured Workers Memorial","Description":"The frame represents the twisted scene of accidents. The expressions of hope, love and strength produced by the bird combined with the warming and healing light of the sun gives an emotional but positive feeling to the monument","Material":null,"ProjectInitiative":"Prince George & District Labour Council","Year":"2007","Sponsor":null,"Custodian":"City of Prince George","Size_HxWxD_m":null,"Placement":"17","LimitedAccess":null,"AccessContact":null,"gisuid":1000008432,"barcode":"PRK-00008432","GlobalID":"{392EFF79-351C-4E1E-94E8-4B1B43E58562}"}},{"type":"Feature","id":134,"geometry":{"type":"Point","coordinates":[-122.74793917176704,53.91400389559564]},"properties":{"OBJECTID":134,"AssetID":"12","LifeCycleStatus":"ACT","SubType":9,"AssetOwner":null,"AssetManager":null,"Location":"670 Quebec St","Artist":"Nathan Scot","Title":"Terry Fox","Description":"On Sept 1, 1979 Terry Fox, his brother Darrel and friend Doug Alward, came to Prince George to participate In the Prince George to Boston Marathon (now known as the Labour Day Classic). ","Material":null,"ProjectInitiative":null,"Year":"2005","Sponsor":null,"Custodian":"City of Prince George ","Size_HxWxD_m":null,"Placement":"12","LimitedAccess":null,"AccessContact":null,"gisuid":1000008433,"barcode":"PRK-00008433","GlobalID":"{B47AD9D2-3979-4BED-A98E-59BB9DD76CEB}"}},{"type":"Feature","id":135,"geometry":{"type":"Point","coordinates":[-122.74932236670894,53.913195280147534]},"properties":{"OBJECTID":135,"AssetID":"15","LifeCycleStatus":"ACT","SubType":17,"AssetOwner":null,"AssetManager":null,"Location":"725 Canada Games Way","Artist":"Peter von Tiesenhausen","Title":"Balance","Description":"This sculpture embodies the hope for a thriving ecosphere in balance. The human figure was cast in solid iron from a chainsaw carving in the trunk of an eighty foot tree. The tree element, was charred before casting directly in bronze.","Material":null,"ProjectInitiative":"Arts Partners in Creative Development","Year":"2009","Sponsor":null,"Custodian":"Two Rivers Gallery","Size_HxWxD_m":null,"Placement":"2","LimitedAccess":null,"AccessContact":null,"gisuid":1000008434,"barcode":"PRK-00008434","GlobalID":"{8ACED86F-4628-4192-8134-EA75DAE744CF}"}},{"type":"Feature","id":136,"geometry":{"type":"Point","coordinates":[-122.75016275242585,53.912427083303164]},"properties":{"OBJECTID":136,"AssetID":"16","LifeCycleStatus":"ACT","SubType":17,"AssetOwner":null,"AssetManager":null,"Location":"808 Canada Games Way","Artist":"Marc LaCaille","Title":"Rose du Matin","Description":null,"Material":null,"ProjectInitiative":"A public art project to generate funds for the BC Lions Club Easter Seal Campaign","Year":"2010","Sponsor":null,"Custodian":"City of Prince George","Size_HxWxD_m":null,"Placement":"13","LimitedAccess":null,"AccessContact":null,"gisuid":1000008435,"barcode":"PRK-00008435","GlobalID":"{DC9810E0-D53B-48D3-B11B-4454879CE345}"}},{"type":"Feature","id":137,"geometry":{"type":"Point","coordinates":[-122.75004854002232,53.91379603047938]},"properties":{"OBJECTID":137,"AssetID":"17","LifeCycleStatus":"ACT","SubType":17,"AssetOwner":null,"AssetManager":null,"Location":"770 Brunswick St","Artist":"Laura Chandler","Title":"Artists Speak","Description":null,"Material":null,"ProjectInitiative":" A public art project to generate funds for the BC Lions Club Easter Seal Campaign","Year":"2006","Sponsor":null,"Custodian":"Coast Inn of the North","Size_HxWxD_m":null,"Placement":"4","LimitedAccess":null,"AccessContact":null,"gisuid":1000008436,"barcode":"PRK-00008436","GlobalID":"{9DE70396-101D-451A-84D5-A9FD46CF5268}"}},{"type":"Feature","id":138,"geometry":{"type":"Point","coordinates":[-122.75543694546786,53.90559615566391]},"properties":{"OBJECTID":138,"AssetID":"20","LifeCycleStatus":"ACT","SubType":17,"AssetOwner":null,"AssetManager":null,"Location":"2000 Victoria St","Artist":"Roman Mutener , BJ McKivett","Title":"Commotion","Description":"This is a steel sculpture that depicts human forms holding hands in an exuberant tumbling formation.It is meant to embody the diversity and co-operative spirit of the people living in the surrounding neighbourhoods, and indeed the entire city.","Material":null,"ProjectInitiative":"Gateway Business Improvement Area","Year":"2010","Sponsor":null,"Custodian":"City of Prince George","Size_HxWxD_m":null,"Placement":"17","LimitedAccess":null,"AccessContact":null,"gisuid":1000008437,"barcode":"PRK-00008437","GlobalID":"{69CF07C7-1610-47DE-AC57-F39F5E8BE288}"}},{"type":"Feature","id":139,"geometry":{"type":"Point","coordinates":[-122.76280981159174,53.90508300714741]},"properties":{"OBJECTID":139,"AssetID":"22","LifeCycleStatus":"ACT","SubType":17,"AssetOwner":null,"AssetManager":null,"Location":"1995 20th Ave","Artist":"Phil Morrison","Title":"White Reminder","Description":null,"Material":null,"ProjectInitiative":"A public art project to generate funds for the BC Lions Club Easter Seal Campaign","Year":"2006","Sponsor":null,"Custodian":"Northland Chrysler Jeep Dodge","Size_HxWxD_m":null,"Placement":"4","LimitedAccess":null,"AccessContact":null,"gisuid":1000008438,"barcode":"PRK-00008438","GlobalID":"{BBE5D8CA-AD90-4E1D-9849-23E239CF1222}"}},{"type":"Feature","id":140,"geometry":{"type":"Point","coordinates":[-122.76342417301797,53.89471092864754]},"properties":{"OBJECTID":140,"AssetID":"23","LifeCycleStatus":"ACT","SubType":17,"AssetOwner":null,"AssetManager":null,"Location":"2005 Hwy 97","Artist":"Annerose Georgeson","Title":"Spirited Discourse","Description":null,"Material":null,"ProjectInitiative":"A public art project to generate funds for the BC Lions Club Easter Seal Campaign","Year":"2006","Sponsor":null,"Custodian":"Treasure Cove Casino and Hotel","Size_HxWxD_m":null,"Placement":"4","LimitedAccess":null,"AccessContact":null,"gisuid":1000008439,"barcode":"PRK-00008439","GlobalID":"{B990AF83-BCFF-4A95-9C95-7AB95BD2E082}"}},{"type":"Feature","id":141,"geometry":{"type":"Point","coordinates":[-122.76860718416667,53.89667583272149]},"properties":{"OBJECTID":141,"AssetID":"24","LifeCycleStatus":"ACT","SubType":17,"AssetOwner":null,"AssetManager":null,"Location":"2626 Recreation Pl","Artist":null,"Title":"Mr PG","Description":"Originally built of wood In 1961 as a symbol of the logging Industry In Prince George, It was rebuilt out of metal and fibreglass and moved to Its current location in 2012.","Material":null,"ProjectInitiative":"City of Prince George","Year":"2012","Sponsor":null,"Custodian":"City of Prince George","Size_HxWxD_m":null,"Placement":"12","LimitedAccess":null,"AccessContact":null,"gisuid":1000008440,"barcode":"PRK-00008440","GlobalID":"{1350890C-C13D-4E75-9BB7-EF79591E5D7D}"}},{"type":"Feature","id":142,"geometry":{"type":"Point","coordinates":[-122.80139656904443,53.904726871701804]},"properties":{"OBJECTID":142,"AssetID":"26","LifeCycleStatus":"ACT","SubType":17,"AssetOwner":null,"AssetManager":null,"Location":"2187 Ospika Blvd ","Artist":"Peter George","Title":"Spirit of the Ancestors","Description":null,"Material":null,"ProjectInitiative":"A public art project to generate funds for the BC Lions Club Easter Seal Campaign","Year":"2006","Sponsor":null,"Custodian":"City of Prince George","Size_HxWxD_m":null,"Placement":"11","LimitedAccess":null,"AccessContact":null,"gisuid":1000008441,"barcode":"PRK-00008441","GlobalID":"{DE3C1D5D-A091-4A4E-B4AF-C3F84770F7E7}"}},{"type":"Feature","id":143,"geometry":{"type":"Point","coordinates":[-122.76484994909565,53.86361230349442]},"properties":{"OBJECTID":143,"AssetID":"33","LifeCycleStatus":"ACT","SubType":17,"AssetOwner":null,"AssetManager":null,"Location":"6180 Domano Blvd","Artist":"Tatiana Wimmer","Title":"Aurora Bearealis over Land and Sea","Description":null,"Material":null,"ProjectInitiative":"A public art project to generate funds for the BC Lions Club Easter Seal Campaign","Year":"2006","Sponsor":null,"Custodian":"College Heights Senior Secondary School","Size_HxWxD_m":null,"Placement":"17","LimitedAccess":null,"AccessContact":null,"gisuid":1000008442,"barcode":"PRK-00008442","GlobalID":"{67D7EA39-2D52-4460-AC2F-1F7A8625B5C6}"}},{"type":"Feature","id":144,"geometry":{"type":"Point","coordinates":[-122.76943056678591,53.908576966267944]},"properties":{"OBJECTID":144,"AssetID":"34","LifeCycleStatus":"ACT","SubType":17,"AssetOwner":null,"AssetManager":null,"Location":"1685 Carney St","Artist":"Kathryn and Angela Wilkins","Title":"Protective Spirit","Description":null,"Material":null,"ProjectInitiative":"A public art project to generate funds for the BC Lions Club Easter Seal Campaign","Year":"2006","Sponsor":null,"Custodian":"BC Lions Club","Size_HxWxD_m":null,"Placement":"17","LimitedAccess":null,"AccessContact":null,"gisuid":1000008443,"barcode":"PRK-00008443","GlobalID":"{7EB9E34C-CBCD-4F50-9585-A5429B3D24B8}"}},{"type":"Feature","id":145,"geometry":{"type":"Point","coordinates":[-122.76539720132645,53.91170335905666]},"properties":{"OBJECTID":145,"AssetID":"55","LifeCycleStatus":"ACT","SubType":17,"AssetOwner":null,"AssetManager":null,"Location":"1475 Edmonton St","Artist":"Marc LaCaille","Title":"Harlequin","Description":"This piece is not for the general public to view but is available for the Children of the pediatrics ward to enjoy.","Material":null,"ProjectInitiative":"This fundraiser for the BC Lions Club Easter Seals campaign gathered artists from across BC to paint original artwork on life sized fiberglass bears. Local individuals, businesses and organizations purchased the bears ","Year":"2006","Sponsor":null,"Custodian":"University Hospital of Northern BC","Size_HxWxD_m":null,"Placement":"8","LimitedAccess":null,"AccessContact":null,"gisuid":1000008444,"barcode":"PRK-00008444","GlobalID":"{3459252D-8236-42E1-BBA8-DBE59F162D26}"}}]}
