{"type":"FeatureCollection","features":[{"type":"Feature","id":1,"geometry":{"type":"LineString","coordinates":[[-122.85021563346065,54.03891326934649],[-122.85016533728775,54.038471724371426],[-122.85011385942242,54.03829402037858],[-122.85008504720271,54.038156909567405],[-122.85001693613732,54.03777411754287],[-122.84987500039993,54.03747359367256],[-122.8497546835335,54.03722850505798],[-122.84961908661957,54.03695466208171],[-122.84957902732275,54.03686008473825]]},"properties":{"OBJECTID":1,"AssetID":"1","LifeCycleStatus":"ACT","SubType":null,"AssetOwner":0,"AssetManager":13,"Location":"Ferguson Lake Nature Reserve","InstallDate":978307200000,"DeckingMaterial":"Wood","Name":"West Side","Width_m":3,"Accessibility":0,"gisuid":1000013993,"barcode":"PRK-00013993","GlobalID":"{7B8AA765-AC32-4BA9-8CC2-4D1F289AC8D5}"}},{"type":"Feature","id":2,"geometry":{"type":"LineString","coordinates":[[-122.84207778880943,54.0327277393963],[-122.84199783912422,54.03274887093582],[-122.84188300732055,54.03277725651691],[-122.84171151973125,54.032832676665805],[-122.84165976959771,54.032844023142204],[-122.84160964892816,54.03285204263224],[-122.84156032171198,54.03286339225712],[-122.84148591120758,54.032885172488704],[-122.84143819171078,54.03289890237543],[-122.84133588007063,54.03292851371036]]},"properties":{"OBJECTID":2,"AssetID":"2","LifeCycleStatus":"ACT","SubType":null,"AssetOwner":0,"AssetManager":13,"Location":"Ferguson Lake Nature Reserve","InstallDate":1633651200000,"DeckingMaterial":"Wood","Name":"South Side Boardwalk","Width_m":3,"Accessibility":0,"gisuid":1000013994,"barcode":"PRK-00013994","GlobalID":"{E790AC3A-F2DD-4812-9774-8E26B892F6C9}"}},{"type":"Feature","id":3,"geometry":{"type":"LineString","coordinates":[[-122.84859911416746,54.039804707514925],[-122.84880346564877,54.03971697697646],[-122.84888640786613,54.03968438246384],[-122.84895823448568,54.039653558924456],[-122.84905127761881,54.03962097698361]]},"properties":{"OBJECTID":3,"AssetID":"3","LifeCycleStatus":"ACT","SubType":null,"AssetOwner":0,"AssetManager":13,"Location":"Ferguson Lake Nature Reserve","InstallDate":1638144000000,"DeckingMaterial":"Wood","Name":"North Boardwalk","Width_m":1.8,"Accessibility":0,"gisuid":1000013995,"barcode":"PRK-00013995","GlobalID":"{BF89F09F-1639-4007-A60D-CC491DC8E4B1}"}},{"type":"Feature","id":4,"geometry":{"type":"LineString","coordinates":[[-122.84648988983727,54.03427259695865],[-122.84649288929577,54.034253732539476],[-122.84649002649601,54.03423549967489],[-122.8464727088526,54.034212004829875],[-122.84642558960189,54.034182211871325],[-122.84638238527833,54.03415860306015],[-122.84635362082994,54.034132309130484],[-122.84633295822094,54.0341054575132],[-122.84631579229668,54.03407356816243],[-122.84628310324233,54.03404418006668],[-122.84625954239748,54.034029862819146],[-122.8462136995026,54.03401011176497],[-122.84617504371273,54.03399770579167]]},"properties":{"OBJECTID":4,"AssetID":"4","LifeCycleStatus":"ACT","SubType":null,"AssetOwner":0,"AssetManager":13,"Location":"Ferguson Lake Nature Reserve","InstallDate":1629244800000,"DeckingMaterial":"Wood","Name":"South-West Side on Drainage","Width_m":3,"Accessibility":0,"gisuid":1000013996,"barcode":"PRK-00013996","GlobalID":"{8397C0B5-762B-4652-9268-F9620826D295}"}},{"type":"Feature","id":5,"geometry":{"type":"LineString","coordinates":[[-122.84489218143652,54.03390584664217],[-122.84474821667621,54.03390233535138],[-122.8446211994069,54.03389884578697],[-122.84449701628722,54.033888708724504],[-122.84437846996212,54.03388190434288],[-122.84425433943932,54.03386180853017],[-122.84409634186022,54.03383834317255]]},"properties":{"OBJECTID":5,"AssetID":"5","LifeCycleStatus":"ACT","SubType":null,"AssetOwner":0,"AssetManager":13,"Location":"Ferguson Lake Nature Reserve","InstallDate":1669593600000,"DeckingMaterial":"Wood","Name":"South-West Side","Width_m":3,"Accessibility":0,"gisuid":1000013997,"barcode":"PRK-00013997","GlobalID":"{3D3EFDF3-C357-48B2-90E4-2875FAE4DE6C}"}},{"type":"Feature","id":6,"geometry":{"type":"LineString","coordinates":[[-122.84427055483972,54.04006419118307],[-122.84425130255269,54.040021566455515]]},"properties":{"OBJECTID":6,"AssetID":"6","LifeCycleStatus":"ACT","SubType":null,"AssetOwner":0,"AssetManager":13,"Location":"Ferguson Lake Nature Reserve","InstallDate":631152000000,"DeckingMaterial":"Wood","Name":"North East Side","Width_m":2,"Accessibility":0,"gisuid":1000013998,"barcode":"PRK-00013998","GlobalID":"{9207CEDF-C6CA-4592-AE71-795221249B22}"}}]}
