{"type":"FeatureCollection","features":[{"type":"Feature","id":23,"geometry":{"type":"Point","coordinates":[-122.75798007660482,53.84956272905703]},"properties":{"OBJECTID":23,"AssetID":"23","LifeCycleStatus":"ACT","SubType":13,"AssetOwner":1,"AssetManager":13,"Location":"Latrobe Park","InstallDate":315532800000,"Name":null,"Model":null,"Age_Range":null,"Capacity":null,"Primary_Material":"Metal","Secondary_Material":"Metal","Surfacing":"Turf","gisuid":1000008493,"barcode":"PRK-00008493","GlobalID":"{DA29D88E-C0DD-4F48-9571-0F3EA3655EF8}"}},{"type":"Feature","id":58,"geometry":{"type":"Point","coordinates":[-122.80043482128197,53.91285223210258]},"properties":{"OBJECTID":58,"AssetID":"58","LifeCycleStatus":"ACT","SubType":14,"AssetOwner":1,"AssetManager":13,"Location":"Bednesti Park","InstallDate":1230768000000,"Name":null,"Model":null,"Age_Range":null,"Capacity":null,"Primary_Material":"Metal","Secondary_Material":"Metal","Surfacing":"Pea Gravel","gisuid":1000008528,"barcode":"PRK-00008528","GlobalID":"{659BFB6D-3C27-45F6-AF53-09732E537273}"}},{"type":"Feature","id":65,"geometry":{"type":"Point","coordinates":[-122.79320010819555,53.917184821219166]},"properties":{"OBJECTID":65,"AssetID":"65","LifeCycleStatus":"ACT","SubType":13,"AssetOwner":1,"AssetManager":13,"Location":"Rainbow Park","InstallDate":0,"Name":null,"Model":null,"Age_Range":null,"Capacity":null,"Primary_Material":"Metal","Secondary_Material":"Metal","Surfacing":"Dirt","gisuid":1000008535,"barcode":"PRK-00008535","GlobalID":"{3C81003B-28F5-415B-AB6F-20AAE9A9BB82}"}},{"type":"Feature","id":66,"geometry":{"type":"Point","coordinates":[-122.79305704537781,53.91707546871937]},"properties":{"OBJECTID":66,"AssetID":"66","LifeCycleStatus":"ACT","SubType":13,"AssetOwner":1,"AssetManager":13,"Location":"Rainbow Park","InstallDate":0,"Name":null,"Model":null,"Age_Range":null,"Capacity":null,"Primary_Material":"Metal","Secondary_Material":"Metal","Surfacing":"Dirt","gisuid":1000008536,"barcode":"PRK-00008536","GlobalID":"{4325C3D0-BA8C-4C3F-9A80-3C3A26F46E5D}"}},{"type":"Feature","id":67,"geometry":{"type":"Point","coordinates":[-122.7930156530176,53.916962283544606]},"properties":{"OBJECTID":67,"AssetID":"67","LifeCycleStatus":"ACT","SubType":8,"AssetOwner":1,"AssetManager":13,"Location":"Rainbow Park","InstallDate":0,"Name":null,"Model":null,"Age_Range":null,"Capacity":null,"Primary_Material":"Metal","Secondary_Material":"Metal","Surfacing":"Dirt","gisuid":1000008537,"barcode":"PRK-00008537","GlobalID":"{E54F3458-A274-458B-9830-4304BD051229}"}},{"type":"Feature","id":68,"geometry":{"type":"Point","coordinates":[-122.79295175714,53.91695018243018]},"properties":{"OBJECTID":68,"AssetID":"68","LifeCycleStatus":"ACT","SubType":8,"AssetOwner":1,"AssetManager":13,"Location":"Rainbow Park","InstallDate":0,"Name":null,"Model":null,"Age_Range":null,"Capacity":null,"Primary_Material":"Metal","Secondary_Material":"Metal","Surfacing":"Dirt","gisuid":1000008538,"barcode":"PRK-00008538","GlobalID":"{99D4093B-A8AD-4EDB-A436-6107F1B17494}"}},{"type":"Feature","id":69,"geometry":{"type":"Point","coordinates":[-122.79277498355546,53.917051828204016]},"properties":{"OBJECTID":69,"AssetID":"69","LifeCycleStatus":"ACT","SubType":9,"AssetOwner":1,"AssetManager":13,"Location":"Rainbow Park","InstallDate":0,"Name":null,"Model":null,"Age_Range":null,"Capacity":null,"Primary_Material":"Metal","Secondary_Material":"Metal","Surfacing":"Dirt","gisuid":1000008539,"barcode":"PRK-00008539","GlobalID":"{066F39F0-D3D3-46A7-A9EA-385B46C0F115}"}},{"type":"Feature","id":70,"geometry":{"type":"Point","coordinates":[-122.79260460994284,53.91711290727211]},"properties":{"OBJECTID":70,"AssetID":"70","LifeCycleStatus":"ACT","SubType":4,"AssetOwner":1,"AssetManager":13,"Location":"Rainbow Park","InstallDate":157766400000,"Name":null,"Model":null,"Age_Range":null,"Capacity":null,"Primary_Material":"Metal","Secondary_Material":"Metal","Surfacing":"Dirt","gisuid":1000008540,"barcode":"PRK-00008540","GlobalID":"{05A1B60D-D430-4F0D-AE70-C7AEA64D2C6A}"}},{"type":"Feature","id":115,"geometry":{"type":"Point","coordinates":[-122.77229593921116,53.90887002715055]},"properties":{"OBJECTID":115,"AssetID":"119","LifeCycleStatus":"ACT","SubType":4,"AssetOwner":1,"AssetManager":13,"Location":"Seymour Park","InstallDate":252460800000,"Name":null,"Model":null,"Age_Range":null,"Capacity":null,"Primary_Material":"Metal","Secondary_Material":"Metal","Surfacing":"Dirt","gisuid":1000008585,"barcode":"PRK-00008585","GlobalID":"{F3AF42C2-9B92-420A-AC07-C4A21B344B85}"}},{"type":"Feature","id":137,"geometry":{"type":"Point","coordinates":[-122.78298993809102,53.88913973891345]},"properties":{"OBJECTID":137,"AssetID":"141","LifeCycleStatus":"ACT","SubType":14,"AssetOwner":1,"AssetManager":13,"Location":"Cherry Park","InstallDate":1136073600000,"Name":null,"Model":null,"Age_Range":null,"Capacity":null,"Primary_Material":"Metal","Secondary_Material":"Composite","Surfacing":"Pea Gravel","gisuid":1000008607,"barcode":"PRK-00008607","GlobalID":"{0CD23A83-AB36-4C7E-8348-AE26C68FD882}"}},{"type":"Feature","id":146,"geometry":{"type":"Point","coordinates":[-122.78996653816083,53.8803771751989]},"properties":{"OBJECTID":146,"AssetID":"150","LifeCycleStatus":"ACT","SubType":1,"AssetOwner":1,"AssetManager":13,"Location":"Charella Park","InstallDate":1199145600000,"Name":null,"Model":null,"Age_Range":null,"Capacity":null,"Primary_Material":"Metal","Secondary_Material":"Composite","Surfacing":"Pea Gravel","gisuid":1000008616,"barcode":"PRK-00008616","GlobalID":"{9B339474-8852-406D-9CA6-37A78FD4BD2C}"}},{"type":"Feature","id":153,"geometry":{"type":"Point","coordinates":[-122.77978541537011,53.877099813493416]},"properties":{"OBJECTID":153,"AssetID":"157","LifeCycleStatus":"ACT","SubType":14,"AssetOwner":1,"AssetManager":13,"Location":"Prudente Park","InstallDate":1199145600000,"Name":null,"Model":null,"Age_Range":null,"Capacity":null,"Primary_Material":"Metal","Secondary_Material":"Composite","Surfacing":"Pea Gravel","gisuid":1000008622,"barcode":"PRK-00008622","GlobalID":"{D7AF2DA8-F968-4EA9-8369-13D736348EF5}"}},{"type":"Feature","id":158,"geometry":{"type":"Point","coordinates":[-122.78443390833014,53.871132457593795]},"properties":{"OBJECTID":158,"AssetID":"162","LifeCycleStatus":"ACT","SubType":1,"AssetOwner":1,"AssetManager":13,"Location":"Baker Park","InstallDate":978307200000,"Name":null,"Model":null,"Age_Range":null,"Capacity":null,"Primary_Material":"Metal","Secondary_Material":"Wood","Surfacing":"Pea Gravel","gisuid":1000008627,"barcode":"PRK-00008627","GlobalID":"{D4F6B91A-0868-46F5-AD7F-5760C00DDFF3}"}},{"type":"Feature","id":159,"geometry":{"type":"Point","coordinates":[-122.78440486309347,53.8710501640288]},"properties":{"OBJECTID":159,"AssetID":"163","LifeCycleStatus":"ACT","SubType":14,"AssetOwner":1,"AssetManager":13,"Location":"Baker Park","InstallDate":978307200000,"Name":null,"Model":null,"Age_Range":null,"Capacity":null,"Primary_Material":"Metal","Secondary_Material":"Wood","Surfacing":"Pea Gravel","gisuid":1000008628,"barcode":"PRK-00008628","GlobalID":"{A8BE1120-9DFD-414B-9EC8-CE816269CCB7}"}},{"type":"Feature","id":170,"geometry":{"type":"Point","coordinates":[-122.75567167383807,53.892463610021444]},"properties":{"OBJECTID":170,"AssetID":"174","LifeCycleStatus":"ACT","SubType":1,"AssetOwner":1,"AssetManager":13,"Location":"Clapperton Park","InstallDate":473385600000,"Name":null,"Model":null,"Age_Range":null,"Capacity":null,"Primary_Material":"Metal","Secondary_Material":"Composite","Surfacing":"Pea Gravel","gisuid":1000008639,"barcode":"PRK-00008639","GlobalID":"{51452455-A588-4A54-AEBD-9634E02B0535}"}},{"type":"Feature","id":171,"geometry":{"type":"Point","coordinates":[-122.75566859887398,53.892348511984906]},"properties":{"OBJECTID":171,"AssetID":"175","LifeCycleStatus":"ACT","SubType":13,"AssetOwner":1,"AssetManager":13,"Location":"Clapperton Park","InstallDate":473385600000,"Name":null,"Model":null,"Age_Range":null,"Capacity":null,"Primary_Material":"Metal","Secondary_Material":"Metal","Surfacing":"Dirt","gisuid":1000008640,"barcode":"PRK-00008640","GlobalID":"{EB1F0724-A51D-4205-9752-0BC01F5DCDAB}"}},{"type":"Feature","id":201,"geometry":{"type":"Point","coordinates":[-122.76164478583961,53.85952550130467]},"properties":{"OBJECTID":201,"AssetID":"205","LifeCycleStatus":"ACT","SubType":1,"AssetOwner":1,"AssetManager":13,"Location":"Fairmont Park","InstallDate":946684800000,"Name":null,"Model":null,"Age_Range":null,"Capacity":null,"Primary_Material":"Metal","Secondary_Material":"Metal","Surfacing":"Pea Gravel","gisuid":1000008670,"barcode":"PRK-00008670","GlobalID":"{D0376958-E0C3-45BE-9DAB-96FA127E9EE8}"}},{"type":"Feature","id":203,"geometry":{"type":"Point","coordinates":[-122.76141519707345,53.859574198625396]},"properties":{"OBJECTID":203,"AssetID":"207","LifeCycleStatus":"ACT","SubType":14,"AssetOwner":1,"AssetManager":13,"Location":"Fairmont Park","InstallDate":946684800000,"Name":null,"Model":null,"Age_Range":null,"Capacity":null,"Primary_Material":"Metal","Secondary_Material":"Metal","Surfacing":"Dirt","gisuid":1000008672,"barcode":"PRK-00008672","GlobalID":"{ECC9708C-B48F-4C22-B73B-A1A4483F43E4}"}},{"type":"Feature","id":217,"geometry":{"type":"Point","coordinates":[-122.76890592182797,53.85305109593357]},"properties":{"OBJECTID":217,"AssetID":"221","LifeCycleStatus":"ACT","SubType":13,"AssetOwner":1,"AssetManager":13,"Location":"Renison Park","InstallDate":1072915200000,"Name":null,"Model":null,"Age_Range":null,"Capacity":null,"Primary_Material":"Metal","Secondary_Material":"Composite","Surfacing":"Turf","gisuid":1000008686,"barcode":"PRK-00008686","GlobalID":"{27D3735A-44A9-42AC-B5EF-A6639F6F8B80}"}},{"type":"Feature","id":234,"geometry":{"type":"Point","coordinates":[-122.81178218232455,53.95947167798341]},"properties":{"OBJECTID":234,"AssetID":"238","LifeCycleStatus":"ACT","SubType":1,"AssetOwner":1,"AssetManager":13,"Location":"Fairburn Park","InstallDate":1167609600000,"Name":null,"Model":null,"Age_Range":null,"Capacity":null,"Primary_Material":"Metal","Secondary_Material":"Metal","Surfacing":"Pea Gravel","gisuid":1000008703,"barcode":"PRK-00008703","GlobalID":"{5C442628-FDF7-4CDB-B68E-268589B1B83B}"}},{"type":"Feature","id":235,"geometry":{"type":"Point","coordinates":[-122.81167998783849,53.95952036130512]},"properties":{"OBJECTID":235,"AssetID":"239","LifeCycleStatus":"ACT","SubType":4,"AssetOwner":1,"AssetManager":13,"Location":"Fairburn Park","InstallDate":1167609600000,"Name":null,"Model":null,"Age_Range":null,"Capacity":null,"Primary_Material":"Metal","Secondary_Material":"Metal","Surfacing":"Pea Gravel","gisuid":1000008704,"barcode":"PRK-00008704","GlobalID":"{5827A6F0-13C0-4389-81B9-0402AF168AC1}"}},{"type":"Feature","id":236,"geometry":{"type":"Point","coordinates":[-122.79073389221499,54.00143174484565]},"properties":{"OBJECTID":236,"AssetID":"240","LifeCycleStatus":"ACT","SubType":1,"AssetOwner":1,"AssetManager":13,"Location":"Nordic Park","InstallDate":1136073600000,"Name":null,"Model":null,"Age_Range":null,"Capacity":null,"Primary_Material":"Metal","Secondary_Material":"Metal","Surfacing":"Pea Gravel","gisuid":1000008705,"barcode":"PRK-00008705","GlobalID":"{C09ED857-806D-43F9-AF32-2998E67F6A63}"}},{"type":"Feature","id":237,"geometry":{"type":"Point","coordinates":[-122.80518200355141,53.99197161422159]},"properties":{"OBJECTID":237,"AssetID":"241","LifeCycleStatus":"ACT","SubType":13,"AssetOwner":1,"AssetManager":13,"Location":"Snowdrop Park","InstallDate":315532800000,"Name":null,"Model":null,"Age_Range":null,"Capacity":null,"Primary_Material":"Metal","Secondary_Material":"Metal","Surfacing":"Dirt","gisuid":1000008706,"barcode":"PRK-00008706","GlobalID":"{51B54F44-3607-4B89-918D-6C075FD57E63}"}},{"type":"Feature","id":239,"geometry":{"type":"Point","coordinates":[-122.80488430601966,53.992033462739315]},"properties":{"OBJECTID":239,"AssetID":"243","LifeCycleStatus":"ACT","SubType":9,"AssetOwner":1,"AssetManager":13,"Location":"Snowdrop Park","InstallDate":631152000000,"Name":null,"Model":null,"Age_Range":null,"Capacity":null,"Primary_Material":"Metal","Secondary_Material":"Metal","Surfacing":"Dirt","gisuid":1000008708,"barcode":"PRK-00008708","GlobalID":"{B7E88ED6-5048-47C4-AB82-34A0A4D679B2}"}},{"type":"Feature","id":240,"geometry":{"type":"Point","coordinates":[-122.80470814589408,53.992008360930825]},"properties":{"OBJECTID":240,"AssetID":"244","LifeCycleStatus":"ACT","SubType":13,"AssetOwner":1,"AssetManager":13,"Location":"Snowdrop Park","InstallDate":315532800000,"Name":null,"Model":null,"Age_Range":null,"Capacity":null,"Primary_Material":"Metal","Secondary_Material":"Metal","Surfacing":"Dirt","gisuid":1000008709,"barcode":"PRK-00008709","GlobalID":"{15FE8D1D-E96D-4886-8814-5D083A29BF07}"}},{"type":"Feature","id":241,"geometry":{"type":"Point","coordinates":[-122.79785889664291,53.98098229294527]},"properties":{"OBJECTID":241,"AssetID":"245","LifeCycleStatus":"ACT","SubType":1,"AssetOwner":1,"AssetManager":13,"Location":"Poyner Park","InstallDate":1136073600000,"Name":null,"Model":null,"Age_Range":null,"Capacity":null,"Primary_Material":"Metal","Secondary_Material":"Metal","Surfacing":"Dirt","gisuid":1000008710,"barcode":"PRK-00008710","GlobalID":"{9358EE79-9255-4032-B5D0-048A5373213D}"}},{"type":"Feature","id":242,"geometry":{"type":"Point","coordinates":[-122.76045218526156,53.95651487172569]},"properties":{"OBJECTID":242,"AssetID":"246","LifeCycleStatus":"ACT","SubType":1,"AssetOwner":1,"AssetManager":13,"Location":"Clearwood Park","InstallDate":1136073600000,"Name":null,"Model":null,"Age_Range":null,"Capacity":null,"Primary_Material":"Metal","Secondary_Material":"Composite","Surfacing":"Pea Gravel","gisuid":1000008711,"barcode":"PRK-00008711","GlobalID":"{68AE7CC3-E14E-45C9-AA14-66A48D611B90}"}},{"type":"Feature","id":243,"geometry":{"type":"Point","coordinates":[-122.76055356969705,53.95661911179957]},"properties":{"OBJECTID":243,"AssetID":"247","LifeCycleStatus":"ACT","SubType":14,"AssetOwner":1,"AssetManager":13,"Location":"Clearwood Park","InstallDate":1136073600000,"Name":null,"Model":null,"Age_Range":null,"Capacity":null,"Primary_Material":"Metal","Secondary_Material":"Composite","Surfacing":"Pea Gravel","gisuid":1000008712,"barcode":"PRK-00008712","GlobalID":"{AD9DAFCB-6AD0-44EE-9FC9-2BADF91F72AC}"}},{"type":"Feature","id":261,"geometry":{"type":"Point","coordinates":[-122.8138696607348,53.93161893606594]},"properties":{"OBJECTID":261,"AssetID":"265","LifeCycleStatus":"ACT","SubType":1,"AssetOwner":1,"AssetManager":13,"Location":"Zimmaro Park","InstallDate":1009843200000,"Name":null,"Model":null,"Age_Range":null,"Capacity":null,"Primary_Material":"Metal","Secondary_Material":"Metal","Surfacing":"Pea Gravel","gisuid":1000008730,"barcode":"PRK-00008730","GlobalID":"{B5093D85-29C3-49A7-BBEA-E82B82D846F2}"}},{"type":"Feature","id":262,"geometry":{"type":"Point","coordinates":[-122.81408528243523,53.9315893488347]},"properties":{"OBJECTID":262,"AssetID":"266","LifeCycleStatus":"ACT","SubType":13,"AssetOwner":1,"AssetManager":13,"Location":"Zimmaro Park","InstallDate":1009843200000,"Name":null,"Model":null,"Age_Range":null,"Capacity":null,"Primary_Material":"Metal","Secondary_Material":"Metal","Surfacing":"Pea Gravel","gisuid":1000008731,"barcode":"PRK-00008731","GlobalID":"{5D8A9085-6E96-4287-B8B3-3134320EF3C4}"}},{"type":"Feature","id":263,"geometry":{"type":"Point","coordinates":[-122.81403267086115,53.93154313719871]},"properties":{"OBJECTID":263,"AssetID":"267","LifeCycleStatus":"ACT","SubType":13,"AssetOwner":1,"AssetManager":13,"Location":"Zimmaro Park","InstallDate":1009843200000,"Name":null,"Model":null,"Age_Range":null,"Capacity":null,"Primary_Material":"Metal","Secondary_Material":"Metal","Surfacing":"Pea Gravel","gisuid":1000008732,"barcode":"PRK-00008732","GlobalID":"{AB0A779E-4FDB-4122-971D-5A86FA1C11B3}"}},{"type":"Feature","id":264,"geometry":{"type":"Point","coordinates":[-122.80339642835503,53.858457909023755]},"properties":{"OBJECTID":264,"AssetID":"268","LifeCycleStatus":"ACT","SubType":1,"AssetOwner":1,"AssetManager":13,"Location":"Westgate Park","InstallDate":1104537600000,"Name":null,"Model":null,"Age_Range":null,"Capacity":null,"Primary_Material":"Metal","Secondary_Material":"Metal","Surfacing":"Pea Gravel","gisuid":1000008733,"barcode":"PRK-00008733","GlobalID":"{B817CF61-C9A1-4F0F-84B0-E615582DFE49}"}},{"type":"Feature","id":265,"geometry":{"type":"Point","coordinates":[-122.80344087392288,53.858390896993306]},"properties":{"OBJECTID":265,"AssetID":"269","LifeCycleStatus":"ACT","SubType":13,"AssetOwner":1,"AssetManager":13,"Location":"Westgate Park","InstallDate":1104537600000,"Name":null,"Model":null,"Age_Range":null,"Capacity":null,"Primary_Material":"Metal","Secondary_Material":"Metal","Surfacing":"Pea Gravel","gisuid":1000008734,"barcode":"PRK-00008734","GlobalID":"{D455004E-B277-4570-92C2-227F558E3BA7}"}},{"type":"Feature","id":266,"geometry":{"type":"Point","coordinates":[-122.80356023814274,53.85848053797095]},"properties":{"OBJECTID":266,"AssetID":"270","LifeCycleStatus":"ACT","SubType":14,"AssetOwner":1,"AssetManager":13,"Location":"Westgate Park","InstallDate":1104537600000,"Name":null,"Model":null,"Age_Range":null,"Capacity":null,"Primary_Material":"Metal","Secondary_Material":"Metal","Surfacing":"Pea Gravel","gisuid":1000008735,"barcode":"PRK-00008735","GlobalID":"{EC7A6CD8-67A9-4037-A4A9-F1937A6CD06E}"}},{"type":"Feature","id":267,"geometry":{"type":"Point","coordinates":[-122.74434954168932,53.89715747344736]},"properties":{"OBJECTID":267,"AssetID":"271","LifeCycleStatus":"ACT","SubType":1,"AssetOwner":1,"AssetManager":13,"Location":"South Fort George Family Res. Centre","InstallDate":1136073600000,"Name":null,"Model":null,"Age_Range":null,"Capacity":null,"Primary_Material":"Metal","Secondary_Material":"Metal","Surfacing":"Pea Gravel","gisuid":1000008736,"barcode":"PRK-00008736","GlobalID":"{A74D8D7D-4C56-4DCB-ABED-103B6EDE2B17}"}},{"type":"Feature","id":268,"geometry":{"type":"Point","coordinates":[-122.80101321493339,53.91291336249916]},"properties":{"OBJECTID":268,"AssetID":"272","LifeCycleStatus":"ACT","SubType":1,"AssetOwner":1,"AssetManager":13,"Location":"Bednesti Park","InstallDate":1230768000000,"Name":null,"Model":null,"Age_Range":null,"Capacity":null,"Primary_Material":"Metal","Secondary_Material":"Metal","Surfacing":"Pea Gravel","gisuid":1000008737,"barcode":"PRK-00008737","GlobalID":"{139C608C-E10E-4CBC-950A-6F6EE5606A0F}"}},{"type":"Feature","id":269,"geometry":{"type":"Point","coordinates":[-122.7828117484473,53.8891935529402]},"properties":{"OBJECTID":269,"AssetID":"273","LifeCycleStatus":"ACT","SubType":1,"AssetOwner":1,"AssetManager":13,"Location":"Cherry Park","InstallDate":1136073600000,"Name":null,"Model":null,"Age_Range":null,"Capacity":null,"Primary_Material":"Metal","Secondary_Material":"Composite","Surfacing":"Pea Gravel","gisuid":1000008738,"barcode":"PRK-00008738","GlobalID":"{6165AC1D-C6AB-4718-8FE4-74DCABE80056}"}},{"type":"Feature","id":271,"geometry":{"type":"Point","coordinates":[-122.79009907700232,53.88035004989153]},"properties":{"OBJECTID":271,"AssetID":"401","LifeCycleStatus":"ACT","SubType":13,"AssetOwner":1,"AssetManager":13,"Location":"Charella Park","InstallDate":1199145600000,"Name":null,"Model":null,"Age_Range":null,"Capacity":null,"Primary_Material":"Metal","Secondary_Material":"Composite","Surfacing":"Pea Gravel","gisuid":1000008740,"barcode":"PRK-00008740","GlobalID":"{99FBB4A2-1AB6-4279-8E39-28FB8C0F7011}"}},{"type":"Feature","id":272,"geometry":{"type":"Point","coordinates":[-122.75550157237477,53.89249244092137]},"properties":{"OBJECTID":272,"AssetID":"276","LifeCycleStatus":"ACT","SubType":11,"AssetOwner":1,"AssetManager":13,"Location":"Clapperton Park","InstallDate":473385600000,"Name":null,"Model":null,"Age_Range":null,"Capacity":null,"Primary_Material":"Composite","Secondary_Material":"Metal","Surfacing":"Dirt","gisuid":1000008741,"barcode":"PRK-00008741","GlobalID":"{F1D4401B-EFC3-4ABC-A085-20F7C691A647}"}},{"type":"Feature","id":273,"geometry":{"type":"Point","coordinates":[-122.76056088557051,53.95646124754148]},"properties":{"OBJECTID":273,"AssetID":"277","LifeCycleStatus":"ACT","SubType":4,"AssetOwner":1,"AssetManager":13,"Location":"Clearwood Park","InstallDate":1136073600000,"Name":null,"Model":null,"Age_Range":null,"Capacity":null,"Primary_Material":"Metal","Secondary_Material":"Composite","Surfacing":"Pea Gravel","gisuid":1000008742,"barcode":"PRK-00008742","GlobalID":"{D6CB6592-1D72-4E30-80F7-1A327E10A23B}"}},{"type":"Feature","id":274,"geometry":{"type":"Point","coordinates":[-122.79076150537114,53.89732082965654]},"properties":{"OBJECTID":274,"AssetID":"278","LifeCycleStatus":"ACT","SubType":14,"AssetOwner":1,"AssetManager":13,"Location":"Coyle Park","InstallDate":1230768000000,"Name":null,"Model":null,"Age_Range":null,"Capacity":null,"Primary_Material":"Metal","Secondary_Material":"Composite","Surfacing":"Pea Gravel","gisuid":1000008743,"barcode":"PRK-00008743","GlobalID":"{4D68AD9C-6D99-4880-B53A-AC9A86145D76}"}},{"type":"Feature","id":275,"geometry":{"type":"Point","coordinates":[-122.79090638331807,53.89723908010041]},"properties":{"OBJECTID":275,"AssetID":"279","LifeCycleStatus":"ACT","SubType":1,"AssetOwner":1,"AssetManager":13,"Location":"Coyle Park","InstallDate":1230768000000,"Name":null,"Model":null,"Age_Range":null,"Capacity":null,"Primary_Material":"Metal","Secondary_Material":"Composite","Surfacing":"Pea Gravel","gisuid":1000008744,"barcode":"PRK-00008744","GlobalID":"{0C3EFE27-2931-4190-A70D-DB144193D794}"}},{"type":"Feature","id":276,"geometry":{"type":"Point","coordinates":[-122.78443080811053,53.991341620641954]},"properties":{"OBJECTID":276,"AssetID":"280","LifeCycleStatus":"ACT","SubType":1,"AssetOwner":1,"AssetManager":13,"Location":"Cpl Darren Fitzpatrick Bravery Park","InstallDate":1199145600000,"Name":null,"Model":null,"Age_Range":null,"Capacity":null,"Primary_Material":"Metal","Secondary_Material":"Composite","Surfacing":"Pea Gravel","gisuid":1000008745,"barcode":"PRK-00008745","GlobalID":"{A054E6B4-8AC4-4D57-B959-F0D017724FA8}"}},{"type":"Feature","id":278,"geometry":{"type":"Point","coordinates":[-122.78452732453357,53.99140719092787]},"properties":{"OBJECTID":278,"AssetID":"282","LifeCycleStatus":"ACT","SubType":12,"AssetOwner":1,"AssetManager":13,"Location":"Cpl Darren Fitzpatrick Bravery Park","InstallDate":1199145600000,"Name":null,"Model":null,"Age_Range":null,"Capacity":null,"Primary_Material":"Metal","Secondary_Material":"Composite","Surfacing":"Pea Gravel","gisuid":1000008747,"barcode":"PRK-00008747","GlobalID":"{38CD59C9-5955-4023-AFD3-70A49E538875}"}},{"type":"Feature","id":279,"geometry":{"type":"Point","coordinates":[-122.78453624775935,53.99143752687472]},"properties":{"OBJECTID":279,"AssetID":"283","LifeCycleStatus":"ACT","SubType":12,"AssetOwner":1,"AssetManager":13,"Location":"Cpl Darren Fitzpatrick Bravery Park","InstallDate":1199145600000,"Name":null,"Model":null,"Age_Range":null,"Capacity":null,"Primary_Material":"Metal","Secondary_Material":"Composite","Surfacing":"Pea Gravel","gisuid":1000008748,"barcode":"PRK-00008748","GlobalID":"{EA70AA45-B32F-4B41-A713-9DC0B725245C}"}},{"type":"Feature","id":280,"geometry":{"type":"Point","coordinates":[-122.76107136757075,53.91665978912162]},"properties":{"OBJECTID":280,"AssetID":"284","LifeCycleStatus":"ACT","SubType":1,"AssetOwner":1,"AssetManager":13,"Location":"Duchess Park","InstallDate":1347148800000,"Name":null,"Model":null,"Age_Range":null,"Capacity":null,"Primary_Material":"Plastic","Secondary_Material":"Composite","Surfacing":"Poured in Place Rubber","gisuid":1000008749,"barcode":"PRK-00008749","GlobalID":"{53742265-1C86-418F-8738-A04DFAAB54C4}"}},{"type":"Feature","id":281,"geometry":{"type":"Point","coordinates":[-122.76108647742629,53.91633114713802]},"properties":{"OBJECTID":281,"AssetID":"285","LifeCycleStatus":"ACT","SubType":4,"AssetOwner":1,"AssetManager":13,"Location":"Duchess Park","InstallDate":1347148800000,"Name":null,"Model":null,"Age_Range":null,"Capacity":null,"Primary_Material":"Plastic","Secondary_Material":"Composite","Surfacing":"Poured in Place Rubber","gisuid":1000008750,"barcode":"PRK-00008750","GlobalID":"{0911629B-486A-421E-A15C-16A8DE808524}"}},{"type":"Feature","id":282,"geometry":{"type":"Point","coordinates":[-122.76099695805901,53.916347139446394]},"properties":{"OBJECTID":282,"AssetID":"286","LifeCycleStatus":"ACT","SubType":4,"AssetOwner":1,"AssetManager":13,"Location":"Duchess Park","InstallDate":1347148800000,"Name":null,"Model":null,"Age_Range":null,"Capacity":null,"Primary_Material":"Plastic","Secondary_Material":"Composite","Surfacing":"Poured in Place Rubber","gisuid":1000008751,"barcode":"PRK-00008751","GlobalID":"{1A9159BC-E44D-45DC-814F-ACEBE0252D26}"}},{"type":"Feature","id":283,"geometry":{"type":"Point","coordinates":[-122.76112240151359,53.91638924466416]},"properties":{"OBJECTID":283,"AssetID":"287","LifeCycleStatus":"ACT","SubType":9,"AssetOwner":1,"AssetManager":13,"Location":"Duchess Park","InstallDate":1347148800000,"Name":null,"Model":null,"Age_Range":null,"Capacity":null,"Primary_Material":"Plastic","Secondary_Material":"Composite","Surfacing":"Poured in Place Rubber","gisuid":1000008752,"barcode":"PRK-00008752","GlobalID":"{18D96DA7-FBD8-4F7B-A04C-2C1C17A872BA}"}},{"type":"Feature","id":284,"geometry":{"type":"Point","coordinates":[-122.76088505341602,53.9164030408762]},"properties":{"OBJECTID":284,"AssetID":"288","LifeCycleStatus":"ACT","SubType":14,"AssetOwner":1,"AssetManager":13,"Location":"Duchess Park","InstallDate":1347148800000,"Name":null,"Model":null,"Age_Range":null,"Capacity":null,"Primary_Material":"Plastic","Secondary_Material":"Composite","Surfacing":"Poured in Place Rubber","gisuid":1000008753,"barcode":"PRK-00008753","GlobalID":"{5EBB0DDB-5929-4576-8539-602F05223517}"}},{"type":"Feature","id":285,"geometry":{"type":"Point","coordinates":[-122.76080536564,53.916460431880985]},"properties":{"OBJECTID":285,"AssetID":"289","LifeCycleStatus":"ACT","SubType":13,"AssetOwner":1,"AssetManager":13,"Location":"Duchess Park","InstallDate":1347148800000,"Name":null,"Model":null,"Age_Range":null,"Capacity":null,"Primary_Material":"Plastic","Secondary_Material":"Composite","Surfacing":"Poured in Place Rubber","gisuid":1000008754,"barcode":"PRK-00008754","GlobalID":"{D8EAE897-9F03-424A-8879-61240913A666}"}},{"type":"Feature","id":286,"geometry":{"type":"Point","coordinates":[-122.76119809248605,53.91653778818657]},"properties":{"OBJECTID":286,"AssetID":"290","LifeCycleStatus":"ACT","SubType":10,"AssetOwner":1,"AssetManager":13,"Location":"Duchess Park","InstallDate":1347148800000,"Name":null,"Model":null,"Age_Range":null,"Capacity":null,"Primary_Material":"Plastic","Secondary_Material":"Composite","Surfacing":"Poured in Place Rubber","gisuid":1000008755,"barcode":"PRK-00008755","GlobalID":"{6FA25CD2-8CE0-435A-A3F6-566D21C6FF1E}"}},{"type":"Feature","id":287,"geometry":{"type":"Point","coordinates":[-122.76121240612882,53.916429375618]},"properties":{"OBJECTID":287,"AssetID":"291","LifeCycleStatus":"ACT","SubType":1,"AssetOwner":1,"AssetManager":13,"Location":"Duchess Park","InstallDate":1347148800000,"Name":null,"Model":null,"Age_Range":null,"Capacity":null,"Primary_Material":"Plastic","Secondary_Material":"Composite","Surfacing":"Poured in Place Rubber","gisuid":1000008756,"barcode":"PRK-00008756","GlobalID":"{D65C5313-39A2-43E4-8940-030AC9939879}"}},{"type":"Feature","id":288,"geometry":{"type":"Point","coordinates":[-122.76114140855137,53.91669391682421]},"properties":{"OBJECTID":288,"AssetID":"292","LifeCycleStatus":"ACT","SubType":10,"AssetOwner":1,"AssetManager":13,"Location":"Duchess Park","InstallDate":1347148800000,"Name":null,"Model":null,"Age_Range":null,"Capacity":null,"Primary_Material":"Plastic","Secondary_Material":"Composite","Surfacing":"Poured in Place Rubber","gisuid":1000008757,"barcode":"PRK-00008757","GlobalID":"{7D0B5F56-6282-4826-A180-84958B7B5817}"}},{"type":"Feature","id":289,"geometry":{"type":"Point","coordinates":[-122.76097535953097,53.916707854105205]},"properties":{"OBJECTID":289,"AssetID":"293","LifeCycleStatus":"ACT","SubType":8,"AssetOwner":1,"AssetManager":13,"Location":"Duchess Park","InstallDate":1347148800000,"Name":null,"Model":null,"Age_Range":null,"Capacity":null,"Primary_Material":"Plastic","Secondary_Material":"Composite","Surfacing":"Poured in Place Rubber","gisuid":1000008758,"barcode":"PRK-00008758","GlobalID":"{A4FF4539-C7E0-4619-83C1-186006A07282}"}},{"type":"Feature","id":290,"geometry":{"type":"Point","coordinates":[-122.76107368129445,53.91670281870207]},"properties":{"OBJECTID":290,"AssetID":"294","LifeCycleStatus":"ACT","SubType":4,"AssetOwner":1,"AssetManager":13,"Location":"Duchess Park","InstallDate":1347148800000,"Name":null,"Model":null,"Age_Range":null,"Capacity":null,"Primary_Material":"Plastic","Secondary_Material":"Composite","Surfacing":"Poured in Place Rubber","gisuid":1000008759,"barcode":"PRK-00008759","GlobalID":"{FC35432F-EDF9-4C7D-B8D2-0E9A56A277D7}"}},{"type":"Feature","id":291,"geometry":{"type":"Point","coordinates":[-122.81184739594882,53.95942846338705]},"properties":{"OBJECTID":291,"AssetID":"295","LifeCycleStatus":"ACT","SubType":4,"AssetOwner":1,"AssetManager":13,"Location":"Fairburn Park","InstallDate":1167609600000,"Name":null,"Model":null,"Age_Range":null,"Capacity":null,"Primary_Material":"Metal","Secondary_Material":"Metal","Surfacing":"Pea Gravel","gisuid":1000008760,"barcode":"PRK-00008760","GlobalID":"{8429E5EB-F65A-4B66-A43A-6696FE69612D}"}},{"type":"Feature","id":292,"geometry":{"type":"Point","coordinates":[-122.81196555315373,53.95951663631949]},"properties":{"OBJECTID":292,"AssetID":"296","LifeCycleStatus":"ACT","SubType":14,"AssetOwner":1,"AssetManager":13,"Location":"Fairburn Park","InstallDate":1167609600000,"Name":null,"Model":null,"Age_Range":null,"Capacity":null,"Primary_Material":"Metal","Secondary_Material":"Metal","Surfacing":"Pea Gravel","gisuid":1000008761,"barcode":"PRK-00008761","GlobalID":"{D7FA2510-EB9B-4E71-9405-CE10E045D2CB}"}},{"type":"Feature","id":293,"geometry":{"type":"Point","coordinates":[-122.79340785111938,53.89856261009621]},"properties":{"OBJECTID":293,"AssetID":"297","LifeCycleStatus":"ACT","SubType":14,"AssetOwner":1,"AssetManager":13,"Location":"Foot Park","InstallDate":1199145600000,"Name":null,"Model":null,"Age_Range":null,"Capacity":null,"Primary_Material":"Metal","Secondary_Material":"Composite","Surfacing":"Pea Gravel","gisuid":1000008762,"barcode":"PRK-00008762","GlobalID":"{83CB3E5B-A21A-4D81-B4D3-4576EAA5BAAE}"}},{"type":"Feature","id":294,"geometry":{"type":"Point","coordinates":[-122.79352217969821,53.898445685676705]},"properties":{"OBJECTID":294,"AssetID":"298","LifeCycleStatus":"ACT","SubType":1,"AssetOwner":1,"AssetManager":13,"Location":"Foot Park","InstallDate":1199145600000,"Name":null,"Model":null,"Age_Range":null,"Capacity":null,"Primary_Material":"Metal","Secondary_Material":"Composite","Surfacing":"Pea Gravel","gisuid":1000008763,"barcode":"PRK-00008763","GlobalID":"{093C738E-9FDB-4CC1-812C-FF5A3BD4BB50}"}},{"type":"Feature","id":295,"geometry":{"type":"Point","coordinates":[-122.79882842451302,53.92710256130213]},"properties":{"OBJECTID":295,"AssetID":"299","LifeCycleStatus":"ACT","SubType":14,"AssetOwner":1,"AssetManager":13,"Location":"Gordon Bryant Park","InstallDate":1167609600000,"Name":null,"Model":null,"Age_Range":null,"Capacity":null,"Primary_Material":"Metal","Secondary_Material":"Composite","Surfacing":"Pea Gravel","gisuid":1000008764,"barcode":"PRK-00008764","GlobalID":"{A6E18DFC-550D-4E78-AF93-5A5C938A8F4A}"}},{"type":"Feature","id":296,"geometry":{"type":"Point","coordinates":[-122.7985133860261,53.92700691005263]},"properties":{"OBJECTID":296,"AssetID":"300","LifeCycleStatus":"ACT","SubType":4,"AssetOwner":1,"AssetManager":13,"Location":"Gordon Bryant Park","InstallDate":1167609600000,"Name":null,"Model":null,"Age_Range":null,"Capacity":null,"Primary_Material":"Metal","Secondary_Material":"Composite","Surfacing":"Pea Gravel","gisuid":1000008765,"barcode":"PRK-00008765","GlobalID":"{9AF93CEF-EFD4-4EDC-B0F7-F4100EBA6D10}"}},{"type":"Feature","id":297,"geometry":{"type":"Point","coordinates":[-122.79862912473087,53.92707059929516]},"properties":{"OBJECTID":297,"AssetID":"301","LifeCycleStatus":"ACT","SubType":1,"AssetOwner":1,"AssetManager":13,"Location":"Gordon Bryant Park","InstallDate":1167609600000,"Name":null,"Model":null,"Age_Range":null,"Capacity":null,"Primary_Material":"Metal","Secondary_Material":"Composite","Surfacing":"Pea Gravel","gisuid":1000008766,"barcode":"PRK-00008766","GlobalID":"{A3A4DD0F-6EF2-4E38-9F24-D0405F5C3BD8}"}},{"type":"Feature","id":298,"geometry":{"type":"Point","coordinates":[-122.77741268785174,53.918996428918376]},"properties":{"OBJECTID":298,"AssetID":"302","LifeCycleStatus":"ACT","SubType":1,"AssetOwner":1,"AssetManager":13,"Location":"Harper Park","InstallDate":null,"Name":null,"Model":null,"Age_Range":null,"Capacity":null,"Primary_Material":"Metal","Secondary_Material":"Metal","Surfacing":"Pea Gravel","gisuid":1000008767,"barcode":"PRK-00008767","GlobalID":"{0DE52F68-7699-4648-9818-6BAC92246F7A}"}},{"type":"Feature","id":299,"geometry":{"type":"Point","coordinates":[-122.777225090597,53.91904661554847]},"properties":{"OBJECTID":299,"AssetID":"303","LifeCycleStatus":"ACT","SubType":14,"AssetOwner":1,"AssetManager":13,"Location":"Harper Park","InstallDate":null,"Name":null,"Model":null,"Age_Range":null,"Capacity":null,"Primary_Material":"Metal","Secondary_Material":"Metal","Surfacing":"Pea Gravel","gisuid":1000008768,"barcode":"PRK-00008768","GlobalID":"{38D12E3A-3703-46B5-A043-4F631C182C18}"}},{"type":"Feature","id":301,"geometry":{"type":"Point","coordinates":[-122.75807206456588,53.849674051446264]},"properties":{"OBJECTID":301,"AssetID":"305","LifeCycleStatus":"ACT","SubType":1,"AssetOwner":1,"AssetManager":13,"Location":"Latrobe Park","InstallDate":1072915200000,"Name":null,"Model":null,"Age_Range":null,"Capacity":null,"Primary_Material":"Metal","Secondary_Material":"Composite","Surfacing":"Pea Gravel","gisuid":1000008770,"barcode":"PRK-00008770","GlobalID":"{62527A0A-B224-46EA-A46C-F035A4105808}"}},{"type":"Feature","id":302,"geometry":{"type":"Point","coordinates":[-122.75818227242281,53.849672847155055]},"properties":{"OBJECTID":302,"AssetID":"306","LifeCycleStatus":"ACT","SubType":9,"AssetOwner":1,"AssetManager":13,"Location":"Latrobe Park","InstallDate":157766400000,"Name":null,"Model":null,"Age_Range":null,"Capacity":null,"Primary_Material":"Metal","Secondary_Material":"Composite","Surfacing":"Pea Gravel","gisuid":1000008771,"barcode":"PRK-00008771","GlobalID":"{1F47EB00-B936-4D39-ADC6-1C804B00A0E0}"}},{"type":"Feature","id":304,"geometry":{"type":"Point","coordinates":[-122.79084617799744,54.00132792560208]},"properties":{"OBJECTID":304,"AssetID":"308","LifeCycleStatus":"ACT","SubType":14,"AssetOwner":1,"AssetManager":13,"Location":"Nordic Park","InstallDate":1136073600000,"Name":null,"Model":null,"Age_Range":null,"Capacity":null,"Primary_Material":"Metal","Secondary_Material":"Metal","Surfacing":"Pea Gravel","gisuid":1000008773,"barcode":"PRK-00008773","GlobalID":"{E91232BE-CF2E-4612-91D5-FC044E118A16}"}},{"type":"Feature","id":306,"geometry":{"type":"Point","coordinates":[-122.8158402386583,53.849990386740636]},"properties":{"OBJECTID":306,"AssetID":"325","LifeCycleStatus":"ACT","SubType":4,"AssetOwner":1,"AssetManager":13,"Location":"Parkridge Hts. Park","InstallDate":1338508800000,"Name":null,"Model":null,"Age_Range":null,"Capacity":null,"Primary_Material":"Metal","Secondary_Material":"Metal","Surfacing":"Pea Gravel","gisuid":1000008775,"barcode":"PRK-00008775","GlobalID":"{90306BA4-25EF-461A-9486-B3353D6625A1}"}},{"type":"Feature","id":307,"geometry":{"type":"Point","coordinates":[-122.81590753474924,53.850007136962645]},"properties":{"OBJECTID":307,"AssetID":"323","LifeCycleStatus":"ACT","SubType":4,"AssetOwner":1,"AssetManager":13,"Location":"Parkridge Hts. Park","InstallDate":1338508800000,"Name":null,"Model":null,"Age_Range":null,"Capacity":null,"Primary_Material":"Metal","Secondary_Material":"Metal","Surfacing":"Pea Gravel","gisuid":1000008776,"barcode":"PRK-00008776","GlobalID":"{B80E4CDC-BA4D-4159-B899-4430D2E62EE5}"}},{"type":"Feature","id":308,"geometry":{"type":"Point","coordinates":[-122.81603566320435,53.84990864168376]},"properties":{"OBJECTID":308,"AssetID":"324","LifeCycleStatus":"ACT","SubType":14,"AssetOwner":1,"AssetManager":13,"Location":"Parkridge Hts. Park","InstallDate":1338508800000,"Name":null,"Model":null,"Age_Range":null,"Capacity":null,"Primary_Material":"Metal","Secondary_Material":"Metal","Surfacing":"Pea Gravel","gisuid":1000008777,"barcode":"PRK-00008777","GlobalID":"{26579F08-EAD6-4112-A45C-A86552A4FC61}"}},{"type":"Feature","id":309,"geometry":{"type":"Point","coordinates":[-122.81595648331223,53.849965297567834]},"properties":{"OBJECTID":309,"AssetID":"321","LifeCycleStatus":"ACT","SubType":1,"AssetOwner":1,"AssetManager":13,"Location":"Parkridge Hts. Park","InstallDate":1338508800000,"Name":null,"Model":null,"Age_Range":null,"Capacity":null,"Primary_Material":"Metal","Secondary_Material":"Metal","Surfacing":"Pea Gravel","gisuid":1000008778,"barcode":"PRK-00008778","GlobalID":"{ED4EB5F3-6B56-406E-AD83-BFCCC1EBB03C}"}},{"type":"Feature","id":310,"geometry":{"type":"Point","coordinates":[-122.79787020457057,53.981044768422755]},"properties":{"OBJECTID":310,"AssetID":"310","LifeCycleStatus":"ACT","SubType":13,"AssetOwner":1,"AssetManager":13,"Location":"Poyner Park","InstallDate":1136073600000,"Name":null,"Model":null,"Age_Range":null,"Capacity":null,"Primary_Material":"Metal","Secondary_Material":"Metal","Surfacing":"Dirt","gisuid":1000008779,"barcode":"PRK-00008779","GlobalID":"{A2906790-A2E8-485D-A1FC-6A5C0F616141}"}},{"type":"Feature","id":311,"geometry":{"type":"Point","coordinates":[-122.77998224285545,53.87714329313627]},"properties":{"OBJECTID":311,"AssetID":"311","LifeCycleStatus":"ACT","SubType":1,"AssetOwner":1,"AssetManager":13,"Location":"Prudente Park","InstallDate":1199145600000,"Name":null,"Model":null,"Age_Range":null,"Capacity":null,"Primary_Material":"Metal","Secondary_Material":"Composite","Surfacing":"Pea Gravel","gisuid":1000008780,"barcode":"PRK-00008780","GlobalID":"{86158BE5-22FC-4A4F-90E4-0CBD5EF9A69A}"}},{"type":"Feature","id":312,"geometry":{"type":"Point","coordinates":[-122.78002678339489,53.877092007643746]},"properties":{"OBJECTID":312,"AssetID":"313","LifeCycleStatus":"ACT","SubType":12,"AssetOwner":1,"AssetManager":13,"Location":"Prudente Park","InstallDate":1199145600000,"Name":null,"Model":null,"Age_Range":null,"Capacity":null,"Primary_Material":"Metal","Secondary_Material":"Composite","Surfacing":"Pea Gravel","gisuid":1000008781,"barcode":"PRK-00008781","GlobalID":"{CA504D97-6B39-4310-BDC2-C843D36E7195}"}},{"type":"Feature","id":313,"geometry":{"type":"Point","coordinates":[-122.78008468894785,53.8771011512994]},"properties":{"OBJECTID":313,"AssetID":"312","LifeCycleStatus":"ACT","SubType":7,"AssetOwner":1,"AssetManager":13,"Location":"Prudente Park","InstallDate":1199145600000,"Name":null,"Model":null,"Age_Range":null,"Capacity":null,"Primary_Material":"Metal","Secondary_Material":"Composite","Surfacing":"Pea Gravel","gisuid":1000008782,"barcode":"PRK-00008782","GlobalID":"{ACC52A10-32F5-42B7-8A51-CDF867323CC3}"}},{"type":"Feature","id":314,"geometry":{"type":"Point","coordinates":[-122.76874206274212,53.85300877501108]},"properties":{"OBJECTID":314,"AssetID":"314","LifeCycleStatus":"ACT","SubType":4,"AssetOwner":1,"AssetManager":13,"Location":"Renison Park","InstallDate":1072915200000,"Name":null,"Model":null,"Age_Range":null,"Capacity":null,"Primary_Material":"Metal","Secondary_Material":"Composite","Surfacing":"Pea Gravel","gisuid":1000008783,"barcode":"PRK-00008783","GlobalID":"{F72FEA82-1F2E-4354-82AB-0CC062207B1D}"}},{"type":"Feature","id":315,"geometry":{"type":"Point","coordinates":[-122.76878170395338,53.85296794807076]},"properties":{"OBJECTID":315,"AssetID":"315","LifeCycleStatus":"ACT","SubType":1,"AssetOwner":1,"AssetManager":13,"Location":"Renison Park","InstallDate":1072915200000,"Name":null,"Model":null,"Age_Range":null,"Capacity":null,"Primary_Material":"Metal","Secondary_Material":"Composite","Surfacing":"Pea Gravel","gisuid":1000008784,"barcode":"PRK-00008784","GlobalID":"{082CCE0D-8AA0-4F36-8AE2-0B79259888D0}"}},{"type":"Feature","id":317,"geometry":{"type":"Point","coordinates":[-122.76409454492195,53.884023139238]},"properties":{"OBJECTID":317,"AssetID":"317","LifeCycleStatus":"ACT","SubType":13,"AssetOwner":1,"AssetManager":13,"Location":"Sinclair Park","InstallDate":1230768000000,"Name":null,"Model":null,"Age_Range":null,"Capacity":null,"Primary_Material":"Metal","Secondary_Material":"Composite","Surfacing":"Pea Gravel","gisuid":1000008786,"barcode":"PRK-00008786","GlobalID":"{BB3B6B93-20CE-4610-BC51-CAEF4FC5211E}"}},{"type":"Feature","id":318,"geometry":{"type":"Point","coordinates":[-122.7639724230606,53.8840510805341]},"properties":{"OBJECTID":318,"AssetID":"322","LifeCycleStatus":"ACT","SubType":1,"AssetOwner":1,"AssetManager":13,"Location":"Sinclair Park","InstallDate":1230768000000,"Name":null,"Model":null,"Age_Range":null,"Capacity":null,"Primary_Material":"Metal","Secondary_Material":"Composite","Surfacing":"Pea Gravel","gisuid":1000008787,"barcode":"PRK-00008787","GlobalID":"{2C129ED9-5362-4A59-9260-BE3121CA58C0}"}},{"type":"Feature","id":319,"geometry":{"type":"Point","coordinates":[-122.7641037655501,53.88410127846]},"properties":{"OBJECTID":319,"AssetID":"320","LifeCycleStatus":"ACT","SubType":12,"AssetOwner":1,"AssetManager":13,"Location":"Sinclair Park","InstallDate":1230768000000,"Name":null,"Model":null,"Age_Range":null,"Capacity":null,"Primary_Material":"Metal","Secondary_Material":"Composite","Surfacing":"Pea Gravel","gisuid":1000008788,"barcode":"PRK-00008788","GlobalID":"{5D39969E-5AEF-460B-90E9-C5C1E026523F}"}},{"type":"Feature","id":320,"geometry":{"type":"Point","coordinates":[-122.74445962213949,53.89724333830769]},"properties":{"OBJECTID":320,"AssetID":"318","LifeCycleStatus":"ACT","SubType":13,"AssetOwner":1,"AssetManager":13,"Location":"South Fort George Family Res. Centre","InstallDate":1136073600000,"Name":null,"Model":null,"Age_Range":null,"Capacity":null,"Primary_Material":"Metal","Secondary_Material":"Metal","Surfacing":"Pea Gravel","gisuid":1000008789,"barcode":"PRK-00008789","GlobalID":"{68651244-9C2C-45D0-89A4-0B79A133A10B}"}},{"type":"Feature","id":321,"geometry":{"type":"Point","coordinates":[-122.74421658651902,53.89708443880377]},"properties":{"OBJECTID":321,"AssetID":"319","LifeCycleStatus":"ACT","SubType":13,"AssetOwner":1,"AssetManager":13,"Location":"South Fort George Family Res. Centre","InstallDate":1136073600000,"Name":null,"Model":null,"Age_Range":null,"Capacity":null,"Primary_Material":"Metal","Secondary_Material":"Metal","Surfacing":"Pea Gravel","gisuid":1000008790,"barcode":"PRK-00008790","GlobalID":"{00BE7CEA-15EB-4A7A-9852-BBF833409358}"}},{"type":"Feature","id":323,"geometry":{"type":"Point","coordinates":[-122.80380684297276,53.93665497656314]},"properties":{"OBJECTID":323,"AssetID":"331","LifeCycleStatus":"ACT","SubType":1,"AssetOwner":1,"AssetManager":13,"Location":"Stirling Park","InstallDate":1199145600000,"Name":null,"Model":null,"Age_Range":null,"Capacity":null,"Primary_Material":"Metal","Secondary_Material":"Composite","Surfacing":"Pea Gravel","gisuid":1000008792,"barcode":"PRK-00008792","GlobalID":"{4746574B-18ED-471C-8365-93C45F2759CD}"}},{"type":"Feature","id":324,"geometry":{"type":"Point","coordinates":[-122.80394569661941,53.93669562962932]},"properties":{"OBJECTID":324,"AssetID":"330","LifeCycleStatus":"ACT","SubType":2,"AssetOwner":1,"AssetManager":13,"Location":"Stirling Park","InstallDate":1199145600000,"Name":null,"Model":null,"Age_Range":null,"Capacity":null,"Primary_Material":"Metal","Secondary_Material":"Composite","Surfacing":"Pea Gravel","gisuid":1000008793,"barcode":"PRK-00008793","GlobalID":"{168D4845-5780-437F-A713-B7B30508E058}"}},{"type":"Feature","id":325,"geometry":{"type":"Point","coordinates":[-122.76013466830969,53.901749551006326]},"properties":{"OBJECTID":325,"AssetID":"329","LifeCycleStatus":"ACT","SubType":14,"AssetOwner":1,"AssetManager":13,"Location":"Strathcona Park","InstallDate":null,"Name":null,"Model":null,"Age_Range":null,"Capacity":null,"Primary_Material":"Metal","Secondary_Material":"Composite","Surfacing":"Pea Gravel","gisuid":1000008794,"barcode":"PRK-00008794","GlobalID":"{3A57FD26-D1E5-4A09-808D-267985B0EB6B}"}},{"type":"Feature","id":326,"geometry":{"type":"Point","coordinates":[-122.75996231240609,53.90168000367689]},"properties":{"OBJECTID":326,"AssetID":"327","LifeCycleStatus":"ACT","SubType":1,"AssetOwner":1,"AssetManager":13,"Location":"Strathcona Park","InstallDate":null,"Name":null,"Model":null,"Age_Range":null,"Capacity":null,"Primary_Material":"Metal","Secondary_Material":"Composite","Surfacing":"Pea Gravel","gisuid":1000008795,"barcode":"PRK-00008795","GlobalID":"{F71D54D6-460D-4C28-844D-DD8364FD7768}"}},{"type":"Feature","id":327,"geometry":{"type":"Point","coordinates":[-122.80368427621596,53.93659323168181]},"properties":{"OBJECTID":327,"AssetID":"328","LifeCycleStatus":"ACT","SubType":13,"AssetOwner":1,"AssetManager":13,"Location":"Stirling Park","InstallDate":1199145600000,"Name":null,"Model":null,"Age_Range":null,"Capacity":null,"Primary_Material":"Metal","Secondary_Material":"Composite","Surfacing":"Pea Gravel","gisuid":1000008796,"barcode":"PRK-00008796","GlobalID":"{444FBA83-5A62-4690-AF74-BD96E1135F97}"}},{"type":"Feature","id":328,"geometry":{"type":"Point","coordinates":[-122.78525998402614,53.88994916734774]},"properties":{"OBJECTID":328,"AssetID":"332","LifeCycleStatus":"ACT","SubType":14,"AssetOwner":1,"AssetManager":13,"Location":"Sycamore Park","InstallDate":1136073600000,"Name":null,"Model":null,"Age_Range":null,"Capacity":null,"Primary_Material":"Metal","Secondary_Material":"Composite","Surfacing":"Pea Gravel","gisuid":1000008797,"barcode":"PRK-00008797","GlobalID":"{187B0502-FE82-4C55-BA67-91CD56983B56}"}},{"type":"Feature","id":329,"geometry":{"type":"Point","coordinates":[-122.7851861322387,53.89002335065875]},"properties":{"OBJECTID":329,"AssetID":"333","LifeCycleStatus":"ACT","SubType":1,"AssetOwner":1,"AssetManager":13,"Location":"Sycamore Park","InstallDate":1136073600000,"Name":null,"Model":null,"Age_Range":null,"Capacity":null,"Primary_Material":"Metal","Secondary_Material":"Composite","Surfacing":"Pea Gravel","gisuid":1000008798,"barcode":"PRK-00008798","GlobalID":"{43B62BB7-E8D0-4915-AE89-7566E02BC1D9}"}},{"type":"Feature","id":330,"geometry":{"type":"Point","coordinates":[-122.78529470194968,53.89004792060295]},"properties":{"OBJECTID":330,"AssetID":"334","LifeCycleStatus":"ACT","SubType":12,"AssetOwner":1,"AssetManager":13,"Location":"Sycamore Park","InstallDate":1136073600000,"Name":null,"Model":null,"Age_Range":null,"Capacity":null,"Primary_Material":"Metal","Secondary_Material":"Composite","Surfacing":"Pea Gravel","gisuid":1000008799,"barcode":"PRK-00008799","GlobalID":"{8590B211-34DE-4325-9D11-83FE51F5A6A2}"}},{"type":"Feature","id":331,"geometry":{"type":"Point","coordinates":[-122.78525143832205,53.89004546497244]},"properties":{"OBJECTID":331,"AssetID":"335","LifeCycleStatus":"ACT","SubType":12,"AssetOwner":1,"AssetManager":13,"Location":"Sycamore Park","InstallDate":1136073600000,"Name":null,"Model":null,"Age_Range":null,"Capacity":null,"Primary_Material":"Metal","Secondary_Material":"Composite","Surfacing":"Pea Gravel","gisuid":1000008800,"barcode":"PRK-00008800","GlobalID":"{F443E106-B147-4EBD-ABCA-F7FEFDC8CBE9}"}},{"type":"Feature","id":332,"geometry":{"type":"Point","coordinates":[-122.80360209052847,53.85834515239875]},"properties":{"OBJECTID":332,"AssetID":"336","LifeCycleStatus":"ACT","SubType":1,"AssetOwner":1,"AssetManager":13,"Location":"Westgate Park","InstallDate":1104537600000,"Name":null,"Model":null,"Age_Range":null,"Capacity":null,"Primary_Material":"Metal","Secondary_Material":"Metal","Surfacing":"Pea Gravel","gisuid":1000008801,"barcode":"PRK-00008801","GlobalID":"{5E47403A-32FC-42C6-BD65-5ED40E8C2B01}"}},{"type":"Feature","id":333,"geometry":{"type":"Point","coordinates":[-122.80091324427435,53.91287395491291]},"properties":{"OBJECTID":333,"AssetID":"337","LifeCycleStatus":"ACT","SubType":12,"AssetOwner":1,"AssetManager":13,"Location":"Bednesti Park","InstallDate":1230768000000,"Name":null,"Model":null,"Age_Range":null,"Capacity":null,"Primary_Material":"Metal","Secondary_Material":"Metal","Surfacing":"Pea Gravel","gisuid":1000008802,"barcode":"PRK-00008802","GlobalID":"{EDE523E3-3054-4A6D-AD05-C8CED3DF8C2C}"}},{"type":"Feature","id":334,"geometry":{"type":"Point","coordinates":[-122.8009065170531,53.91293344295445]},"properties":{"OBJECTID":334,"AssetID":"338","LifeCycleStatus":"ACT","SubType":12,"AssetOwner":1,"AssetManager":13,"Location":"Bednesti Park","InstallDate":1230768000000,"Name":null,"Model":null,"Age_Range":null,"Capacity":null,"Primary_Material":"Metal","Secondary_Material":"Metal","Surfacing":"Pea Gravel","gisuid":1000008803,"barcode":"PRK-00008803","GlobalID":"{1B5CD013-00BD-4D5C-AF53-06A502F6E39C}"}},{"type":"Feature","id":335,"geometry":{"type":"Point","coordinates":[-122.76114037894006,53.91658860788798]},"properties":{"OBJECTID":335,"AssetID":"339","LifeCycleStatus":"ACT","SubType":12,"AssetOwner":1,"AssetManager":13,"Location":"Duchess Park","InstallDate":1347148800000,"Name":null,"Model":null,"Age_Range":null,"Capacity":null,"Primary_Material":"Plastic","Secondary_Material":"Composite","Surfacing":"Poured in Place Rubber","gisuid":1000008804,"barcode":"PRK-00008804","GlobalID":"{8960C400-75DC-4701-8A2E-ED45DCCC3103}"}},{"type":"Feature","id":336,"geometry":{"type":"Point","coordinates":[-122.78529549451846,53.889993918804855]},"properties":{"OBJECTID":336,"AssetID":"340","LifeCycleStatus":"ACT","SubType":15,"AssetOwner":1,"AssetManager":13,"Location":"Sycamore Park","InstallDate":1136073600000,"Name":null,"Model":null,"Age_Range":null,"Capacity":null,"Primary_Material":"Metal","Secondary_Material":"Composite","Surfacing":"Pea Gravel","gisuid":1000008805,"barcode":"PRK-00008805","GlobalID":"{23056326-37E0-4F01-8783-4DADF9964BE4}"}},{"type":"Feature","id":339,"geometry":{"type":"Point","coordinates":[-122.76409589702598,53.899366964956194]},"properties":{"OBJECTID":339,"AssetID":"343","LifeCycleStatus":"ACT","SubType":1,"AssetOwner":1,"AssetManager":13,"Location":"Moosehart Park","InstallDate":1496707200000,"Name":null,"Model":null,"Age_Range":null,"Capacity":null,"Primary_Material":"Metal","Secondary_Material":"Composite","Surfacing":"Engineered Wood Fiber","gisuid":1000008808,"barcode":"PRK-00008808","GlobalID":"{21C6AEC7-618F-40E9-8CA1-3DD1057F9274}"}},{"type":"Feature","id":340,"geometry":{"type":"Point","coordinates":[-122.77217660226182,53.872018499141525]},"properties":{"OBJECTID":340,"AssetID":"344","LifeCycleStatus":"ACT","SubType":1,"AssetOwner":1,"AssetManager":13,"Location":"North College Park","InstallDate":1496707200000,"Name":null,"Model":null,"Age_Range":null,"Capacity":null,"Primary_Material":"Metal","Secondary_Material":"Composite","Surfacing":"Engineered Wood Fiber","gisuid":1000008809,"barcode":"PRK-00008809","GlobalID":"{1C5F3885-11C0-46D6-90F0-A28B2B031A72}"}},{"type":"Feature","id":341,"geometry":{"type":"Point","coordinates":[-122.7747168790378,53.8548894432556]},"properties":{"OBJECTID":341,"AssetID":"345","LifeCycleStatus":"ACT","SubType":1,"AssetOwner":1,"AssetManager":13,"Location":"St Mary Park","InstallDate":1496707200000,"Name":null,"Model":null,"Age_Range":null,"Capacity":null,"Primary_Material":"Metal","Secondary_Material":"Composite","Surfacing":"Engineered Wood Fiber","gisuid":1000008810,"barcode":"PRK-00008810","GlobalID":"{12EB8183-F67E-4497-A459-645FE6367A20}"}},{"type":"Feature","id":343,"geometry":{"type":"Point","coordinates":[-122.80991850616755,53.919490316182404]},"properties":{"OBJECTID":343,"AssetID":"347","LifeCycleStatus":"ACT","SubType":1,"AssetOwner":1,"AssetManager":13,"Location":"Jackpine Park","InstallDate":1502841600000,"Name":null,"Model":null,"Age_Range":null,"Capacity":null,"Primary_Material":"Metal","Secondary_Material":"Composite","Surfacing":"Engineered Wood Fiber","gisuid":1000008812,"barcode":"PRK-00008812","GlobalID":"{E9A3899E-7BF0-4B76-8FB1-E0478B8A1DA1}"}},{"type":"Feature","id":344,"geometry":{"type":"Point","coordinates":[-122.80998163541365,53.91945052350388]},"properties":{"OBJECTID":344,"AssetID":"348","LifeCycleStatus":"ACT","SubType":10,"AssetOwner":1,"AssetManager":13,"Location":"Jackpine Park","InstallDate":1502841600000,"Name":null,"Model":null,"Age_Range":null,"Capacity":null,"Primary_Material":"Metal","Secondary_Material":"Composite","Surfacing":"Engineered Wood Fiber","gisuid":1000008813,"barcode":"PRK-00008813","GlobalID":"{4D722DDF-CF08-40DA-820E-BBBDA5EE02A4}"}},{"type":"Feature","id":345,"geometry":{"type":"Point","coordinates":[-122.81083772893778,53.91465491547833]},"properties":{"OBJECTID":345,"AssetID":"349","LifeCycleStatus":"ACT","SubType":1,"AssetOwner":1,"AssetManager":13,"Location":"Eaglenest Park","InstallDate":1500422400000,"Name":null,"Model":null,"Age_Range":null,"Capacity":null,"Primary_Material":"Metal","Secondary_Material":"Composite","Surfacing":"Engineered Wood Fiber","gisuid":1000008814,"barcode":"PRK-00008814","GlobalID":"{76E93096-0301-45D4-B772-B922F4CA1B09}"}},{"type":"Feature","id":346,"geometry":{"type":"Point","coordinates":[-122.79133301579323,53.928316944150225]},"properties":{"OBJECTID":346,"AssetID":"350","LifeCycleStatus":"ACT","SubType":1,"AssetOwner":1,"AssetManager":13,"Location":"Quinson Park","InstallDate":1531872000000,"Name":null,"Model":null,"Age_Range":null,"Capacity":null,"Primary_Material":"Metal","Secondary_Material":"Composite","Surfacing":"Engineered Wood Fiber","gisuid":1000008815,"barcode":"PRK-00008815","GlobalID":"{9DECB90E-BB92-42B7-AEE7-F5ACA7FBE618}"}},{"type":"Feature","id":347,"geometry":{"type":"Point","coordinates":[-122.79133426324866,53.928390191682716]},"properties":{"OBJECTID":347,"AssetID":"351","LifeCycleStatus":"ACT","SubType":13,"AssetOwner":1,"AssetManager":13,"Location":"Quinson Park","InstallDate":1531872000000,"Name":null,"Model":null,"Age_Range":null,"Capacity":null,"Primary_Material":"Metal","Secondary_Material":"Composite","Surfacing":"Engineered Wood Fiber","gisuid":1000008816,"barcode":"PRK-00008816","GlobalID":"{AF9C9FBE-C68D-412B-BA48-561CECC5D148}"}},{"type":"Feature","id":348,"geometry":{"type":"Point","coordinates":[-122.7863858009916,53.89697140802134]},"properties":{"OBJECTID":348,"AssetID":"352","LifeCycleStatus":"ACT","SubType":1,"AssetOwner":1,"AssetManager":13,"Location":"Byng Park","InstallDate":1503446400000,"Name":null,"Model":null,"Age_Range":null,"Capacity":null,"Primary_Material":"Metal","Secondary_Material":"Composite","Surfacing":"Engineered Wood Fiber","gisuid":1000008817,"barcode":"PRK-00008817","GlobalID":"{08E82ACA-E1FC-48BD-915A-0A3DBEAACEE8}"}},{"type":"Feature","id":349,"geometry":{"type":"Point","coordinates":[-122.7777649225215,53.87700910011104]},"properties":{"OBJECTID":349,"AssetID":"353","LifeCycleStatus":"ACT","SubType":1,"AssetOwner":1,"AssetManager":13,"Location":"Starlane Park","InstallDate":1534291200000,"Name":null,"Model":null,"Age_Range":null,"Capacity":null,"Primary_Material":"Metal","Secondary_Material":"Composite","Surfacing":"Engineered Wood Fiber","gisuid":1000008818,"barcode":"PRK-00008818","GlobalID":"{2ACB20AD-0CD0-4AA0-AF84-A1214BDCABA2}"}},{"type":"Feature","id":350,"geometry":{"type":"Point","coordinates":[-122.79840140173417,53.975998820116565]},"properties":{"OBJECTID":350,"AssetID":"354","LifeCycleStatus":"ACT","SubType":1,"AssetOwner":1,"AssetManager":13,"Location":"Ridgeview Park","InstallDate":1531958400000,"Name":null,"Model":null,"Age_Range":null,"Capacity":null,"Primary_Material":"Metal","Secondary_Material":"Composite","Surfacing":"Engineered Wood Fiber","gisuid":1000008819,"barcode":"PRK-00008819","GlobalID":"{6E0C27DD-5E1A-4A50-ACCA-CDEFD9431F07}"}},{"type":"Feature","id":351,"geometry":{"type":"Point","coordinates":[-122.7784082775437,53.88241170055729]},"properties":{"OBJECTID":351,"AssetID":"355","LifeCycleStatus":"ACT","SubType":1,"AssetOwner":1,"AssetManager":13,"Location":"Sanderson Park","InstallDate":1533513600000,"Name":null,"Model":null,"Age_Range":null,"Capacity":null,"Primary_Material":"Metal","Secondary_Material":"Composite","Surfacing":"Dirt","gisuid":1000008820,"barcode":"PRK-00008820","GlobalID":"{E504910E-635D-4875-9454-EAB279DE2059}"}},{"type":"Feature","id":352,"geometry":{"type":"Point","coordinates":[-122.809531754538,53.99445373581046]},"properties":{"OBJECTID":352,"AssetID":"356","LifeCycleStatus":"ACT","SubType":1,"AssetOwner":1,"AssetManager":13,"Location":"Heather Park School","InstallDate":1533686400000,"Name":null,"Model":null,"Age_Range":null,"Capacity":null,"Primary_Material":"Metal","Secondary_Material":"Metal","Surfacing":"Pea Gravel","gisuid":1000008821,"barcode":"PRK-00008821","GlobalID":"{4D760D18-9261-431B-B9AC-7F9792D5FA10}"}},{"type":"Feature","id":353,"geometry":{"type":"Point","coordinates":[-122.73727791763538,53.89886475761836]},"properties":{"OBJECTID":353,"AssetID":"357","LifeCycleStatus":"ACT","SubType":1,"AssetOwner":1,"AssetManager":13,"Location":"Paddlewheel Park","InstallDate":1503446400000,"Name":null,"Model":null,"Age_Range":null,"Capacity":null,"Primary_Material":"Metal","Secondary_Material":"Composite","Surfacing":"Pea Gravel","gisuid":1000008822,"barcode":"PRK-00008822","GlobalID":"{272BFA84-062D-4E7A-8F2D-52752A56C580}"}},{"type":"Feature","id":354,"geometry":{"type":"Point","coordinates":[-122.81074396428473,53.91469863487773]},"properties":{"OBJECTID":354,"AssetID":"358","LifeCycleStatus":"ACT","SubType":13,"AssetOwner":1,"AssetManager":13,"Location":"Eaglenest Park","InstallDate":1500422400000,"Name":null,"Model":null,"Age_Range":null,"Capacity":null,"Primary_Material":"Metal","Secondary_Material":"Composite","Surfacing":"Engineered Wood Fiber","gisuid":1000008823,"barcode":"PRK-00008823","GlobalID":"{511F9576-A718-4E0E-B70E-8710418D110E}"}},{"type":"Feature","id":355,"geometry":{"type":"Point","coordinates":[-122.81083397953685,53.91470198723814]},"properties":{"OBJECTID":355,"AssetID":"359","LifeCycleStatus":"ACT","SubType":11,"AssetOwner":1,"AssetManager":13,"Location":"Eaglenest Park","InstallDate":1500422400000,"Name":null,"Model":null,"Age_Range":null,"Capacity":null,"Primary_Material":"Metal","Secondary_Material":"Composite","Surfacing":"Engineered Wood Fiber","gisuid":1000008824,"barcode":"PRK-00008824","GlobalID":"{F0B6D215-CC1D-4C2B-8E0C-355586B092F6}"}},{"type":"Feature","id":356,"geometry":{"type":"Point","coordinates":[-122.7863892208474,53.8968612371775]},"properties":{"OBJECTID":356,"AssetID":"360","LifeCycleStatus":"ACT","SubType":14,"AssetOwner":1,"AssetManager":13,"Location":"Byng Park","InstallDate":1503446400000,"Name":null,"Model":null,"Age_Range":null,"Capacity":null,"Primary_Material":"Metal","Secondary_Material":"Composite","Surfacing":"Engineered Wood Fiber","gisuid":1000008825,"barcode":"PRK-00008825","GlobalID":"{E6B682DE-923A-452C-8B28-A3D98C016B5C}"}},{"type":"Feature","id":357,"geometry":{"type":"Point","coordinates":[-122.79847290608521,53.97605801618126]},"properties":{"OBJECTID":357,"AssetID":"361","LifeCycleStatus":"ACT","SubType":13,"AssetOwner":1,"AssetManager":13,"Location":"Ridgeview Park","InstallDate":1531958400000,"Name":null,"Model":null,"Age_Range":null,"Capacity":null,"Primary_Material":"Metal","Secondary_Material":"Composite","Surfacing":"Engineered Wood Fiber","gisuid":1000008826,"barcode":"PRK-00008826","GlobalID":"{E7777875-8368-4164-8DEC-3EF6B8F56CD6}"}},{"type":"Feature","id":358,"geometry":{"type":"Point","coordinates":[-122.77232342504075,53.871992348121054]},"properties":{"OBJECTID":358,"AssetID":"362","LifeCycleStatus":"ACT","SubType":14,"AssetOwner":1,"AssetManager":13,"Location":"North College Park","InstallDate":1496707200000,"Name":null,"Model":null,"Age_Range":null,"Capacity":null,"Primary_Material":"Metal","Secondary_Material":"Composite","Surfacing":"Engineered Wood Fiber","gisuid":1000008827,"barcode":"PRK-00008827","GlobalID":"{3039C463-327A-4175-93FD-AFF332608539}"}},{"type":"Feature","id":359,"geometry":{"type":"Point","coordinates":[-122.76451889736734,53.92184748307543]},"properties":{"OBJECTID":359,"AssetID":"363","LifeCycleStatus":"ACT","SubType":13,"AssetOwner":1,"AssetManager":13,"Location":"Watrous Park","InstallDate":1562716800000,"Name":null,"Model":null,"Age_Range":null,"Capacity":null,"Primary_Material":"Metal","Secondary_Material":"Composite","Surfacing":"Engineered Wood Fiber","gisuid":1000008828,"barcode":"PRK-00008828","GlobalID":"{468F468B-CC7C-4C75-BC01-6262F2929C21}"}},{"type":"Feature","id":360,"geometry":{"type":"Point","coordinates":[-122.76456998985215,53.921896333571475]},"properties":{"OBJECTID":360,"AssetID":"364","LifeCycleStatus":"ACT","SubType":1,"AssetOwner":1,"AssetManager":13,"Location":"Watrous Park","InstallDate":1562716800000,"Name":null,"Model":null,"Age_Range":null,"Capacity":null,"Primary_Material":"Metal","Secondary_Material":"Composite","Surfacing":"Engineered Wood Fiber","gisuid":1000008829,"barcode":"PRK-00008829","GlobalID":"{1D21577D-A837-4981-BE15-EA20CA7D3003}"}},{"type":"Feature","id":361,"geometry":{"type":"Point","coordinates":[-122.77740800888512,53.925447928654975]},"properties":{"OBJECTID":361,"AssetID":"365","LifeCycleStatus":"ACT","SubType":11,"AssetOwner":1,"AssetManager":13,"Location":"Hammond Park","InstallDate":1565654400000,"Name":null,"Model":null,"Age_Range":null,"Capacity":null,"Primary_Material":"Metal","Secondary_Material":"Composite","Surfacing":"Engineered Wood Fiber","gisuid":1000008830,"barcode":"PRK-00008830","GlobalID":"{E3642336-AB34-4B35-9421-37C1D0738DB6}"}},{"type":"Feature","id":362,"geometry":{"type":"Point","coordinates":[-122.77730734922095,53.9254346626485]},"properties":{"OBJECTID":362,"AssetID":"366","LifeCycleStatus":"ACT","SubType":1,"AssetOwner":1,"AssetManager":13,"Location":"Hammond Park","InstallDate":1565654400000,"Name":null,"Model":null,"Age_Range":null,"Capacity":null,"Primary_Material":"Metal","Secondary_Material":"Composite","Surfacing":"Engineered Wood Fiber","gisuid":1000008831,"barcode":"PRK-00008831","GlobalID":"{70217199-E5B6-43AA-99FB-5C8BC43D5438}"}},{"type":"Feature","id":363,"geometry":{"type":"Point","coordinates":[-122.77724121665351,53.92536914205581]},"properties":{"OBJECTID":363,"AssetID":"367","LifeCycleStatus":"ACT","SubType":1,"AssetOwner":1,"AssetManager":13,"Location":"Hammond Park","InstallDate":1565654400000,"Name":null,"Model":null,"Age_Range":null,"Capacity":null,"Primary_Material":"Metal","Secondary_Material":"Composite","Surfacing":"Engineered Wood Fiber","gisuid":1000008832,"barcode":"PRK-00008832","GlobalID":"{AACBFBB0-FC68-44D3-8C75-80AB08EBD2DD}"}},{"type":"Feature","id":364,"geometry":{"type":"Point","coordinates":[-122.77727528153027,53.92540368788726]},"properties":{"OBJECTID":364,"AssetID":"368","LifeCycleStatus":"ACT","SubType":2,"AssetOwner":1,"AssetManager":13,"Location":"Hammond Park","InstallDate":1565654400000,"Name":null,"Model":null,"Age_Range":null,"Capacity":null,"Primary_Material":"Metal","Secondary_Material":"Composite","Surfacing":"Engineered Wood Fiber","gisuid":1000008833,"barcode":"PRK-00008833","GlobalID":"{65A752C6-5B47-4006-873A-10DD13ECABF7}"}},{"type":"Feature","id":365,"geometry":{"type":"Point","coordinates":[-122.77720316827178,53.925326265890035]},"properties":{"OBJECTID":365,"AssetID":"369","LifeCycleStatus":"ACT","SubType":14,"AssetOwner":1,"AssetManager":13,"Location":"Hammond Park","InstallDate":1565654400000,"Name":null,"Model":null,"Age_Range":null,"Capacity":null,"Primary_Material":"Metal","Secondary_Material":"Composite","Surfacing":"Engineered Wood Fiber","gisuid":1000008834,"barcode":"PRK-00008834","GlobalID":"{F48CB018-4B0C-4A69-8F65-BC094CE1423A}"}},{"type":"Feature","id":366,"geometry":{"type":"Point","coordinates":[-122.76408193834249,53.89929128835225]},"properties":{"OBJECTID":366,"AssetID":"370","LifeCycleStatus":"ACT","SubType":13,"AssetOwner":1,"AssetManager":13,"Location":"Moosehart Park","InstallDate":1496707200000,"Name":null,"Model":null,"Age_Range":null,"Capacity":null,"Primary_Material":"Metal","Secondary_Material":"Composite","Surfacing":"Engineered Wood Fiber","gisuid":1000008835,"barcode":"PRK-00008835","GlobalID":"{9154BDC0-EF61-426B-82FD-1FF3A43E6D08}"}},{"type":"Feature","id":367,"geometry":{"type":"Point","coordinates":[-122.75466211882248,53.85467797123307]},"properties":{"OBJECTID":367,"AssetID":"371","LifeCycleStatus":"ACT","SubType":1,"AssetOwner":1,"AssetManager":13,"Location":"Jean de Brebeuf Park","InstallDate":1565827200000,"Name":null,"Model":null,"Age_Range":null,"Capacity":null,"Primary_Material":"Metal","Secondary_Material":"Composite","Surfacing":"Engineered Wood Fiber","gisuid":1000008836,"barcode":"PRK-00008836","GlobalID":"{F8400C27-7C7E-4F3F-B2C2-AF554C83BF57}"}},{"type":"Feature","id":368,"geometry":{"type":"Point","coordinates":[-122.75476771585487,53.8546764029112]},"properties":{"OBJECTID":368,"AssetID":"372","LifeCycleStatus":"ACT","SubType":10,"AssetOwner":1,"AssetManager":13,"Location":"Jean de Brebeuf Park","InstallDate":1566259200000,"Name":null,"Model":null,"Age_Range":null,"Capacity":null,"Primary_Material":"Metal","Secondary_Material":"Composite","Surfacing":"Engineered Wood Fiber","gisuid":1000008837,"barcode":"PRK-00008837","GlobalID":"{1DB826B5-2FA1-4402-A7F3-72A435C047A7}"}},{"type":"Feature","id":369,"geometry":{"type":"Point","coordinates":[-122.75470948147954,53.85466082605833]},"properties":{"OBJECTID":369,"AssetID":"373","LifeCycleStatus":"ACT","SubType":2,"AssetOwner":1,"AssetManager":13,"Location":"Jean de Brebeuf Park","InstallDate":1566259200000,"Name":null,"Model":null,"Age_Range":null,"Capacity":null,"Primary_Material":"Metal","Secondary_Material":"Composite","Surfacing":"Engineered Wood Fiber","gisuid":1000008838,"barcode":"PRK-00008838","GlobalID":"{3373F599-8D19-45E0-9B12-B986234C7F7F}"}},{"type":"Feature","id":370,"geometry":{"type":"Point","coordinates":[-122.75474795888448,53.85461572031085]},"properties":{"OBJECTID":370,"AssetID":"374","LifeCycleStatus":"ACT","SubType":13,"AssetOwner":1,"AssetManager":13,"Location":"Jean de Brebeuf Park","InstallDate":1566259200000,"Name":null,"Model":null,"Age_Range":null,"Capacity":null,"Primary_Material":"Metal","Secondary_Material":"Composite","Surfacing":"Engineered Wood Fiber","gisuid":1000008839,"barcode":"PRK-00008839","GlobalID":"{3A9C69AF-A960-4667-8D9B-9FA667A634BC}"}},{"type":"Feature","id":371,"geometry":{"type":"Point","coordinates":[-122.79008563145663,53.88042285618616]},"properties":{"OBJECTID":371,"AssetID":"275","LifeCycleStatus":"ACT","SubType":2,"AssetOwner":1,"AssetManager":13,"Location":"Charella Park","InstallDate":1199145600000,"Name":null,"Model":null,"Age_Range":null,"Capacity":null,"Primary_Material":"Metal","Secondary_Material":"Composite","Surfacing":"Pea Gravel","gisuid":1000008840,"barcode":"PRK-00008840","GlobalID":"{F3D4E1DB-28DC-40E9-9200-4DC7405674B2}"}},{"type":"Feature","id":372,"geometry":{"type":"Point","coordinates":[-122.8091068110683,53.99382881948164]},"properties":{"OBJECTID":372,"AssetID":"375","LifeCycleStatus":"ACT","SubType":1,"AssetOwner":1,"AssetManager":13,"Location":"Heather Park School","InstallDate":1533686400000,"Name":null,"Model":null,"Age_Range":null,"Capacity":null,"Primary_Material":"Metal","Secondary_Material":"Composite","Surfacing":"Poured in Place Rubber","gisuid":1000008841,"barcode":"PRK-00008841","GlobalID":"{8C149401-75E1-4221-A0AE-C8C61E49ADCB}"}},{"type":"Feature","id":373,"geometry":{"type":"Point","coordinates":[-122.77209146973382,53.8720092316525]},"properties":{"OBJECTID":373,"AssetID":"376","LifeCycleStatus":"ACT","SubType":2,"AssetOwner":1,"AssetManager":13,"Location":"North College Park","InstallDate":1496707200000,"Name":null,"Model":null,"Age_Range":null,"Capacity":null,"Primary_Material":"Metal","Secondary_Material":"Composite","Surfacing":"Engineered Wood Fiber","gisuid":1000008842,"barcode":"PRK-00008842","GlobalID":"{DEA32F0D-B199-4B00-AC4C-54C9932E5C47}"}},{"type":"Feature","id":374,"geometry":{"type":"Point","coordinates":[-122.77475624013623,53.854870302255726]},"properties":{"OBJECTID":374,"AssetID":"377","LifeCycleStatus":"ACT","SubType":2,"AssetOwner":1,"AssetManager":13,"Location":"St Mary Park","InstallDate":1496707200000,"Name":null,"Model":null,"Age_Range":null,"Capacity":null,"Primary_Material":"Metal","Secondary_Material":"Composite","Surfacing":"Engineered Wood Fiber","gisuid":1000008843,"barcode":"PRK-00008843","GlobalID":"{2CF29A2D-3C55-4E9E-B635-24ABA053E41B}"}},{"type":"Feature","id":375,"geometry":{"type":"Point","coordinates":[-122.77484744577662,53.85490471828201]},"properties":{"OBJECTID":375,"AssetID":"378","LifeCycleStatus":"ACT","SubType":13,"AssetOwner":1,"AssetManager":13,"Location":"St Mary Park","InstallDate":1496707200000,"Name":null,"Model":null,"Age_Range":null,"Capacity":null,"Primary_Material":"Metal","Secondary_Material":"Composite","Surfacing":"Engineered Wood Fiber","gisuid":1000008844,"barcode":"PRK-00008844","GlobalID":"{11D86490-1D63-46CE-AF5A-DC44915EFD6D}"}},{"type":"Feature","id":376,"geometry":{"type":"Point","coordinates":[-122.77853684819628,53.88241670600906]},"properties":{"OBJECTID":376,"AssetID":"379","LifeCycleStatus":"ACT","SubType":13,"AssetOwner":1,"AssetManager":13,"Location":"Sanderson Park","InstallDate":1533513600000,"Name":null,"Model":null,"Age_Range":null,"Capacity":null,"Primary_Material":"Metal","Secondary_Material":"Composite","Surfacing":"Dirt","gisuid":1000008845,"barcode":"PRK-00008845","GlobalID":"{AFEDFAA9-C67E-43D7-B62A-ADC9B4F489ED}"}},{"type":"Feature","id":377,"geometry":{"type":"Point","coordinates":[-122.77838577237542,53.88244234893227]},"properties":{"OBJECTID":377,"AssetID":"380","LifeCycleStatus":"ACT","SubType":2,"AssetOwner":1,"AssetManager":13,"Location":"Sanderson Park","InstallDate":1533513600000,"Name":null,"Model":null,"Age_Range":null,"Capacity":null,"Primary_Material":"Metal","Secondary_Material":"Composite","Surfacing":"Dirt","gisuid":1000008846,"barcode":"PRK-00008846","GlobalID":"{58E6FE3D-80AD-4BBA-A626-4B33DC6B8DA5}"}},{"type":"Feature","id":378,"geometry":{"type":"Point","coordinates":[-122.78644319648467,53.89693283526172]},"properties":{"OBJECTID":378,"AssetID":"381","LifeCycleStatus":"ACT","SubType":10,"AssetOwner":1,"AssetManager":13,"Location":"Byng Park","InstallDate":1534377600000,"Name":null,"Model":null,"Age_Range":null,"Capacity":null,"Primary_Material":null,"Secondary_Material":null,"Surfacing":"Engineered Wood Fiber","gisuid":1000008847,"barcode":"PRK-00008847","GlobalID":"{24B5EB4C-A60A-4792-925A-04C162EB701D}"}},{"type":"Feature","id":379,"geometry":{"type":"Point","coordinates":[-122.7863309594338,53.89693293308433]},"properties":{"OBJECTID":379,"AssetID":"382","LifeCycleStatus":"ACT","SubType":12,"AssetOwner":1,"AssetManager":13,"Location":"Byng Park","InstallDate":1534377600000,"Name":null,"Model":null,"Age_Range":null,"Capacity":null,"Primary_Material":null,"Secondary_Material":null,"Surfacing":"Engineered Wood Fiber","gisuid":1000008848,"barcode":"PRK-00008848","GlobalID":"{237C49B7-0B65-4E37-B1CA-3D3D34C9F94F}"}},{"type":"Feature","id":380,"geometry":{"type":"Point","coordinates":[-122.79346913114821,53.898506354814444]},"properties":{"OBJECTID":380,"AssetID":"383","LifeCycleStatus":"ACT","SubType":12,"AssetOwner":1,"AssetManager":13,"Location":"Foot Park","InstallDate":1199145600000,"Name":null,"Model":null,"Age_Range":null,"Capacity":null,"Primary_Material":"Metal","Secondary_Material":"Composite","Surfacing":"Pea Gravel","gisuid":1000008849,"barcode":"PRK-00008849","GlobalID":"{AB5B9C1F-00C5-44BF-BE19-C06925E6420B}"}},{"type":"Feature","id":381,"geometry":{"type":"Point","coordinates":[-122.79339916456736,53.898486971173554]},"properties":{"OBJECTID":381,"AssetID":"384","LifeCycleStatus":"ACT","SubType":12,"AssetOwner":1,"AssetManager":13,"Location":"Foot Park","InstallDate":1199145600000,"Name":null,"Model":null,"Age_Range":null,"Capacity":null,"Primary_Material":"Metal","Secondary_Material":"Composite","Surfacing":"Pea Gravel","gisuid":1000008850,"barcode":"PRK-00008850","GlobalID":"{A7C024B3-772E-4747-A228-ECEE6ACBDF6F}"}},{"type":"Feature","id":382,"geometry":{"type":"Point","coordinates":[-122.79135223927605,53.92826579153554]},"properties":{"OBJECTID":382,"AssetID":"385","LifeCycleStatus":"ACT","SubType":10,"AssetOwner":1,"AssetManager":13,"Location":"Quinson Park","InstallDate":1531872000000,"Name":null,"Model":null,"Age_Range":null,"Capacity":null,"Primary_Material":"Metal","Secondary_Material":"Composite","Surfacing":"Engineered Wood Fiber","gisuid":1000008851,"barcode":"PRK-00008851","GlobalID":"{8736E4BC-728F-40E0-9C6A-DE0FABE631CC}"}},{"type":"Feature","id":383,"geometry":{"type":"Point","coordinates":[-122.79130339472987,53.928267418897676]},"properties":{"OBJECTID":383,"AssetID":"386","LifeCycleStatus":"ACT","SubType":12,"AssetOwner":1,"AssetManager":13,"Location":"Quinson Park","InstallDate":1531872000000,"Name":null,"Model":null,"Age_Range":null,"Capacity":null,"Primary_Material":"Metal","Secondary_Material":"Composite","Surfacing":"Engineered Wood Fiber","gisuid":1000008852,"barcode":"PRK-00008852","GlobalID":"{A5D3D46D-FA12-41EB-BE8B-8785E9759C54}"}},{"type":"Feature","id":384,"geometry":{"type":"Point","coordinates":[-122.77782469217235,53.87705213263452]},"properties":{"OBJECTID":384,"AssetID":"387","LifeCycleStatus":"ACT","SubType":1,"AssetOwner":1,"AssetManager":13,"Location":"Starlane Park","InstallDate":1534204800000,"Name":null,"Model":null,"Age_Range":null,"Capacity":null,"Primary_Material":"Composite","Secondary_Material":"Metal","Surfacing":"Engineered Wood Fiber","gisuid":1000008853,"barcode":"PRK-00008853","GlobalID":"{E0F09BED-60BB-415B-AB32-5DDD01B85765}"}},{"type":"Feature","id":385,"geometry":{"type":"Point","coordinates":[-122.77774702223643,53.87708944416114]},"properties":{"OBJECTID":385,"AssetID":"388","LifeCycleStatus":"ACT","SubType":13,"AssetOwner":1,"AssetManager":13,"Location":"Starlane Park","InstallDate":1534204800000,"Name":null,"Model":null,"Age_Range":null,"Capacity":null,"Primary_Material":"Composite","Secondary_Material":"Metal","Surfacing":"Engineered Wood Fiber","gisuid":1000008854,"barcode":"PRK-00008854","GlobalID":"{A3D529C4-69F3-4261-B7C1-5AC0A697B449}"}},{"type":"Feature","id":386,"geometry":{"type":"Point","coordinates":[-122.77768853166384,53.877019775867026]},"properties":{"OBJECTID":386,"AssetID":"389","LifeCycleStatus":"ACT","SubType":13,"AssetOwner":1,"AssetManager":13,"Location":"Starlane Park","InstallDate":1534204800000,"Name":null,"Model":null,"Age_Range":null,"Capacity":null,"Primary_Material":"Composite","Secondary_Material":"Metal","Surfacing":"Engineered Wood Fiber","gisuid":1000008855,"barcode":"PRK-00008855","GlobalID":"{3A2448AA-53D5-4620-A71D-9B58C10B3CE0}"}},{"type":"Feature","id":387,"geometry":{"type":"Point","coordinates":[-122.7778214655492,53.8769965387152]},"properties":{"OBJECTID":387,"AssetID":"390","LifeCycleStatus":"ACT","SubType":10,"AssetOwner":1,"AssetManager":13,"Location":"Starlane Park","InstallDate":1534204800000,"Name":null,"Model":null,"Age_Range":null,"Capacity":null,"Primary_Material":"Composite","Secondary_Material":"Metal","Surfacing":"Engineered Wood Fiber","gisuid":1000008856,"barcode":"PRK-00008856","GlobalID":"{E559DE53-951D-4EA7-816A-F70BA966E079}"}},{"type":"Feature","id":388,"geometry":{"type":"Point","coordinates":[-122.75998786394207,53.901748696794385]},"properties":{"OBJECTID":388,"AssetID":"402","LifeCycleStatus":"ACT","SubType":15,"AssetOwner":1,"AssetManager":13,"Location":"Strathcona Park","InstallDate":null,"Name":null,"Model":null,"Age_Range":null,"Capacity":null,"Primary_Material":"Metal","Secondary_Material":"Composite","Surfacing":"Pea Gravel","gisuid":1000008857,"barcode":"PRK-00008857","GlobalID":"{97426D1C-8D54-4473-BDD8-10A2A12914FC}"}},{"type":"Feature","id":389,"geometry":{"type":"Point","coordinates":[-122.81591073285537,53.84994239747328]},"properties":{"OBJECTID":389,"AssetID":"391","LifeCycleStatus":"ACT","SubType":4,"AssetOwner":1,"AssetManager":13,"Location":"Parkridge Hts. Park","InstallDate":1338508800000,"Name":null,"Model":null,"Age_Range":null,"Capacity":null,"Primary_Material":"Metal","Secondary_Material":"Metal","Surfacing":"Pea Gravel","gisuid":1000008858,"barcode":"PRK-00008858","GlobalID":"{84D1C21F-6D63-4B4E-B0AC-BDB963A441DF}"}},{"type":"Feature","id":390,"geometry":{"type":"Point","coordinates":[-122.80354627983168,53.85836874392243]},"properties":{"OBJECTID":390,"AssetID":"400","LifeCycleStatus":"ACT","SubType":12,"AssetOwner":1,"AssetManager":13,"Location":"Westgate Park","InstallDate":1104537600000,"Name":null,"Model":null,"Age_Range":null,"Capacity":null,"Primary_Material":"Metal","Secondary_Material":"Metal","Surfacing":"Pea Gravel","gisuid":1000008859,"barcode":"PRK-00008859","GlobalID":"{3C677DB5-41A4-487A-A0DE-687FF7095EF5}"}},{"type":"Feature","id":391,"geometry":{"type":"Point","coordinates":[-122.76102628804068,53.916388165424856]},"properties":{"OBJECTID":391,"AssetID":"392","LifeCycleStatus":"ACT","SubType":12,"AssetOwner":1,"AssetManager":13,"Location":"Duchess Park","InstallDate":1347148800000,"Name":null,"Model":null,"Age_Range":null,"Capacity":null,"Primary_Material":"Metal","Secondary_Material":"Metal","Surfacing":"Poured in Place Rubber","gisuid":1000008860,"barcode":"PRK-00008860","GlobalID":"{DCA3FF15-295B-4D9C-8A55-7E18E11D0624}"}},{"type":"Feature","id":392,"geometry":{"type":"Point","coordinates":[-122.74840471400289,53.85693556022566]},"properties":{"OBJECTID":392,"AssetID":"393","LifeCycleStatus":"ACT","SubType":1,"AssetOwner":1,"AssetManager":13,"Location":"Fraser River Benchland","InstallDate":1630022400000,"Name":null,"Model":null,"Age_Range":"5 - 12","Capacity":null,"Primary_Material":"Metal","Secondary_Material":"Composite","Surfacing":"Engineered Wood Fiber","gisuid":1000008861,"barcode":"PRK-00008861","GlobalID":"{27E45552-E3CA-46C2-9383-3F883C3BA18F}"}},{"type":"Feature","id":393,"geometry":{"type":"Point","coordinates":[-122.74835072003118,53.856843556572336]},"properties":{"OBJECTID":393,"AssetID":"394","LifeCycleStatus":"ACT","SubType":14,"AssetOwner":1,"AssetManager":13,"Location":"Fraser River Benchland","InstallDate":1630022400000,"Name":null,"Model":null,"Age_Range":"5 - 12","Capacity":null,"Primary_Material":"Metal","Secondary_Material":"Composite","Surfacing":"Engineered Wood Fiber","gisuid":1000008862,"barcode":"PRK-00008862","GlobalID":"{E22D16D8-C5D4-45B1-8227-EB130CE2B6B6}"}},{"type":"Feature","id":394,"geometry":{"type":"Point","coordinates":[-122.77358332595102,53.85676381314923]},"properties":{"OBJECTID":394,"AssetID":"395","LifeCycleStatus":"ACT","SubType":1,"AssetOwner":1,"AssetManager":13,"Location":"St John Park","InstallDate":1630022400000,"Name":null,"Model":null,"Age_Range":"5 - 12","Capacity":null,"Primary_Material":"Metal","Secondary_Material":"Composite","Surfacing":"Engineered Wood Fiber","gisuid":1000008863,"barcode":"PRK-00008863","GlobalID":"{D0A036EE-10EA-4A0E-B3E7-85D80DEF8532}"}},{"type":"Feature","id":395,"geometry":{"type":"Point","coordinates":[-122.77358505462239,53.85669677376527]},"properties":{"OBJECTID":395,"AssetID":"396","LifeCycleStatus":"ACT","SubType":14,"AssetOwner":1,"AssetManager":13,"Location":"St John Park","InstallDate":1630022400000,"Name":null,"Model":null,"Age_Range":"5 - 12","Capacity":null,"Primary_Material":"Metal","Secondary_Material":"Composite","Surfacing":"Engineered Wood Fiber","gisuid":1000008864,"barcode":"PRK-00008864","GlobalID":"{BD71D097-4168-4561-B115-DE8765AF0F85}"}},{"type":"Feature","id":396,"geometry":{"type":"Point","coordinates":[-122.77196210804972,53.90878225246755]},"properties":{"OBJECTID":396,"AssetID":"397","LifeCycleStatus":"ACT","SubType":1,"AssetOwner":1,"AssetManager":13,"Location":"Seymour Park","InstallDate":1630022400000,"Name":null,"Model":null,"Age_Range":"5 - 12","Capacity":null,"Primary_Material":"Metal","Secondary_Material":"Composite","Surfacing":"Engineered Wood Fiber","gisuid":1000008865,"barcode":"PRK-00008865","GlobalID":"{E13B7A62-A3CF-453C-85C6-71A17251F0D3}"}},{"type":"Feature","id":397,"geometry":{"type":"Point","coordinates":[-122.77199861690302,53.90875301167469]},"properties":{"OBJECTID":397,"AssetID":"398","LifeCycleStatus":"ACT","SubType":10,"AssetOwner":null,"AssetManager":null,"Location":null,"InstallDate":null,"Name":null,"Model":null,"Age_Range":null,"Capacity":null,"Primary_Material":null,"Secondary_Material":null,"Surfacing":null,"gisuid":1000008866,"barcode":"PRK-00008866","GlobalID":"{11D4DE50-E1F2-4EDD-8793-9A10DD266C79}"}},{"type":"Feature","id":398,"geometry":{"type":"Point","coordinates":[-122.77208981256382,53.908795277753995]},"properties":{"OBJECTID":398,"AssetID":"399","LifeCycleStatus":"ACT","SubType":14,"AssetOwner":1,"AssetManager":13,"Location":"Seymour Park","InstallDate":1630022400000,"Name":null,"Model":null,"Age_Range":"5 - 12","Capacity":null,"Primary_Material":"Metal","Secondary_Material":"Composite","Surfacing":"Engineered Wood Fiber","gisuid":1000008867,"barcode":"PRK-00008867","GlobalID":"{010212E4-B033-4FBF-935E-B26405CBDF54}"}}]}
