{"type":"FeatureCollection","features":[{"type":"Feature","id":1,"geometry":{"type":"Point","coordinates":[-122.79503719245896,53.986017690391925]},"properties":{"OBJECTID":1,"AssetID":"11","LifeCycleStatus":"ACT","SubType":3,"AssetOwner":1,"AssetManager":13,"Location":"Balsum Park","PrimaryMaterial":null,"SecondaryMaterial":null,"Size_HxWxD_m":null,"gisuid":1000006852,"barcode":"PRK-00006852","GlobalID":"{D9CF56D1-354D-421B-B17A-34F1D387FF72}"}},{"type":"Feature","id":2,"geometry":{"type":"Point","coordinates":[-122.79528916457491,53.985856411212836]},"properties":{"OBJECTID":2,"AssetID":"12","LifeCycleStatus":"ACT","SubType":3,"AssetOwner":1,"AssetManager":13,"Location":"Balsum Park","PrimaryMaterial":null,"SecondaryMaterial":null,"Size_HxWxD_m":null,"gisuid":1000006853,"barcode":"PRK-00006853","GlobalID":"{F1A66464-85E5-45D4-95E9-8382D728816D}"}},{"type":"Feature","id":3,"geometry":{"type":"Point","coordinates":[-122.79543842464615,53.98586379908894]},"properties":{"OBJECTID":3,"AssetID":"13","LifeCycleStatus":"ACT","SubType":5,"AssetOwner":1,"AssetManager":13,"Location":"Balsum Park","PrimaryMaterial":null,"SecondaryMaterial":null,"Size_HxWxD_m":null,"gisuid":1000006854,"barcode":"PRK-00006854","GlobalID":"{2054F36C-4BE3-4403-A956-AA782333E93E}"}},{"type":"Feature","id":4,"geometry":{"type":"Point","coordinates":[-122.79507807732361,53.98611407235036]},"properties":{"OBJECTID":4,"AssetID":"14","LifeCycleStatus":"ACT","SubType":5,"AssetOwner":1,"AssetManager":13,"Location":"Balsum Park","PrimaryMaterial":null,"SecondaryMaterial":null,"Size_HxWxD_m":null,"gisuid":1000006855,"barcode":"PRK-00006855","GlobalID":"{3B66F886-7181-4B0A-8EAB-1B9E34FC423F}"}},{"type":"Feature","id":5,"geometry":{"type":"Point","coordinates":[-122.64339799160726,53.896606593766585]},"properties":{"OBJECTID":5,"AssetID":"15","LifeCycleStatus":"ACT","SubType":5,"AssetOwner":1,"AssetManager":13,"Location":"Blackburn Park","PrimaryMaterial":null,"SecondaryMaterial":null,"Size_HxWxD_m":null,"gisuid":1000006856,"barcode":"PRK-00006856","GlobalID":"{714F108E-D2C6-4558-9C9E-086C97C5E781}"}},{"type":"Feature","id":6,"geometry":{"type":"Point","coordinates":[-122.64374568540008,53.89681042232723]},"properties":{"OBJECTID":6,"AssetID":"16","LifeCycleStatus":"ACT","SubType":5,"AssetOwner":1,"AssetManager":13,"Location":"Blackburn Park","PrimaryMaterial":null,"SecondaryMaterial":null,"Size_HxWxD_m":null,"gisuid":1000006857,"barcode":"PRK-00006857","GlobalID":"{0ACA8901-AC27-4379-8901-E15B0347B823}"}},{"type":"Feature","id":7,"geometry":{"type":"Point","coordinates":[-122.64303666124624,53.89588531671645]},"properties":{"OBJECTID":7,"AssetID":"17","LifeCycleStatus":"ACT","SubType":5,"AssetOwner":1,"AssetManager":13,"Location":"Blackburn Park","PrimaryMaterial":null,"SecondaryMaterial":null,"Size_HxWxD_m":null,"gisuid":1000006858,"barcode":"PRK-00006858","GlobalID":"{85D0E250-B17C-45FF-8F96-A95C715DA4D7}"}},{"type":"Feature","id":8,"geometry":{"type":"Point","coordinates":[-122.6433563423964,53.89607604025514]},"properties":{"OBJECTID":8,"AssetID":"18","LifeCycleStatus":"ACT","SubType":5,"AssetOwner":1,"AssetManager":13,"Location":"Blackburn Park","PrimaryMaterial":null,"SecondaryMaterial":null,"Size_HxWxD_m":null,"gisuid":1000006859,"barcode":"PRK-00006859","GlobalID":"{B0BF02F1-7B7B-4625-80BF-5DDA98E88EAC}"}},{"type":"Feature","id":9,"geometry":{"type":"Point","coordinates":[-122.64318317775171,53.89607952097958]},"properties":{"OBJECTID":9,"AssetID":"19","LifeCycleStatus":"ACT","SubType":3,"AssetOwner":1,"AssetManager":13,"Location":"Blackburn Park","PrimaryMaterial":null,"SecondaryMaterial":null,"Size_HxWxD_m":null,"gisuid":1000006860,"barcode":"PRK-00006860","GlobalID":"{091A5163-0BD8-4DD3-9E2D-AE9B780F3C7A}"}},{"type":"Feature","id":10,"geometry":{"type":"Point","coordinates":[-122.64302935723208,53.89598631705872]},"properties":{"OBJECTID":10,"AssetID":"20","LifeCycleStatus":"ACT","SubType":3,"AssetOwner":1,"AssetManager":13,"Location":"Blackburn Park","PrimaryMaterial":null,"SecondaryMaterial":null,"Size_HxWxD_m":null,"gisuid":1000006861,"barcode":"PRK-00006861","GlobalID":"{1F600780-DC2A-4DA2-A426-D368FC3589F2}"}},{"type":"Feature","id":11,"geometry":{"type":"Point","coordinates":[-122.78999213483868,53.880827200107426]},"properties":{"OBJECTID":11,"AssetID":"21","LifeCycleStatus":"ACT","SubType":2,"AssetOwner":1,"AssetManager":13,"Location":"Charella Park","PrimaryMaterial":null,"SecondaryMaterial":null,"Size_HxWxD_m":null,"gisuid":1000006862,"barcode":"PRK-00006862","GlobalID":"{4F8910D5-270D-4A2A-8453-B1953E167FE1}"}},{"type":"Feature","id":12,"geometry":{"type":"Point","coordinates":[-122.7899942039495,53.88051235093598]},"properties":{"OBJECTID":12,"AssetID":"22","LifeCycleStatus":"ACT","SubType":2,"AssetOwner":1,"AssetManager":13,"Location":"Charella Park","PrimaryMaterial":null,"SecondaryMaterial":null,"Size_HxWxD_m":null,"gisuid":1000006863,"barcode":"PRK-00006863","GlobalID":"{6F8EC604-2B0D-409C-826E-8663FB1AB676}"}},{"type":"Feature","id":15,"geometry":{"type":"Point","coordinates":[-122.75965924803522,53.95652516941645]},"properties":{"OBJECTID":15,"AssetID":"25","LifeCycleStatus":"ACT","SubType":2,"AssetOwner":1,"AssetManager":13,"Location":"Clearwood Park","PrimaryMaterial":null,"SecondaryMaterial":null,"Size_HxWxD_m":null,"gisuid":1000006866,"barcode":"PRK-00006866","GlobalID":"{28AB9FFF-4DCF-4D32-A88B-0F07D4113948}"}},{"type":"Feature","id":16,"geometry":{"type":"Point","coordinates":[-122.76019556314675,53.916030901081015]},"properties":{"OBJECTID":16,"AssetID":"26","LifeCycleStatus":"ACT","SubType":2,"AssetOwner":1,"AssetManager":13,"Location":"Duchess Park","PrimaryMaterial":null,"SecondaryMaterial":null,"Size_HxWxD_m":null,"gisuid":1000006867,"barcode":"PRK-00006867","GlobalID":"{6B2190C8-4230-45B2-85EB-CC1DEBBF514C}"}},{"type":"Feature","id":17,"geometry":{"type":"Point","coordinates":[-122.76019555400474,53.91571070292861]},"properties":{"OBJECTID":17,"AssetID":"27","LifeCycleStatus":"ACT","SubType":2,"AssetOwner":1,"AssetManager":13,"Location":"Duchess Park","PrimaryMaterial":null,"SecondaryMaterial":null,"Size_HxWxD_m":null,"gisuid":1000006868,"barcode":"PRK-00006868","GlobalID":"{B60234AB-F7DE-43E2-AB92-748276311155}"}},{"type":"Feature","id":18,"geometry":{"type":"Point","coordinates":[-122.77555376839766,53.91290736599998]},"properties":{"OBJECTID":18,"AssetID":"28","LifeCycleStatus":"ACT","SubType":5,"AssetOwner":1,"AssetManager":13,"Location":"Freeman Park","PrimaryMaterial":null,"SecondaryMaterial":null,"Size_HxWxD_m":null,"gisuid":1000006869,"barcode":"PRK-00006869","GlobalID":"{5C778E70-AD39-4198-ABCD-E9F21CDE8FF4}"}},{"type":"Feature","id":19,"geometry":{"type":"Point","coordinates":[-122.77590304763059,53.913123474008984]},"properties":{"OBJECTID":19,"AssetID":"29","LifeCycleStatus":"ACT","SubType":5,"AssetOwner":1,"AssetManager":13,"Location":"Freeman Park","PrimaryMaterial":null,"SecondaryMaterial":null,"Size_HxWxD_m":null,"gisuid":1000006870,"barcode":"PRK-00006870","GlobalID":"{2FBB8953-3486-42C7-B815-3763E698CA89}"}},{"type":"Feature","id":20,"geometry":{"type":"Point","coordinates":[-122.77507384941525,53.912941426266286]},"properties":{"OBJECTID":20,"AssetID":"30","LifeCycleStatus":"ACT","SubType":5,"AssetOwner":1,"AssetManager":13,"Location":"Freeman Park","PrimaryMaterial":null,"SecondaryMaterial":null,"Size_HxWxD_m":null,"gisuid":1000006871,"barcode":"PRK-00006871","GlobalID":"{FCB8EFCC-E2FE-4246-BCAB-77702B799DBA}"}},{"type":"Feature","id":21,"geometry":{"type":"Point","coordinates":[-122.77468714398519,53.91316899831196]},"properties":{"OBJECTID":21,"AssetID":"31","LifeCycleStatus":"ACT","SubType":5,"AssetOwner":1,"AssetManager":13,"Location":"Freeman Park","PrimaryMaterial":null,"SecondaryMaterial":null,"Size_HxWxD_m":null,"gisuid":1000006872,"barcode":"PRK-00006872","GlobalID":"{C0BD0B7F-48B6-4396-9FAE-05838A8DC69B}"}},{"type":"Feature","id":22,"geometry":{"type":"Point","coordinates":[-122.77560206212713,53.9122538437855]},"properties":{"OBJECTID":22,"AssetID":"32","LifeCycleStatus":"ACT","SubType":5,"AssetOwner":1,"AssetManager":13,"Location":"Freeman Park","PrimaryMaterial":null,"SecondaryMaterial":null,"Size_HxWxD_m":null,"gisuid":1000006873,"barcode":"PRK-00006873","GlobalID":"{29985ED5-8A96-4FBA-803F-D763EF1CD849}"}},{"type":"Feature","id":23,"geometry":{"type":"Point","coordinates":[-122.77519705204702,53.91206664314143]},"properties":{"OBJECTID":23,"AssetID":"33","LifeCycleStatus":"ACT","SubType":5,"AssetOwner":1,"AssetManager":13,"Location":"Freeman Park","PrimaryMaterial":null,"SecondaryMaterial":null,"Size_HxWxD_m":null,"gisuid":1000006874,"barcode":"PRK-00006874","GlobalID":"{B1CABEEE-C7CD-4A5D-81AE-82D8E3EAB939}"}},{"type":"Feature","id":24,"geometry":{"type":"Point","coordinates":[-122.77545502469776,53.912279870729485]},"properties":{"OBJECTID":24,"AssetID":"34","LifeCycleStatus":"ACT","SubType":3,"AssetOwner":1,"AssetManager":13,"Location":"Freeman Park","PrimaryMaterial":null,"SecondaryMaterial":null,"Size_HxWxD_m":null,"gisuid":1000006875,"barcode":"PRK-00006875","GlobalID":"{DD155A41-3BAD-4BD4-B23A-E79E60043D9E}"}},{"type":"Feature","id":25,"geometry":{"type":"Point","coordinates":[-122.7751961540661,53.912181409239956]},"properties":{"OBJECTID":25,"AssetID":"35","LifeCycleStatus":"ACT","SubType":3,"AssetOwner":1,"AssetManager":13,"Location":"Freeman Park","PrimaryMaterial":null,"SecondaryMaterial":null,"Size_HxWxD_m":null,"gisuid":1000006876,"barcode":"PRK-00006876","GlobalID":"{C5027EDE-4C1D-4467-975F-C1E34FDB8A73}"}},{"type":"Feature","id":26,"geometry":{"type":"Point","coordinates":[-122.77552879287877,53.913037231078874]},"properties":{"OBJECTID":26,"AssetID":"36","LifeCycleStatus":"ACT","SubType":3,"AssetOwner":1,"AssetManager":13,"Location":"Freeman Park","PrimaryMaterial":null,"SecondaryMaterial":null,"Size_HxWxD_m":null,"gisuid":1000006877,"barcode":"PRK-00006877","GlobalID":"{C9F5DE40-00CB-44C8-847D-A39874C3AB9D}"}},{"type":"Feature","id":27,"geometry":{"type":"Point","coordinates":[-122.77508753487187,53.91306625034712]},"properties":{"OBJECTID":27,"AssetID":"37","LifeCycleStatus":"ACT","SubType":3,"AssetOwner":1,"AssetManager":13,"Location":"Freeman Park","PrimaryMaterial":null,"SecondaryMaterial":null,"Size_HxWxD_m":null,"gisuid":1000006878,"barcode":"PRK-00006878","GlobalID":"{9BD0B0D5-A6AF-49D5-8A47-6A8575D55D6B}"}},{"type":"Feature","id":28,"geometry":{"type":"Point","coordinates":[-122.77235039349021,53.90157662101322]},"properties":{"OBJECTID":28,"AssetID":"38","LifeCycleStatus":"ACT","SubType":5,"AssetOwner":1,"AssetManager":13,"Location":"Carrie Jane Gray Park: Citizen Field","PrimaryMaterial":null,"SecondaryMaterial":null,"Size_HxWxD_m":null,"gisuid":1000006879,"barcode":"PRK-00006879","GlobalID":"{FDDF2555-84D6-494C-A2D5-6DABC3F444B8}"}},{"type":"Feature","id":29,"geometry":{"type":"Point","coordinates":[-122.77173865291515,53.90121684212684]},"properties":{"OBJECTID":29,"AssetID":"39","LifeCycleStatus":"ACT","SubType":5,"AssetOwner":1,"AssetManager":13,"Location":"Carrie Jane Gray Park: Citizen Field","PrimaryMaterial":null,"SecondaryMaterial":null,"Size_HxWxD_m":null,"gisuid":1000006880,"barcode":"PRK-00006880","GlobalID":"{E347853B-8333-4493-B228-0706CE23001E}"}},{"type":"Feature","id":30,"geometry":{"type":"Point","coordinates":[-122.77169941973281,53.901322355100326]},"properties":{"OBJECTID":30,"AssetID":"40","LifeCycleStatus":"ACT","SubType":3,"AssetOwner":1,"AssetManager":13,"Location":"Carrie Jane Gray Park: Citizen Field","PrimaryMaterial":null,"SecondaryMaterial":null,"Size_HxWxD_m":null,"gisuid":1000006881,"barcode":"PRK-00006881","GlobalID":"{A122DE12-3B6E-4B22-B0C1-A9C4FADA04CE}"}},{"type":"Feature","id":31,"geometry":{"type":"Point","coordinates":[-122.77217472294463,53.90159436107204]},"properties":{"OBJECTID":31,"AssetID":"41","LifeCycleStatus":"ACT","SubType":3,"AssetOwner":1,"AssetManager":13,"Location":"Carrie Jane Gray Park: Citizen Field","PrimaryMaterial":null,"SecondaryMaterial":null,"Size_HxWxD_m":null,"gisuid":1000006882,"barcode":"PRK-00006882","GlobalID":"{AB5AECBC-608C-4FB7-8140-DA9766930F11}"}},{"type":"Feature","id":32,"geometry":{"type":"Point","coordinates":[-122.77264849544473,53.90155625885948]},"properties":{"OBJECTID":32,"AssetID":"42","LifeCycleStatus":"ACT","SubType":3,"AssetOwner":1,"AssetManager":13,"Location":"Carrie Jane Gray Park: Citizen Field","PrimaryMaterial":null,"SecondaryMaterial":null,"Size_HxWxD_m":null,"gisuid":1000006883,"barcode":"PRK-00006883","GlobalID":"{F77686E8-8E3C-41A0-BD50-C956214D6607}"}},{"type":"Feature","id":33,"geometry":{"type":"Point","coordinates":[-122.77189975791178,53.90070546180501]},"properties":{"OBJECTID":33,"AssetID":"43","LifeCycleStatus":"ACT","SubType":4,"AssetOwner":1,"AssetManager":13,"Location":"Carrie Jane Gray Park: Citizen Field","PrimaryMaterial":null,"SecondaryMaterial":null,"Size_HxWxD_m":null,"gisuid":1000006884,"barcode":"PRK-00006884","GlobalID":"{4C51D17F-12FA-4610-AA84-CFEB0A4CBF64}"}},{"type":"Feature","id":34,"geometry":{"type":"Point","coordinates":[-122.77323956030656,53.90147196545708]},"properties":{"OBJECTID":34,"AssetID":"44","LifeCycleStatus":"ACT","SubType":4,"AssetOwner":1,"AssetManager":13,"Location":"Carrie Jane Gray Park: Citizen Field","PrimaryMaterial":null,"SecondaryMaterial":null,"Size_HxWxD_m":null,"gisuid":1000006885,"barcode":"PRK-00006885","GlobalID":"{CC6F5D63-EC3D-4900-8C0B-5F3FA750E3A4}"}},{"type":"Feature","id":35,"geometry":{"type":"Point","coordinates":[-122.77159842970077,53.900580038146664]},"properties":{"OBJECTID":35,"AssetID":"45","LifeCycleStatus":"ACT","SubType":1,"AssetOwner":1,"AssetManager":13,"Location":"Carrie Jane Gray Park: Citizen Field","PrimaryMaterial":null,"SecondaryMaterial":null,"Size_HxWxD_m":null,"gisuid":1000006886,"barcode":"PRK-00006886","GlobalID":"{04B8250B-79D6-4B37-9BC1-6658EF64C07D}"}},{"type":"Feature","id":36,"geometry":{"type":"Point","coordinates":[-122.76986815044408,53.90093677919304]},"properties":{"OBJECTID":36,"AssetID":"46","LifeCycleStatus":"ACT","SubType":5,"AssetOwner":1,"AssetManager":13,"Location":"Carrie Jane Gray Park: Ron Wiley Field","PrimaryMaterial":null,"SecondaryMaterial":null,"Size_HxWxD_m":null,"gisuid":1000006887,"barcode":"PRK-00006887","GlobalID":"{2D3EBF2F-6CFF-488A-B355-363045A5C1AA}"}},{"type":"Feature","id":37,"geometry":{"type":"Point","coordinates":[-122.77049722481688,53.901216222101226]},"properties":{"OBJECTID":37,"AssetID":"47","LifeCycleStatus":"ACT","SubType":5,"AssetOwner":1,"AssetManager":13,"Location":"Carrie Jane Gray Park: Ron Wiley Field","PrimaryMaterial":null,"SecondaryMaterial":null,"Size_HxWxD_m":null,"gisuid":1000006888,"barcode":"PRK-00006888","GlobalID":"{24E630FB-EBF3-47A5-931D-2111B18AB94B}"}},{"type":"Feature","id":38,"geometry":{"type":"Point","coordinates":[-122.7698864127641,53.90113086792667]},"properties":{"OBJECTID":38,"AssetID":"48","LifeCycleStatus":"ACT","SubType":3,"AssetOwner":1,"AssetManager":13,"Location":"Carrie Jane Gray Park: Ron Wiley Field","PrimaryMaterial":null,"SecondaryMaterial":null,"Size_HxWxD_m":null,"gisuid":1000006889,"barcode":"PRK-00006889","GlobalID":"{50A0A1BF-E624-4E5B-8CDB-9A66AE990814}"}},{"type":"Feature","id":39,"geometry":{"type":"Point","coordinates":[-122.77020945021295,53.90126275761072]},"properties":{"OBJECTID":39,"AssetID":"49","LifeCycleStatus":"ACT","SubType":3,"AssetOwner":1,"AssetManager":13,"Location":"Carrie Jane Gray Park: Ron Wiley Field","PrimaryMaterial":null,"SecondaryMaterial":null,"Size_HxWxD_m":null,"gisuid":1000006890,"barcode":"PRK-00006890","GlobalID":"{CC90C19B-F853-421C-B14C-78A89411A8E1}"}},{"type":"Feature","id":40,"geometry":{"type":"Point","coordinates":[-122.7688010729229,53.90188295461512]},"properties":{"OBJECTID":40,"AssetID":"50","LifeCycleStatus":"ACT","SubType":3,"AssetOwner":1,"AssetManager":13,"Location":"Carrie Jane Gray Park: Minor Boys Field","PrimaryMaterial":null,"SecondaryMaterial":null,"Size_HxWxD_m":null,"gisuid":1000006891,"barcode":"PRK-00006891","GlobalID":"{2F4AF26B-BCE3-4793-83B0-98286012D372}"}},{"type":"Feature","id":41,"geometry":{"type":"Point","coordinates":[-122.76915063972177,53.90202393572958]},"properties":{"OBJECTID":41,"AssetID":"51","LifeCycleStatus":"ACT","SubType":3,"AssetOwner":1,"AssetManager":13,"Location":"Carrie Jane Gray Park: Minor Boys Field","PrimaryMaterial":null,"SecondaryMaterial":null,"Size_HxWxD_m":null,"gisuid":1000006892,"barcode":"PRK-00006892","GlobalID":"{03791833-3B0C-40F5-BDD1-E2813ADFAB6B}"}},{"type":"Feature","id":42,"geometry":{"type":"Point","coordinates":[-122.76878997778529,53.9017045754357]},"properties":{"OBJECTID":42,"AssetID":"52","LifeCycleStatus":"ACT","SubType":5,"AssetOwner":1,"AssetManager":13,"Location":"Carrie Jane Gray Park: Minor Boys Field","PrimaryMaterial":null,"SecondaryMaterial":null,"Size_HxWxD_m":null,"gisuid":1000006893,"barcode":"PRK-00006893","GlobalID":"{6CC9515D-2072-46A4-B8C9-C3427792588C}"}},{"type":"Feature","id":43,"geometry":{"type":"Point","coordinates":[-122.76944693838347,53.901966240641016]},"properties":{"OBJECTID":43,"AssetID":"53","LifeCycleStatus":"ACT","SubType":5,"AssetOwner":1,"AssetManager":13,"Location":"Carrie Jane Gray Park: Minor Boys Field","PrimaryMaterial":null,"SecondaryMaterial":null,"Size_HxWxD_m":null,"gisuid":1000006894,"barcode":"PRK-00006894","GlobalID":"{92B2985D-F666-4D21-8FB7-D5FA0A3C3290}"}},{"type":"Feature","id":44,"geometry":{"type":"Point","coordinates":[-122.7689864738349,53.903088366706605]},"properties":{"OBJECTID":44,"AssetID":"54","LifeCycleStatus":"ACT","SubType":5,"AssetOwner":1,"AssetManager":13,"Location":"Carrie Jane Gray: Rotary Field","PrimaryMaterial":null,"SecondaryMaterial":null,"Size_HxWxD_m":null,"gisuid":1000006895,"barcode":"PRK-00006895","GlobalID":"{38BBEB1D-39AA-4279-87B0-C57A9920CD73}"}},{"type":"Feature","id":45,"geometry":{"type":"Point","coordinates":[-122.76973542462923,53.90339610485459]},"properties":{"OBJECTID":45,"AssetID":"55","LifeCycleStatus":"ACT","SubType":5,"AssetOwner":1,"AssetManager":13,"Location":"Carrie Jane Gray: Rotary Field","PrimaryMaterial":null,"SecondaryMaterial":null,"Size_HxWxD_m":null,"gisuid":1000006896,"barcode":"PRK-00006896","GlobalID":"{CB0F1378-7BFA-4CEF-8720-AD9FC2801E38}"}},{"type":"Feature","id":46,"geometry":{"type":"Point","coordinates":[-122.76933075331011,53.90346001270024]},"properties":{"OBJECTID":46,"AssetID":"56","LifeCycleStatus":"ACT","SubType":3,"AssetOwner":1,"AssetManager":13,"Location":"Carrie Jane Gray: Rotary Field","PrimaryMaterial":null,"SecondaryMaterial":null,"Size_HxWxD_m":null,"gisuid":1000006897,"barcode":"PRK-00006897","GlobalID":"{86180E50-99A4-4E1C-8E19-E7182BA57BBC}"}},{"type":"Feature","id":47,"geometry":{"type":"Point","coordinates":[-122.76911841392959,53.90340728585566]},"properties":{"OBJECTID":47,"AssetID":"57","LifeCycleStatus":"ACT","SubType":3,"AssetOwner":1,"AssetManager":13,"Location":"Carrie Jane Gray: Rotary Field","PrimaryMaterial":null,"SecondaryMaterial":null,"Size_HxWxD_m":null,"gisuid":1000006898,"barcode":"PRK-00006898","GlobalID":"{65213E79-CEBB-4030-81A5-271B23FA5D1B}"}},{"type":"Feature","id":48,"geometry":{"type":"Point","coordinates":[-122.76720250160719,53.903106177174124]},"properties":{"OBJECTID":48,"AssetID":"58","LifeCycleStatus":"ACT","SubType":3,"AssetOwner":1,"AssetManager":13,"Location":"Carrie Jane Gray: Minor Girls Field","PrimaryMaterial":null,"SecondaryMaterial":null,"Size_HxWxD_m":null,"gisuid":1000006899,"barcode":"PRK-00006899","GlobalID":"{8DA0DF7B-5767-41C6-8C03-5204C658EFCA}"}},{"type":"Feature","id":49,"geometry":{"type":"Point","coordinates":[-122.76689450647456,53.90302044359662]},"properties":{"OBJECTID":49,"AssetID":"59","LifeCycleStatus":"ACT","SubType":3,"AssetOwner":1,"AssetManager":13,"Location":"Carrie Jane Gray: Minor Girls Field","PrimaryMaterial":null,"SecondaryMaterial":null,"Size_HxWxD_m":null,"gisuid":1000006900,"barcode":"PRK-00006900","GlobalID":"{31DE8453-47F7-4417-A749-D5FB7F51B9DC}"}},{"type":"Feature","id":50,"geometry":{"type":"Point","coordinates":[-122.76742595839926,53.9030419256381]},"properties":{"OBJECTID":50,"AssetID":"60","LifeCycleStatus":"ACT","SubType":5,"AssetOwner":1,"AssetManager":13,"Location":"Carrie Jane Gray: Minor Girls Field","PrimaryMaterial":null,"SecondaryMaterial":null,"Size_HxWxD_m":null,"gisuid":1000006901,"barcode":"PRK-00006901","GlobalID":"{DFB0A56C-87E6-46B2-9E42-0B53B4F93CB9}"}},{"type":"Feature","id":51,"geometry":{"type":"Point","coordinates":[-122.76683271729843,53.902878445784914]},"properties":{"OBJECTID":51,"AssetID":"61","LifeCycleStatus":"ACT","SubType":5,"AssetOwner":1,"AssetManager":13,"Location":"Carrie Jane Gray: Minor Girls Field","PrimaryMaterial":null,"SecondaryMaterial":null,"Size_HxWxD_m":null,"gisuid":1000006902,"barcode":"PRK-00006902","GlobalID":"{894E5848-778B-461D-8DB4-D8045E021CDA}"}},{"type":"Feature","id":52,"geometry":{"type":"Point","coordinates":[-122.7674941904888,53.903950719060035]},"properties":{"OBJECTID":52,"AssetID":"62","LifeCycleStatus":"ACT","SubType":3,"AssetOwner":1,"AssetManager":13,"Location":"Carrie Jane Gray: Spruce City Mens","PrimaryMaterial":null,"SecondaryMaterial":null,"Size_HxWxD_m":null,"gisuid":1000006903,"barcode":"PRK-00006903","GlobalID":"{1C4FAEDA-2FC8-45F6-A932-E834288D9EE2}"}},{"type":"Feature","id":53,"geometry":{"type":"Point","coordinates":[-122.76785272756882,53.904074122592235]},"properties":{"OBJECTID":53,"AssetID":"63","LifeCycleStatus":"ACT","SubType":3,"AssetOwner":1,"AssetManager":13,"Location":"Carrie Jane Gray: Spruce City Mens","PrimaryMaterial":null,"SecondaryMaterial":null,"Size_HxWxD_m":null,"gisuid":1000006904,"barcode":"PRK-00006904","GlobalID":"{7AE1683C-82BB-4DE6-90FD-57D0210DBA14}"}},{"type":"Feature","id":54,"geometry":{"type":"Point","coordinates":[-122.76852813831022,53.90399076592112]},"properties":{"OBJECTID":54,"AssetID":"64","LifeCycleStatus":"ACT","SubType":3,"AssetOwner":1,"AssetManager":13,"Location":"Carrie Jane Gray: Spruce City Mens","PrimaryMaterial":null,"SecondaryMaterial":null,"Size_HxWxD_m":null,"gisuid":1000006905,"barcode":"PRK-00006905","GlobalID":"{98A85CDE-F9B0-482D-8797-D7E0F3F1FA61}"}},{"type":"Feature","id":55,"geometry":{"type":"Point","coordinates":[-122.76742214643302,53.90352271163469]},"properties":{"OBJECTID":55,"AssetID":"65","LifeCycleStatus":"ACT","SubType":3,"AssetOwner":1,"AssetManager":13,"Location":"Carrie Jane Gray: Spruce City Mens","PrimaryMaterial":null,"SecondaryMaterial":null,"Size_HxWxD_m":null,"gisuid":1000006906,"barcode":"PRK-00006906","GlobalID":"{598A3CC6-099F-4BCC-A5C3-94B56A88E991}"}},{"type":"Feature","id":56,"geometry":{"type":"Point","coordinates":[-122.76808857142132,53.90403334818401]},"properties":{"OBJECTID":56,"AssetID":"66","LifeCycleStatus":"ACT","SubType":5,"AssetOwner":1,"AssetManager":13,"Location":"Carrie Jane Gray: Spruce City Mens","PrimaryMaterial":null,"SecondaryMaterial":null,"Size_HxWxD_m":null,"gisuid":1000006907,"barcode":"PRK-00006907","GlobalID":"{6925EE78-E4F7-4AA1-B2F9-39FFCF3E16AE}"}},{"type":"Feature","id":57,"geometry":{"type":"Point","coordinates":[-122.76750276670471,53.90378964941151]},"properties":{"OBJECTID":57,"AssetID":"67","LifeCycleStatus":"ACT","SubType":5,"AssetOwner":1,"AssetManager":13,"Location":"Carrie Jane Gray: Spruce City Mens","PrimaryMaterial":null,"SecondaryMaterial":null,"Size_HxWxD_m":null,"gisuid":1000006908,"barcode":"PRK-00006908","GlobalID":"{F248640F-A66A-42F6-99D5-2CE0E3F66C0C}"}},{"type":"Feature","id":58,"geometry":{"type":"Point","coordinates":[-122.7710797730811,53.905612713476714]},"properties":{"OBJECTID":58,"AssetID":"68","LifeCycleStatus":"ACT","SubType":3,"AssetOwner":1,"AssetManager":13,"Location":"Carrie Jane Gray: Skatepark","PrimaryMaterial":null,"SecondaryMaterial":null,"Size_HxWxD_m":null,"gisuid":1000006909,"barcode":"PRK-00006909","GlobalID":"{298DBF92-787C-49F5-B2D3-B80B62DC0739}"}},{"type":"Feature","id":59,"geometry":{"type":"Point","coordinates":[-122.7980898549609,53.926841430875264]},"properties":{"OBJECTID":59,"AssetID":"69","LifeCycleStatus":"ACT","SubType":2,"AssetOwner":1,"AssetManager":13,"Location":"Gordon Bryant Park","PrimaryMaterial":null,"SecondaryMaterial":null,"Size_HxWxD_m":null,"gisuid":1000006910,"barcode":"PRK-00006910","GlobalID":"{B3CE4002-2C5B-4B4E-ADC3-E43CF7776271}"}},{"type":"Feature","id":60,"geometry":{"type":"Point","coordinates":[-122.79833514711567,53.926641012308615]},"properties":{"OBJECTID":60,"AssetID":"70","LifeCycleStatus":"ACT","SubType":2,"AssetOwner":1,"AssetManager":13,"Location":"Gordon Bryant Park","PrimaryMaterial":null,"SecondaryMaterial":null,"Size_HxWxD_m":null,"gisuid":1000006911,"barcode":"PRK-00006911","GlobalID":"{412E6556-9484-47C0-867E-3CAAE0496ED2}"}},{"type":"Feature","id":61,"geometry":{"type":"Point","coordinates":[-122.81182390544802,53.96000308562099]},"properties":{"OBJECTID":61,"AssetID":"71","LifeCycleStatus":"ACT","SubType":2,"AssetOwner":1,"AssetManager":13,"Location":"Fairburn Park","PrimaryMaterial":null,"SecondaryMaterial":null,"Size_HxWxD_m":null,"gisuid":1000006912,"barcode":"PRK-00006912","GlobalID":"{A0C40049-4193-4F03-8B73-371FD1329817}"}},{"type":"Feature","id":62,"geometry":{"type":"Point","coordinates":[-122.77684641736049,53.92542829745494]},"properties":{"OBJECTID":62,"AssetID":"72","LifeCycleStatus":"ACT","SubType":2,"AssetOwner":1,"AssetManager":13,"Location":"Hammond Park","PrimaryMaterial":null,"SecondaryMaterial":null,"Size_HxWxD_m":null,"gisuid":1000006913,"barcode":"PRK-00006913","GlobalID":"{80C3BEC6-45B3-4C55-83B6-5333528A5EA3}"}},{"type":"Feature","id":63,"geometry":{"type":"Point","coordinates":[-122.77641965591764,53.92545116302766]},"properties":{"OBJECTID":63,"AssetID":"73","LifeCycleStatus":"ACT","SubType":2,"AssetOwner":1,"AssetManager":13,"Location":"Hammond Park","PrimaryMaterial":null,"SecondaryMaterial":null,"Size_HxWxD_m":null,"gisuid":1000006914,"barcode":"PRK-00006914","GlobalID":"{48343C07-1D57-46DD-85CD-0E6169C3FB5A}"}},{"type":"Feature","id":64,"geometry":{"type":"Point","coordinates":[-122.77718378993663,53.91916781931921]},"properties":{"OBJECTID":64,"AssetID":"74","LifeCycleStatus":"ACT","SubType":2,"AssetOwner":1,"AssetManager":13,"Location":"Harper Park","PrimaryMaterial":null,"SecondaryMaterial":null,"Size_HxWxD_m":null,"gisuid":1000006915,"barcode":"PRK-00006915","GlobalID":"{D49A66B4-FAFE-41F4-AB5A-22B37215E8FB}"}},{"type":"Feature","id":65,"geometry":{"type":"Point","coordinates":[-122.78860984071986,53.9151045738074]},"properties":{"OBJECTID":65,"AssetID":"75","LifeCycleStatus":"ACT","SubType":2,"AssetOwner":1,"AssetManager":13,"Location":"Harry Loder Park","PrimaryMaterial":null,"SecondaryMaterial":null,"Size_HxWxD_m":null,"gisuid":1000006916,"barcode":"PRK-00006916","GlobalID":"{AAC0C392-8C1F-437C-8E42-F0F6060DC9D9}"}},{"type":"Feature","id":66,"geometry":{"type":"Point","coordinates":[-122.78857331944288,53.91535658785592]},"properties":{"OBJECTID":66,"AssetID":"76","LifeCycleStatus":"ACT","SubType":2,"AssetOwner":1,"AssetManager":13,"Location":"Harry Loder Park","PrimaryMaterial":null,"SecondaryMaterial":null,"Size_HxWxD_m":null,"gisuid":1000006917,"barcode":"PRK-00006917","GlobalID":"{2CD1A68F-6820-4695-B155-29CB943C8CF8}"}},{"type":"Feature","id":67,"geometry":{"type":"Point","coordinates":[-122.78825744698032,53.91609820626907]},"properties":{"OBJECTID":67,"AssetID":"77","LifeCycleStatus":"ACT","SubType":5,"AssetOwner":1,"AssetManager":13,"Location":"Harry Loder Park","PrimaryMaterial":null,"SecondaryMaterial":null,"Size_HxWxD_m":null,"gisuid":1000006918,"barcode":"PRK-00006918","GlobalID":"{9CEBAF57-5A71-4F2D-8239-DF44E8D2E9AC}"}},{"type":"Feature","id":68,"geometry":{"type":"Point","coordinates":[-122.78860936691929,53.91592938688196]},"properties":{"OBJECTID":68,"AssetID":"78","LifeCycleStatus":"ACT","SubType":5,"AssetOwner":1,"AssetManager":13,"Location":"Harry Loder Park","PrimaryMaterial":null,"SecondaryMaterial":null,"Size_HxWxD_m":null,"gisuid":1000006919,"barcode":"PRK-00006919","GlobalID":"{6663C6D7-1EC3-417D-912D-391E5ABE515C}"}},{"type":"Feature","id":69,"geometry":{"type":"Point","coordinates":[-122.7886288007194,53.91602965776161]},"properties":{"OBJECTID":69,"AssetID":"79","LifeCycleStatus":"ACT","SubType":3,"AssetOwner":1,"AssetManager":13,"Location":"Harry Loder Park","PrimaryMaterial":null,"SecondaryMaterial":null,"Size_HxWxD_m":null,"gisuid":1000006920,"barcode":"PRK-00006920","GlobalID":"{78FAC8B4-5715-4E44-8114-460A45A09224}"}},{"type":"Feature","id":70,"geometry":{"type":"Point","coordinates":[-122.78843073884669,53.91612348232071]},"properties":{"OBJECTID":70,"AssetID":"80","LifeCycleStatus":"ACT","SubType":3,"AssetOwner":1,"AssetManager":13,"Location":"Harry Loder Park","PrimaryMaterial":null,"SecondaryMaterial":null,"Size_HxWxD_m":null,"gisuid":1000006921,"barcode":"PRK-00006921","GlobalID":"{BF146606-E13A-465A-ACFF-59CE6AD7D208}"}},{"type":"Feature","id":71,"geometry":{"type":"Point","coordinates":[-122.74470664723265,53.89729605859341]},"properties":{"OBJECTID":71,"AssetID":"81","LifeCycleStatus":"ACT","SubType":2,"AssetOwner":1,"AssetManager":13,"Location":"South Fort George Family Res. Centre","PrimaryMaterial":null,"SecondaryMaterial":null,"Size_HxWxD_m":null,"gisuid":1000006922,"barcode":"PRK-00006922","GlobalID":"{D113544B-C142-44F7-9037-62817FFE5331}"}},{"type":"Feature","id":72,"geometry":{"type":"Point","coordinates":[-122.74470928189538,53.897062058124334]},"properties":{"OBJECTID":72,"AssetID":"82","LifeCycleStatus":"ACT","SubType":2,"AssetOwner":1,"AssetManager":13,"Location":"South Fort George Family Res. Centre","PrimaryMaterial":null,"SecondaryMaterial":null,"Size_HxWxD_m":null,"gisuid":1000006923,"barcode":"PRK-00006923","GlobalID":"{30717E0B-ECAE-4428-833B-1462C321A53D}"}},{"type":"Feature","id":73,"geometry":{"type":"Point","coordinates":[-122.73793249163909,53.90444970822509]},"properties":{"OBJECTID":73,"AssetID":"83","LifeCycleStatus":"ACT","SubType":1,"AssetOwner":1,"AssetManager":13,"Location":"Gyro Park","PrimaryMaterial":null,"SecondaryMaterial":null,"Size_HxWxD_m":null,"gisuid":1000006924,"barcode":"PRK-00006924","GlobalID":"{E18DF06D-156F-481C-B85C-2A1AFAAFEB80}"}},{"type":"Feature","id":74,"geometry":{"type":"Point","coordinates":[-122.73797429679776,53.904759646778096]},"properties":{"OBJECTID":74,"AssetID":"84","LifeCycleStatus":"ACT","SubType":5,"AssetOwner":1,"AssetManager":13,"Location":"Gyro Park","PrimaryMaterial":null,"SecondaryMaterial":null,"Size_HxWxD_m":null,"gisuid":1000006925,"barcode":"PRK-00006925","GlobalID":"{524D6374-D31D-402E-8485-69193874EC35}"}},{"type":"Feature","id":75,"geometry":{"type":"Point","coordinates":[-122.73831259167243,53.904951583642166]},"properties":{"OBJECTID":75,"AssetID":"85","LifeCycleStatus":"ACT","SubType":5,"AssetOwner":1,"AssetManager":13,"Location":"Gyro Park","PrimaryMaterial":null,"SecondaryMaterial":null,"Size_HxWxD_m":null,"gisuid":1000006926,"barcode":"PRK-00006926","GlobalID":"{75B917F8-A725-4851-8480-181A94F8A156}"}},{"type":"Feature","id":76,"geometry":{"type":"Point","coordinates":[-122.73795417972991,53.90483715301366]},"properties":{"OBJECTID":76,"AssetID":"86","LifeCycleStatus":"ACT","SubType":3,"AssetOwner":1,"AssetManager":13,"Location":"Gyro Park","PrimaryMaterial":null,"SecondaryMaterial":null,"Size_HxWxD_m":null,"gisuid":1000006927,"barcode":"PRK-00006927","GlobalID":"{D4F36BF8-47B8-4D00-9D0A-C9D4A758D048}"}},{"type":"Feature","id":77,"geometry":{"type":"Point","coordinates":[-122.73818650543154,53.904973210969175]},"properties":{"OBJECTID":77,"AssetID":"87","LifeCycleStatus":"ACT","SubType":3,"AssetOwner":1,"AssetManager":13,"Location":"Gyro Park","PrimaryMaterial":null,"SecondaryMaterial":null,"Size_HxWxD_m":null,"gisuid":1000006928,"barcode":"PRK-00006928","GlobalID":"{BFDEC13E-9EA6-4456-82A3-43C406E2D7BC}"}},{"type":"Feature","id":78,"geometry":{"type":"Point","coordinates":[-122.73855028926077,53.904953314818954]},"properties":{"OBJECTID":78,"AssetID":"88","LifeCycleStatus":"ACT","SubType":3,"AssetOwner":1,"AssetManager":13,"Location":"Gyro Park","PrimaryMaterial":null,"SecondaryMaterial":null,"Size_HxWxD_m":null,"gisuid":1000006929,"barcode":"PRK-00006929","GlobalID":"{1FA361F5-A7BF-47CF-B2FA-67CB54AE440C}"}},{"type":"Feature","id":79,"geometry":{"type":"Point","coordinates":[-122.73799778152265,53.904626785747375]},"properties":{"OBJECTID":79,"AssetID":"89","LifeCycleStatus":"ACT","SubType":3,"AssetOwner":1,"AssetManager":13,"Location":"Gyro Park","PrimaryMaterial":null,"SecondaryMaterial":null,"Size_HxWxD_m":null,"gisuid":1000006930,"barcode":"PRK-00006930","GlobalID":"{E1260459-7497-4996-919F-C62FBDC0A6A0}"}},{"type":"Feature","id":80,"geometry":{"type":"Point","coordinates":[-122.81273574688635,53.99352232910746]},"properties":{"OBJECTID":80,"AssetID":"90","LifeCycleStatus":"ACT","SubType":5,"AssetOwner":1,"AssetManager":13,"Location":"Volunteer Park","PrimaryMaterial":null,"SecondaryMaterial":null,"Size_HxWxD_m":"2.5x7.0x2.0","gisuid":1000006931,"barcode":"PRK-00006931","GlobalID":"{CC5ACE65-1C6E-4814-BC85-190F78361A89}"}},{"type":"Feature","id":81,"geometry":{"type":"Point","coordinates":[-122.8127345029068,53.99343957069197]},"properties":{"OBJECTID":81,"AssetID":"91","LifeCycleStatus":"ACT","SubType":5,"AssetOwner":1,"AssetManager":13,"Location":"Volunteer Park","PrimaryMaterial":null,"SecondaryMaterial":null,"Size_HxWxD_m":"2.5x7.0x2.0","gisuid":1000006932,"barcode":"PRK-00006932","GlobalID":"{44FA3E4E-7A5F-444B-895C-89A15DC25803}"}},{"type":"Feature","id":82,"geometry":{"type":"Point","coordinates":[-122.81240878591824,53.99371586983864]},"properties":{"OBJECTID":82,"AssetID":"92","LifeCycleStatus":"ACT","SubType":5,"AssetOwner":1,"AssetManager":13,"Location":"Volunteer Park","PrimaryMaterial":null,"SecondaryMaterial":null,"Size_HxWxD_m":"2.5x7.0x2.0","gisuid":1000006933,"barcode":"PRK-00006933","GlobalID":"{7CF5FF37-DE69-409E-97E3-298148EE8CF7}"}},{"type":"Feature","id":83,"geometry":{"type":"Point","coordinates":[-122.8122651167146,53.993714693709144]},"properties":{"OBJECTID":83,"AssetID":"93","LifeCycleStatus":"ACT","SubType":5,"AssetOwner":1,"AssetManager":13,"Location":"Volunteer Park","PrimaryMaterial":null,"SecondaryMaterial":null,"Size_HxWxD_m":"2.5x7.0x2.0","gisuid":1000006934,"barcode":"PRK-00006934","GlobalID":"{E85E168F-4238-4315-BEB1-5D8CCE38BFA4}"}},{"type":"Feature","id":84,"geometry":{"type":"Point","coordinates":[-122.8119398837521,53.993523940224605]},"properties":{"OBJECTID":84,"AssetID":"94","LifeCycleStatus":"ACT","SubType":5,"AssetOwner":1,"AssetManager":13,"Location":"Volunteer Park","PrimaryMaterial":null,"SecondaryMaterial":null,"Size_HxWxD_m":"2.5x7.0x2.0","gisuid":1000006935,"barcode":"PRK-00006935","GlobalID":"{4E7D0511-E7A0-4970-8026-E416194B3E97}"}},{"type":"Feature","id":85,"geometry":{"type":"Point","coordinates":[-122.81193865573498,53.993438328153026]},"properties":{"OBJECTID":85,"AssetID":"95","LifeCycleStatus":"ACT","SubType":5,"AssetOwner":1,"AssetManager":13,"Location":"Volunteer Park","PrimaryMaterial":null,"SecondaryMaterial":null,"Size_HxWxD_m":"2.5x7.0x2.0","gisuid":1000006936,"barcode":"PRK-00006936","GlobalID":"{4C3C0680-5314-4008-B1C0-7F89F004ED93}"}},{"type":"Feature","id":86,"geometry":{"type":"Point","coordinates":[-122.8122688442517,53.993244794631465]},"properties":{"OBJECTID":86,"AssetID":"96","LifeCycleStatus":"ACT","SubType":5,"AssetOwner":1,"AssetManager":13,"Location":"Volunteer Park","PrimaryMaterial":null,"SecondaryMaterial":null,"Size_HxWxD_m":"2.5x7.0x2.0","gisuid":1000006937,"barcode":"PRK-00006937","GlobalID":"{05FDC389-CA5A-48DC-B23A-87F9B2077B6F}"}},{"type":"Feature","id":87,"geometry":{"type":"Point","coordinates":[-122.81240606803752,53.99324310612803]},"properties":{"OBJECTID":87,"AssetID":"97","LifeCycleStatus":"ACT","SubType":5,"AssetOwner":1,"AssetManager":13,"Location":"Volunteer Park","PrimaryMaterial":null,"SecondaryMaterial":null,"Size_HxWxD_m":"2.5x7.0x2.0","gisuid":1000006938,"barcode":"PRK-00006938","GlobalID":"{D9B692F1-492F-4442-B209-4C1FA5965374}"}},{"type":"Feature","id":88,"geometry":{"type":"Point","coordinates":[-122.81211723242737,53.993515776992936]},"properties":{"OBJECTID":88,"AssetID":"98","LifeCycleStatus":"ACT","SubType":3,"AssetOwner":1,"AssetManager":13,"Location":"Volunteer Park","PrimaryMaterial":"Wood","SecondaryMaterial":"Wood","Size_HxWxD_m":"1.75x4.0x2.5","gisuid":1000006939,"barcode":"PRK-00006939","GlobalID":"{F58536B3-1B5C-4897-ADE9-76D6A5A6BFF2}"}},{"type":"Feature","id":90,"geometry":{"type":"Point","coordinates":[-122.81209576309698,53.993443687997974]},"properties":{"OBJECTID":90,"AssetID":"99","LifeCycleStatus":"ACT","SubType":3,"AssetOwner":1,"AssetManager":13,"Location":"Volunteer Park","PrimaryMaterial":"Wood","SecondaryMaterial":"Wood","Size_HxWxD_m":"1.75x4.5x2.5","gisuid":1000006940,"barcode":"PRK-00006940","GlobalID":"{E26B9CB1-C424-419E-A9B0-617C73AC8A3A}"}},{"type":"Feature","id":91,"geometry":{"type":"Point","coordinates":[-122.81228517272959,53.99332484248159]},"properties":{"OBJECTID":91,"AssetID":"100","LifeCycleStatus":"ACT","SubType":3,"AssetOwner":1,"AssetManager":13,"Location":"Volunteer Park","PrimaryMaterial":"Wood","SecondaryMaterial":"Wood","Size_HxWxD_m":"1.75x4.5x2.5","gisuid":1000006941,"barcode":"PRK-00006941","GlobalID":"{86E8ECD3-310B-4751-A0CF-166425879BF6}"}},{"type":"Feature","id":92,"geometry":{"type":"Point","coordinates":[-122.81259455861283,53.99344946042164]},"properties":{"OBJECTID":92,"AssetID":"101","LifeCycleStatus":"ACT","SubType":3,"AssetOwner":1,"AssetManager":13,"Location":"Volunteer Park","PrimaryMaterial":"Wood","SecondaryMaterial":"Wood","Size_HxWxD_m":"1.75x4.5x2.5","gisuid":1000006942,"barcode":"PRK-00006942","GlobalID":"{4B8ACC89-2E16-445E-ABD8-38192DA9D1BA}"}},{"type":"Feature","id":93,"geometry":{"type":"Point","coordinates":[-122.81233612814421,53.99404624123748]},"properties":{"OBJECTID":93,"AssetID":"102","LifeCycleStatus":"ACT","SubType":1,"AssetOwner":1,"AssetManager":13,"Location":"Volunteer Park","PrimaryMaterial":null,"SecondaryMaterial":null,"Size_HxWxD_m":"3.0x15.0x5.0","gisuid":1000006943,"barcode":"PRK-00006943","GlobalID":"{69318DD1-E17C-444E-B3A5-7C883E26B4E3}"}},{"type":"Feature","id":94,"geometry":{"type":"Point","coordinates":[-122.80244464316453,53.950432504046965]},"properties":{"OBJECTID":94,"AssetID":"103","LifeCycleStatus":"ACT","SubType":5,"AssetOwner":1,"AssetManager":13,"Location":"Nechako Park: Diamond 1","PrimaryMaterial":"Concrete","SecondaryMaterial":"Metal","Size_HxWxD_m":"2.5x7.5x2.0","gisuid":1000006944,"barcode":"PRK-00006944","GlobalID":"{87A21996-C173-430F-835C-DF7AD502C773}"}},{"type":"Feature","id":95,"geometry":{"type":"Point","coordinates":[-122.80202257043494,53.95016926951907]},"properties":{"OBJECTID":95,"AssetID":"104","LifeCycleStatus":"ACT","SubType":5,"AssetOwner":1,"AssetManager":13,"Location":"Nechako Park: Diamond 1","PrimaryMaterial":"Concrete","SecondaryMaterial":"Metal","Size_HxWxD_m":"2.5x7.5x2.0","gisuid":1000006945,"barcode":"PRK-00006945","GlobalID":"{3D2799C2-0442-423C-8896-7E3F9CA38FBD}"}},{"type":"Feature","id":96,"geometry":{"type":"Point","coordinates":[-122.80228010089715,53.950443648134794]},"properties":{"OBJECTID":96,"AssetID":"105","LifeCycleStatus":"ACT","SubType":3,"AssetOwner":1,"AssetManager":13,"Location":"Nechako Park: Diamond 1","PrimaryMaterial":null,"SecondaryMaterial":null,"Size_HxWxD_m":"1.8x4.5x2.5","gisuid":1000006946,"barcode":"PRK-00006946","GlobalID":"{8F517BC4-C673-45DD-B6B3-2C62EE1DE9FD}"}},{"type":"Feature","id":97,"geometry":{"type":"Point","coordinates":[-122.80215794037333,53.95044416067468]},"properties":{"OBJECTID":97,"AssetID":"106","LifeCycleStatus":"ACT","SubType":3,"AssetOwner":1,"AssetManager":13,"Location":"Nechako Park: Diamond 1","PrimaryMaterial":null,"SecondaryMaterial":null,"Size_HxWxD_m":"1.8x4.5x2.5","gisuid":1000006947,"barcode":"PRK-00006947","GlobalID":"{23EAC27B-89AD-4E92-98F6-F3390F131535}"}},{"type":"Feature","id":98,"geometry":{"type":"Point","coordinates":[-122.80199998980105,53.95034045387568]},"properties":{"OBJECTID":98,"AssetID":"107","LifeCycleStatus":"ACT","SubType":3,"AssetOwner":1,"AssetManager":13,"Location":"Nechako Park: Diamond 1","PrimaryMaterial":null,"SecondaryMaterial":null,"Size_HxWxD_m":"1.8x4.5x2.5","gisuid":1000006948,"barcode":"PRK-00006948","GlobalID":"{40C780A6-4806-4B15-843B-C9A6BCC14024}"}},{"type":"Feature","id":99,"geometry":{"type":"Point","coordinates":[-122.80201243516268,53.95026627837329]},"properties":{"OBJECTID":99,"AssetID":"108","LifeCycleStatus":"ACT","SubType":3,"AssetOwner":1,"AssetManager":13,"Location":"Nechako Park: Diamond 1","PrimaryMaterial":null,"SecondaryMaterial":null,"Size_HxWxD_m":"1.8x4.5x2.5","gisuid":1000006949,"barcode":"PRK-00006949","GlobalID":"{1B9FFFBD-40B4-4CCB-8559-751D2D293947}"}},{"type":"Feature","id":100,"geometry":{"type":"Point","coordinates":[-122.80455069366027,53.95096388274622]},"properties":{"OBJECTID":100,"AssetID":"109","LifeCycleStatus":"ACT","SubType":5,"AssetOwner":1,"AssetManager":13,"Location":"Nechako Park: Diamond 2","PrimaryMaterial":"Concrete","SecondaryMaterial":"Metal","Size_HxWxD_m":"2.5x7.5x2.0","gisuid":1000006950,"barcode":"PRK-00006950","GlobalID":"{81EB5A52-3A50-47AD-A360-2EFAD91B01BC}"}},{"type":"Feature","id":101,"geometry":{"type":"Point","coordinates":[-122.80412860229254,53.95070065562458]},"properties":{"OBJECTID":101,"AssetID":"110","LifeCycleStatus":"ACT","SubType":5,"AssetOwner":1,"AssetManager":13,"Location":"Nechako Park: Diamond 2","PrimaryMaterial":"Concrete","SecondaryMaterial":"Metal","Size_HxWxD_m":"2.5x7.5x2.0","gisuid":1000006951,"barcode":"PRK-00006951","GlobalID":"{38CA751E-AB6C-4E62-A6C4-2103F9CA3630}"}},{"type":"Feature","id":102,"geometry":{"type":"Point","coordinates":[-122.80435894806737,53.95097260719604]},"properties":{"OBJECTID":102,"AssetID":"111","LifeCycleStatus":"ACT","SubType":3,"AssetOwner":1,"AssetManager":13,"Location":"Nechako Park: Diamond 2","PrimaryMaterial":null,"SecondaryMaterial":null,"Size_HxWxD_m":"1.8x4.5x2.5","gisuid":1000006952,"barcode":"PRK-00006952","GlobalID":"{4B4FC0AB-E16C-48D2-B297-264C7D6F6674}"}},{"type":"Feature","id":105,"geometry":{"type":"Point","coordinates":[-122.80410428933038,53.95081309910308]},"properties":{"OBJECTID":105,"AssetID":"112","LifeCycleStatus":"ACT","SubType":3,"AssetOwner":1,"AssetManager":13,"Location":"Nechako Park: Diamond 2","PrimaryMaterial":null,"SecondaryMaterial":null,"Size_HxWxD_m":"1.8x4.5x2.5","gisuid":1000006953,"barcode":"PRK-00006953","GlobalID":"{205B14E6-E499-4DE2-B5DB-7AAD3AA0037D}"}},{"type":"Feature","id":106,"geometry":{"type":"Point","coordinates":[-122.79105643825154,53.91641522186476]},"properties":{"OBJECTID":106,"AssetID":"10","LifeCycleStatus":"ACT","SubType":7,"AssetOwner":1,"AssetManager":13,"Location":"Rainbow Park","PrimaryMaterial":"Metal","SecondaryMaterial":"Metal","Size_HxWxD_m":"1.4x0.5x0.5","gisuid":1000006954,"barcode":"PRK-00006954","GlobalID":"{7DA60A31-EC1C-4B35-A6F2-51D067F3E22E}"}},{"type":"Feature","id":107,"geometry":{"type":"Point","coordinates":[-122.7939200424406,53.91886075612181]},"properties":{"OBJECTID":107,"AssetID":"4","LifeCycleStatus":"ACT","SubType":7,"AssetOwner":1,"AssetManager":13,"Location":"Rainbow Park","PrimaryMaterial":"Metal","SecondaryMaterial":"Metal","Size_HxWxD_m":"1.4x0.5x0.5","gisuid":1000006955,"barcode":"PRK-00006955","GlobalID":"{C0520ECA-A947-410B-B352-7F77ECA75A61}"}},{"type":"Feature","id":108,"geometry":{"type":"Point","coordinates":[-122.7918589461474,53.91765559710421]},"properties":{"OBJECTID":108,"AssetID":"9","LifeCycleStatus":"ACT","SubType":7,"AssetOwner":1,"AssetManager":13,"Location":"Rainbow Park","PrimaryMaterial":"Metal","SecondaryMaterial":"Metal","Size_HxWxD_m":"1.4x0.5x0.5","gisuid":1000006956,"barcode":"PRK-00006956","GlobalID":"{CFB0CAEC-6959-40F4-91EB-575210DAD8B7}"}},{"type":"Feature","id":109,"geometry":{"type":"Point","coordinates":[-122.79334995774686,53.916745000356435]},"properties":{"OBJECTID":109,"AssetID":"7","LifeCycleStatus":"ACT","SubType":7,"AssetOwner":1,"AssetManager":13,"Location":"Rainbow Park","PrimaryMaterial":"Metal","SecondaryMaterial":"Metal","Size_HxWxD_m":"1.4x0.5x0.5","gisuid":1000006957,"barcode":"PRK-00006957","GlobalID":"{E81DBFD9-4CB8-400C-9F77-BE6ED1BCB127}"}},{"type":"Feature","id":110,"geometry":{"type":"Point","coordinates":[-122.7920081339741,53.91688827074013]},"properties":{"OBJECTID":110,"AssetID":"8","LifeCycleStatus":"ACT","SubType":7,"AssetOwner":1,"AssetManager":13,"Location":"Rainbow Park","PrimaryMaterial":"Metal","SecondaryMaterial":"Metal","Size_HxWxD_m":"1.4x0.5x0.5","gisuid":1000006958,"barcode":"PRK-00006958","GlobalID":"{E20B919E-5C5B-4C2B-BEC1-2F12CA75C97B}"}},{"type":"Feature","id":112,"geometry":{"type":"Point","coordinates":[-122.79160846167456,53.91773569573271]},"properties":{"OBJECTID":112,"AssetID":"6","LifeCycleStatus":"ACT","SubType":7,"AssetOwner":1,"AssetManager":13,"Location":"Rainbow Park","PrimaryMaterial":"Metal","SecondaryMaterial":"Metal","Size_HxWxD_m":"1.4x0.5x0.5","gisuid":1000006959,"barcode":"PRK-00006959","GlobalID":"{105ADCB9-F47E-46F7-A3B9-599A9E212622}"}},{"type":"Feature","id":114,"geometry":{"type":"Point","coordinates":[-122.79265526723337,53.91792377165806]},"properties":{"OBJECTID":114,"AssetID":"5","LifeCycleStatus":"ACT","SubType":7,"AssetOwner":1,"AssetManager":13,"Location":"Rainbow Park","PrimaryMaterial":"Metal","SecondaryMaterial":"Metal","Size_HxWxD_m":"1.4x0.5x0.5","gisuid":1000006960,"barcode":"PRK-00006960","GlobalID":"{C136DBA7-25B7-4EAA-A39A-116A52BEF5CF}"}},{"type":"Feature","id":115,"geometry":{"type":"Point","coordinates":[-122.7936509595162,53.91934590173735]},"properties":{"OBJECTID":115,"AssetID":"3","LifeCycleStatus":"ACT","SubType":7,"AssetOwner":1,"AssetManager":13,"Location":"Rainbow Park","PrimaryMaterial":"Metal","SecondaryMaterial":"Metal","Size_HxWxD_m":"1.4x0.5x0.5","gisuid":1000006961,"barcode":"PRK-00006961","GlobalID":"{3F370D2B-CE2B-422E-B7E9-D502C9978DE2}"}},{"type":"Feature","id":116,"geometry":{"type":"Point","coordinates":[-122.79307163777793,53.91853254814242]},"properties":{"OBJECTID":116,"AssetID":"2","LifeCycleStatus":"ACT","SubType":7,"AssetOwner":1,"AssetManager":13,"Location":"Rainbow Park","PrimaryMaterial":"Metal","SecondaryMaterial":"Metal","Size_HxWxD_m":"1.4x0.5x0.5","gisuid":1000006962,"barcode":"PRK-00006962","GlobalID":"{C8B69B1E-0A02-4709-8BAA-84BB70FDB083}"}},{"type":"Feature","id":120,"geometry":{"type":"Point","coordinates":[-122.77040893676359,53.905948916287336]},"properties":{"OBJECTID":120,"AssetID":"23066","LifeCycleStatus":"ACT","SubType":2,"AssetOwner":1,"AssetManager":13,"Location":"Carrie Jane Gray: Jumpstart Park","PrimaryMaterial":null,"SecondaryMaterial":null,"Size_HxWxD_m":null,"gisuid":1000006963,"barcode":"PRK-00006963","GlobalID":"{4D3BABDF-0006-424C-A08D-BEBE1B279528}"}},{"type":"Feature","id":121,"geometry":{"type":"Point","coordinates":[-122.77030493380747,53.90606457914669]},"properties":{"OBJECTID":121,"AssetID":"23067","LifeCycleStatus":"ACT","SubType":2,"AssetOwner":1,"AssetManager":13,"Location":"Carrie Jane Gray: Jumpstart Park","PrimaryMaterial":null,"SecondaryMaterial":null,"Size_HxWxD_m":null,"gisuid":1000006964,"barcode":"PRK-00006964","GlobalID":"{17E1FDF2-2143-43CA-ABBE-7C0D16347E76}"}},{"type":"Feature","id":122,"geometry":{"type":"Point","coordinates":[-122.77009185169895,53.90577525577881]},"properties":{"OBJECTID":122,"AssetID":"23068","LifeCycleStatus":"ACT","SubType":2,"AssetOwner":1,"AssetManager":13,"Location":"Carrie Jane Gray: Jumpstart Park","PrimaryMaterial":null,"SecondaryMaterial":null,"Size_HxWxD_m":null,"gisuid":1000006965,"barcode":"PRK-00006965","GlobalID":"{259625CC-33BB-4E18-99A8-D39751ABDD21}"}},{"type":"Feature","id":123,"geometry":{"type":"Point","coordinates":[-122.77020615612096,53.90612665868383]},"properties":{"OBJECTID":123,"AssetID":"23069","LifeCycleStatus":"ACT","SubType":2,"AssetOwner":1,"AssetManager":13,"Location":"Carrie Jane Gray: Jumpstart Park","PrimaryMaterial":null,"SecondaryMaterial":null,"Size_HxWxD_m":null,"gisuid":1000006966,"barcode":"PRK-00006966","GlobalID":"{F16B693E-7772-40D2-AB85-3D237C1C5D56}"}},{"type":"Feature","id":124,"geometry":{"type":"Point","coordinates":[-122.76979211855061,53.90590222419496]},"properties":{"OBJECTID":124,"AssetID":"23070","LifeCycleStatus":"ACT","SubType":2,"AssetOwner":1,"AssetManager":13,"Location":"Carrie Jane Gray: Jumpstart Park","PrimaryMaterial":null,"SecondaryMaterial":null,"Size_HxWxD_m":null,"gisuid":1000006967,"barcode":"PRK-00006967","GlobalID":"{FCC4047E-2E9A-4EF0-8CDC-0886BBDD386C}"}},{"type":"Feature","id":125,"geometry":{"type":"Point","coordinates":[-122.76989243528512,53.90584012907031]},"properties":{"OBJECTID":125,"AssetID":"23071","LifeCycleStatus":"ACT","SubType":2,"AssetOwner":1,"AssetManager":13,"Location":"Carrie Jane Gray: Jumpstart Park","PrimaryMaterial":null,"SecondaryMaterial":null,"Size_HxWxD_m":null,"gisuid":1000006968,"barcode":"PRK-00006968","GlobalID":"{C90BAB99-2E52-439A-9086-78EA2830032C}"}},{"type":"Feature","id":126,"geometry":{"type":"Point","coordinates":[-122.7699855198329,53.90578251045374]},"properties":{"OBJECTID":126,"AssetID":"23072","LifeCycleStatus":"ACT","SubType":2,"AssetOwner":1,"AssetManager":13,"Location":"Carrie Jane Gray: Jumpstart Park","PrimaryMaterial":null,"SecondaryMaterial":null,"Size_HxWxD_m":null,"gisuid":1000006969,"barcode":"PRK-00006969","GlobalID":"{E12AC76D-5E5D-47F3-BC58-D054847190C3}"}},{"type":"Feature","id":127,"geometry":{"type":"Point","coordinates":[-122.77008583599365,53.905720415165696]},"properties":{"OBJECTID":127,"AssetID":"23073","LifeCycleStatus":"ACT","SubType":2,"AssetOwner":1,"AssetManager":13,"Location":"Carrie Jane Gray: Jumpstart Park","PrimaryMaterial":null,"SecondaryMaterial":null,"Size_HxWxD_m":null,"gisuid":1000006970,"barcode":"PRK-00006970","GlobalID":"{569FCCED-C16A-4E06-8A10-AE2B0007ECD3}"}},{"type":"Feature","id":128,"geometry":{"type":"Point","coordinates":[-122.77050247761723,53.9059404251982]},"properties":{"OBJECTID":128,"AssetID":"23074","LifeCycleStatus":"ACT","SubType":2,"AssetOwner":1,"AssetManager":13,"Location":"Carrie Jane Gray: Jumpstart Park","PrimaryMaterial":null,"SecondaryMaterial":null,"Size_HxWxD_m":null,"gisuid":1000006971,"barcode":"PRK-00006971","GlobalID":"{E30B55B7-13E4-45E3-9AE7-9D0EB67D5701}"}},{"type":"Feature","id":129,"geometry":{"type":"Point","coordinates":[-122.7704037005166,53.906002504899746]},"properties":{"OBJECTID":129,"AssetID":"23075","LifeCycleStatus":"ACT","SubType":2,"AssetOwner":1,"AssetManager":13,"Location":"Carrie Jane Gray: Jumpstart Park","PrimaryMaterial":null,"SecondaryMaterial":null,"Size_HxWxD_m":null,"gisuid":1000006972,"barcode":"PRK-00006972","GlobalID":"{3689C561-EBC4-464B-B35D-C916B63CDB58}"}},{"type":"Feature","id":517,"geometry":{"type":"Point","coordinates":[-122.77005899975168,53.906118337143845]},"properties":{"OBJECTID":517,"AssetID":"23076","LifeCycleStatus":"ACT","SubType":13,"AssetOwner":1,"AssetManager":13,"Location":"Carrie Jane Gray Park: Jumpstart Park","PrimaryMaterial":null,"SecondaryMaterial":null,"Size_HxWxD_m":null,"gisuid":1000006973,"barcode":"PRK-00006973","GlobalID":"{EAD97292-9C24-485A-B5F9-3E5C3CF0B130}"}},{"type":"Feature","id":518,"geometry":{"type":"Point","coordinates":[-122.76999134825785,53.906078951235315]},"properties":{"OBJECTID":518,"AssetID":"23077","LifeCycleStatus":"ACT","SubType":3,"AssetOwner":1,"AssetManager":13,"Location":"Carrie Jane Gray Park: Jumpstart Park","PrimaryMaterial":null,"SecondaryMaterial":null,"Size_HxWxD_m":null,"gisuid":1000006974,"barcode":"PRK-00006974","GlobalID":"{E8DF3BF2-D484-4CB4-9B1E-10FF9E4BE143}"}},{"type":"Feature","id":519,"geometry":{"type":"Point","coordinates":[-122.76989813589576,53.906033134772244]},"properties":{"OBJECTID":519,"AssetID":"23078","LifeCycleStatus":"ACT","SubType":3,"AssetOwner":1,"AssetManager":13,"Location":"Carrie Jane Gray Park: Jumpstart Park","PrimaryMaterial":null,"SecondaryMaterial":null,"Size_HxWxD_m":null,"gisuid":1000006975,"barcode":"PRK-00006975","GlobalID":"{4C731D3D-5EFD-4B05-BD6E-CAD56C0145A9}"}},{"type":"Feature","id":520,"geometry":{"type":"Point","coordinates":[-122.7698236276737,53.9059920467685]},"properties":{"OBJECTID":520,"AssetID":"23079","LifeCycleStatus":"ACT","SubType":13,"AssetOwner":1,"AssetManager":13,"Location":"Carrie Jane Gray Park: Jumpstart Park","PrimaryMaterial":null,"SecondaryMaterial":null,"Size_HxWxD_m":null,"gisuid":1000006976,"barcode":"PRK-00006976","GlobalID":"{9C12FCD2-89A9-4002-A446-B4B2763FD0DD}"}},{"type":"Feature","id":521,"geometry":{"type":"Point","coordinates":[-122.7704821897456,53.90586449196271]},"properties":{"OBJECTID":521,"AssetID":"23080","LifeCycleStatus":"ACT","SubType":13,"AssetOwner":1,"AssetManager":13,"Location":"Carrie Jane Gray Park: Jumpstart Park","PrimaryMaterial":null,"SecondaryMaterial":null,"Size_HxWxD_m":null,"gisuid":1000006977,"barcode":"PRK-00006977","GlobalID":"{3E3F29F7-6A25-4752-BB93-109AFC89D45C}"}},{"type":"Feature","id":522,"geometry":{"type":"Point","coordinates":[-122.77041879830233,53.90581019152439]},"properties":{"OBJECTID":522,"AssetID":"23081","LifeCycleStatus":"ACT","SubType":3,"AssetOwner":1,"AssetManager":13,"Location":"Carrie Jane Gray Park: Jumpstart Park","PrimaryMaterial":null,"SecondaryMaterial":null,"Size_HxWxD_m":null,"gisuid":1000006978,"barcode":"PRK-00006978","GlobalID":"{CE3A7B2F-94CC-45DD-BFCA-29AC646E4F9F}"}},{"type":"Feature","id":523,"geometry":{"type":"Point","coordinates":[-122.77032920029171,53.90576119872561]},"properties":{"OBJECTID":523,"AssetID":"23082","LifeCycleStatus":"ACT","SubType":3,"AssetOwner":1,"AssetManager":13,"Location":"Carrie Jane Gray Park: Jumpstart Park","PrimaryMaterial":null,"SecondaryMaterial":null,"Size_HxWxD_m":null,"gisuid":1000006979,"barcode":"PRK-00006979","GlobalID":"{63E5FC01-284F-4826-A175-828E3EE60D96}"}},{"type":"Feature","id":524,"geometry":{"type":"Point","coordinates":[-122.7702340008028,53.905724455783364]},"properties":{"OBJECTID":524,"AssetID":"23083","LifeCycleStatus":"ACT","SubType":13,"AssetOwner":1,"AssetManager":13,"Location":"Carrie Jane Gray Park: Jumpstart Park","PrimaryMaterial":null,"SecondaryMaterial":null,"Size_HxWxD_m":null,"gisuid":1000006980,"barcode":"PRK-00006980","GlobalID":"{7A3BCFA2-A676-4BEE-8089-DD1AFB93E650}"}}]}
