{"type":"FeatureCollection","features":[{"type":"Feature","id":1,"geometry":{"type":"LineString","coordinates":[[-122.75130872837317,53.910877444098375],[-122.75096221993536,53.91108341223093],[-122.75081029457384,53.911179616433905]]},"properties":{"OBJECTID":1,"AssetID":"1","LifeCycleStatus":"ACT","SubType":1,"AssetOwner":1,"AssetManager":13,"Location":"Connaught Hill Park","Material":"Metal","MaxElevation_m":583.291,"MinElevation_m":569.855,"gisuid":1000013385,"barcode":"PRK-00013385","GlobalID":"{CD2FF0E2-1A81-4889-9F49-5E7FD5F7DE8F}"}},{"type":"Feature","id":2,"geometry":{"type":"LineString","coordinates":[[-122.7849041928842,53.88988594178262],[-122.78478066608017,53.889833996572115],[-122.784669586906,53.889827733122395]]},"properties":{"OBJECTID":2,"AssetID":"2","LifeCycleStatus":"ACT","SubType":1,"AssetOwner":1,"AssetManager":13,"Location":"Sycamore Park","Material":"Metal","MaxElevation_m":595.992,"MinElevation_m":590.522,"gisuid":1000013386,"barcode":"PRK-00013386","GlobalID":"{BEC5275C-4A40-48B2-A4C5-D0B1EDADC9DF}"}},{"type":"Feature","id":3,"geometry":{"type":"LineString","coordinates":[[-122.76791057122075,53.96025125829162],[-122.76730010675293,53.96038420098792],[-122.76743914424031,53.96061704725701]]},"properties":{"OBJECTID":3,"AssetID":"3","LifeCycleStatus":"ACT","SubType":3,"AssetOwner":1,"AssetManager":13,"Location":"Hwy 97 & Kenworth Rd","Material":"Concrete","MaxElevation_m":648.047,"MinElevation_m":644.662,"gisuid":1000013387,"barcode":"PRK-00013387","GlobalID":"{CE2659D9-55CC-4981-A343-62B20D934C93}"}},{"type":"Feature","id":4,"geometry":{"type":"LineString","coordinates":[[-122.81378264739212,53.959599965441384],[-122.81321714345486,53.95936246885834]]},"properties":{"OBJECTID":4,"AssetID":"4","LifeCycleStatus":"ACT","SubType":3,"AssetOwner":1,"AssetManager":13,"Location":"Foothill & Meadowbrook Rd","Material":"Concrete","MaxElevation_m":609.949,"MinElevation_m":609.833,"gisuid":1000013388,"barcode":"PRK-00013388","GlobalID":"{4E53CC11-A20C-4B7C-8A21-9EDB2A7B20A1}"}},{"type":"Feature","id":5,"geometry":{"type":"LineString","coordinates":[[-122.76591535702435,53.90253504888443],[-122.76567359085155,53.90232675386241]]},"properties":{"OBJECTID":5,"AssetID":"5","LifeCycleStatus":"ACT","SubType":3,"AssetOwner":1,"AssetManager":13,"Location":"HWY 16 & Heritage River Trail","Material":"Concrete","MaxElevation_m":566.908,"MinElevation_m":566.672,"gisuid":1000013389,"barcode":"PRK-00013389","GlobalID":"{85C8F6D6-A09A-4F5B-A563-121C11AD747E}"}},{"type":"Feature","id":6,"geometry":{"type":"LineString","coordinates":[[-122.77822591445934,53.90035605473962],[-122.77817138047232,53.9003126727621],[-122.77815040259983,53.90031976874856],[-122.77809667383725,53.9002763873257]]},"properties":{"OBJECTID":6,"AssetID":"6","LifeCycleStatus":"ACT","SubType":1,"AssetOwner":1,"AssetManager":13,"Location":"PGSS & Massey Dr","Material":"Concrete","MaxElevation_m":587.549,"MinElevation_m":581.457,"gisuid":1000013390,"barcode":"PRK-00013390","GlobalID":"{22A5E0DB-0959-4EB8-B10A-F991B47D5946}"}},{"type":"Feature","id":8,"geometry":{"type":"LineString","coordinates":[[-122.80868798495692,53.89052070696117],[-122.80848205213707,53.89051695506468]]},"properties":{"OBJECTID":8,"AssetID":"8","LifeCycleStatus":"ACT","SubType":3,"AssetOwner":1,"AssetManager":13,"Location":"University Way","Material":"Metal","MaxElevation_m":741.782,"MinElevation_m":741.576,"gisuid":1000013392,"barcode":"PRK-00013392","GlobalID":"{2E755C73-0AFE-42DD-8DBC-D6DCF23AAB84}"}},{"type":"Feature","id":9,"geometry":{"type":"LineString","coordinates":[[-122.76894425568562,53.86028692441552],[-122.76894713536535,53.8602146355709],[-122.76894824626314,53.86015898937463]]},"properties":{"OBJECTID":9,"AssetID":"9","LifeCycleStatus":"ACT","SubType":1,"AssetOwner":1,"AssetManager":13,"Location":"Parent Rd to Bernard Rd","Material":"Concrete","MaxElevation_m":637.357,"MinElevation_m":631.357,"gisuid":1000013393,"barcode":"PRK-00013393","GlobalID":"{6A5420A5-12A6-4B22-B2DD-0493F8B3C1F7}"}},{"type":"Feature","id":10,"geometry":{"type":"LineString","coordinates":[[-122.76892089620385,53.8596006772813],[-122.76880926083571,53.85960075979409]]},"properties":{"OBJECTID":10,"AssetID":"10","LifeCycleStatus":"ACT","SubType":1,"AssetOwner":1,"AssetManager":13,"Location":"Bernard Rd","Material":"Metal","MaxElevation_m":629.944,"MinElevation_m":626.668,"gisuid":1000013394,"barcode":"PRK-00013394","GlobalID":"{F572F580-5C47-4931-A73B-EAAA2A16115E}"}},{"type":"Feature","id":11,"geometry":{"type":"LineString","coordinates":[[-122.76861364690302,53.85960097693385],[-122.76848039264539,53.85960042244274]]},"properties":{"OBJECTID":11,"AssetID":"11","LifeCycleStatus":"ACT","SubType":1,"AssetOwner":1,"AssetManager":13,"Location":"Bernard Rd","Material":"Metal","MaxElevation_m":626.264,"MinElevation_m":622.65,"gisuid":1000013395,"barcode":"PRK-00013395","GlobalID":"{EC4F8EB7-4158-49F3-8B21-E3E1CA336F41}"}},{"type":"Feature","id":12,"geometry":{"type":"LineString","coordinates":[[-122.76832391484325,53.85960098784014],[-122.76809511439151,53.85960084345864]]},"properties":{"OBJECTID":12,"AssetID":"12","LifeCycleStatus":"ACT","SubType":1,"AssetOwner":1,"AssetManager":13,"Location":"Bernard Rd","Material":"Metal","MaxElevation_m":622.371,"MinElevation_m":616.523,"gisuid":1000013396,"barcode":"PRK-00013396","GlobalID":"{B5702202-269A-4330-8EA4-3345E844675A}"}},{"type":"Feature","id":13,"geometry":{"type":"LineString","coordinates":[[-122.78332078793167,53.88286922424581],[-122.78289501974908,53.88300733663516]]},"properties":{"OBJECTID":13,"AssetID":"13","LifeCycleStatus":"ACT","SubType":3,"AssetOwner":1,"AssetManager":13,"Location":"South Ospika & Range","Material":"Metal","MaxElevation_m":null,"MinElevation_m":null,"gisuid":1000013397,"barcode":"PRK-00013397","GlobalID":"{A5AD899D-EE79-4375-B489-82C3511DD0EC}"}},{"type":"Feature","id":14,"geometry":{"type":"LineString","coordinates":[[-122.74563366126702,53.89897554850484],[-122.74555255766928,53.898936850980796]]},"properties":{"OBJECTID":14,"AssetID":"14","LifeCycleStatus":"ACT","SubType":1,"AssetOwner":1,"AssetManager":13,"Location":"Jasper Park","Material":"Wood","MaxElevation_m":584.071,"MinElevation_m":580.626,"gisuid":1000013398,"barcode":"PRK-00013398","GlobalID":"{C975451B-1587-4BC6-9389-2EE979F8A2DB}"}},{"type":"Feature","id":15,"geometry":{"type":"LineString","coordinates":[[-122.75463518899795,53.90789131683474],[-122.75448948892017,53.907840484445195],[-122.7544895900284,53.90782324281519]]},"properties":{"OBJECTID":15,"AssetID":"15","LifeCycleStatus":"ACT","SubType":1,"AssetOwner":1,"AssetManager":13,"Location":"Ron Brent Park","Material":"Metal","MaxElevation_m":null,"MinElevation_m":null,"gisuid":1000013399,"barcode":"PRK-00013399","GlobalID":"{D0FE40F5-AC94-45C9-811B-F6EA4A609ACC}"}}]}
