{"type":"FeatureCollection","features":[{"type":"Feature","id":1,"geometry":{"type":"Polygon","coordinates":[[[-122.7334288366908,53.90795615584621],[-122.73338886667177,53.90787651985272],[-122.73327517573725,53.90789445926201],[-122.73330438463042,53.90795623633506],[-122.73336661268185,53.907959321328],[-122.7334288366908,53.90795615584621]]]},"properties":{"OBJECTID":1,"AssetID":"1","LifeCycleStatus":"ACT","SubType":13,"AssetOwner":1,"AssetManager":13,"Location":"Lheidli T'enneh Memorial Park","InstallDate":null,"Electrical":1,"Sewer":1,"Storm":0,"Water":1,"Accessibility":1,"ConstructionType":"Poured Concrete","Height_m":null,"gisuid":1000015129,"barcode":"PRK-00015129","GlobalID":"{C36EE0B2-A4C4-4539-9222-C5D914C8D189}"}},{"type":"Feature","id":2,"geometry":{"type":"Polygon","coordinates":[[[-122.73524075062032,53.90594869084642],[-122.73523105864928,53.90592109042576],[-122.7352093000326,53.90592295960613],[-122.73520409964193,53.90590743649529],[-122.73513848021616,53.90591442202483],[-122.7350747276122,53.90590854698615],[-122.73507006770078,53.90592332300948],[-122.73504850591544,53.905921026615964],[-122.73503819202772,53.90594938914042],[-122.73513978559681,53.90595975542957],[-122.73524075062032,53.90594869084642]]]},"properties":{"OBJECTID":2,"AssetID":"2","LifeCycleStatus":"ACT","SubType":13,"AssetOwner":1,"AssetManager":13,"Location":"Lheidli T'enneh Memorial Park","InstallDate":null,"Electrical":1,"Sewer":1,"Storm":0,"Water":1,"Accessibility":0,"ConstructionType":"Cinder Block","Height_m":null,"gisuid":1000015130,"barcode":"PRK-00015130","GlobalID":"{91D5C22E-27AA-4092-80DC-BC7927FC2E2D}"}},{"type":"Feature","id":3,"geometry":{"type":"Polygon","coordinates":[[[-122.73793147975506,53.905017255343836],[-122.73792078496997,53.90498231327519],[-122.73790152456522,53.90498566873392],[-122.73789788284004,53.90497656483851],[-122.73783145092328,53.90498502141557],[-122.73777294572793,53.90497701111082],[-122.73776842739039,53.90498879361673],[-122.73774370729907,53.90498411076309],[-122.73773286156312,53.90501946419441],[-122.73783602982743,53.905029198883476],[-122.73793147975506,53.905017255343836]]]},"properties":{"OBJECTID":3,"AssetID":"3","LifeCycleStatus":"ACT","SubType":13,"AssetOwner":1,"AssetManager":13,"Location":"Gyro Park","InstallDate":null,"Electrical":1,"Sewer":1,"Storm":0,"Water":1,"Accessibility":0,"ConstructionType":"Cinder Block","Height_m":null,"gisuid":1000015131,"barcode":"PRK-00015131","GlobalID":"{145EE282-30BD-4932-A7BD-5116A0891A08}"}},{"type":"Feature","id":5,"geometry":{"type":"Polygon","coordinates":[[[-122.76928733243444,53.906099157658666],[-122.76941581618674,53.90602378053337],[-122.76930624893285,53.905955080904725],[-122.76917776760708,53.90602974426464],[-122.76928733243444,53.906099157658666]]]},"properties":{"OBJECTID":5,"AssetID":"5","LifeCycleStatus":"ACT","SubType":13,"AssetOwner":1,"AssetManager":13,"Location":"Carrie Jane Gray Park - Lacrosse","InstallDate":null,"Electrical":1,"Sewer":1,"Storm":1,"Water":1,"Accessibility":1,"ConstructionType":"Cinder Block","Height_m":null,"gisuid":1000015133,"barcode":"PRK-00015133","GlobalID":"{157B1063-94E6-409A-9839-38EC4B6C28CD}"}},{"type":"Feature","id":6,"geometry":{"type":"Polygon","coordinates":[[[-122.77533020026213,53.913125840691734],[-122.77530828796785,53.91308706111528],[-122.77531961660682,53.91304981777488],[-122.77526337109151,53.91303716518364],[-122.77524407813928,53.913088981250056],[-122.77527053248133,53.91313810561806],[-122.77533020026213,53.913125840691734]]]},"properties":{"OBJECTID":6,"AssetID":"6","LifeCycleStatus":"ACT","SubType":12,"AssetOwner":1,"AssetManager":13,"Location":"Freeman Park","InstallDate":null,"Electrical":1,"Sewer":1,"Storm":0,"Water":1,"Accessibility":0,"ConstructionType":"Cinder Block","Height_m":null,"gisuid":1000015134,"barcode":"PRK-00015134","GlobalID":"{0193A455-1A8D-41DD-BEF1-56926DF68AB9}"}},{"type":"Feature","id":7,"geometry":{"type":"Polygon","coordinates":[[[-122.76038197462883,53.916347806849075],[-122.76038239392516,53.9162745702148],[-122.76032194830245,53.91627461946873],[-122.76032166981446,53.91634770897963],[-122.76038197462883,53.916347806849075]]]},"properties":{"OBJECTID":7,"AssetID":"7","LifeCycleStatus":"ACT","SubType":13,"AssetOwner":1,"AssetManager":13,"Location":"Duchess Park","InstallDate":1502150400000,"Electrical":1,"Sewer":1,"Storm":0,"Water":1,"Accessibility":1,"ConstructionType":"Tilt-Up Walls","Height_m":null,"gisuid":1000015135,"barcode":"PRK-00015135","GlobalID":"{B9FC2680-3255-4293-ABA4-79C9407D6D61}"}},{"type":"Feature","id":8,"geometry":{"type":"Polygon","coordinates":[[[-122.83249667093197,53.894727832649096],[-122.83250525471307,53.89471534758695],[-122.83248411535514,53.894710277575],[-122.83247553309052,53.89472276263776],[-122.83249667093197,53.894727832649096]]]},"properties":{"OBJECTID":8,"AssetID":"8","LifeCycleStatus":"ACT","SubType":9,"AssetOwner":1,"AssetManager":13,"Location":"Forest for the World","InstallDate":null,"Electrical":0,"Sewer":0,"Storm":0,"Water":0,"Accessibility":0,"ConstructionType":"Cinder Block","Height_m":null,"gisuid":1000015136,"barcode":"PRK-00015136","GlobalID":"{02AB57AD-12F3-41E6-A794-B2EAEA6515FF}"}},{"type":"Feature","id":9,"geometry":{"type":"Polygon","coordinates":[[[-122.83928974164576,53.89366289915096],[-122.8392718494871,53.89367126018763],[-122.8392860047887,53.893681828455975],[-122.8393038969491,53.893673467417216],[-122.83928974164576,53.89366289915096]]]},"properties":{"OBJECTID":9,"AssetID":"9","LifeCycleStatus":"ACT","SubType":9,"AssetOwner":1,"AssetManager":13,"Location":"Forest for the World","InstallDate":null,"Electrical":0,"Sewer":0,"Storm":0,"Water":0,"Accessibility":0,"ConstructionType":null,"Height_m":null,"gisuid":1000015137,"barcode":"PRK-00015137","GlobalID":"{6704F1F5-33FE-4002-8875-C2FB2F7BA7C1}"}},{"type":"Feature","id":10,"geometry":{"type":"Polygon","coordinates":[[[-122.84279879562123,54.03704126541825],[-122.84277482063074,54.03703014663666],[-122.84275592975062,54.037044258961764],[-122.8427799062677,54.0370553786479],[-122.84279879562123,54.03704126541825]]]},"properties":{"OBJECTID":10,"AssetID":"10","LifeCycleStatus":"ACT","SubType":9,"AssetOwner":1,"AssetManager":13,"Location":"Ferguson Lake Park","InstallDate":null,"Electrical":0,"Sewer":0,"Storm":0,"Water":0,"Accessibility":1,"ConstructionType":"Tilt-Up Walls","Height_m":null,"gisuid":1000015138,"barcode":"PRK-00015138","GlobalID":"{2A188D48-B0CD-48CE-88F4-6BBD9ABD07F8}"}},{"type":"Feature","id":11,"geometry":{"type":"Polygon","coordinates":[[[-122.82091060770128,53.936386135776715],[-122.8209052837145,53.936373032283974],[-122.82088307507055,53.93637617374076],[-122.82088839904694,53.93638927813327],[-122.82091060770128,53.936386135776715]]]},"properties":{"OBJECTID":11,"AssetID":"11","LifeCycleStatus":"ACT","SubType":9,"AssetOwner":1,"AssetManager":13,"Location":"Moore's Meadow Park","InstallDate":null,"Electrical":0,"Sewer":0,"Storm":0,"Water":0,"Accessibility":0,"ConstructionType":null,"Height_m":null,"gisuid":1000015139,"barcode":"PRK-00015139","GlobalID":"{BED0CC9A-3433-479C-A5D7-E3F97ED4D782}"}},{"type":"Feature","id":12,"geometry":{"type":"Polygon","coordinates":[[[-122.82089384497901,53.9363475854045],[-122.82088852100237,53.93633448191095],[-122.82086631237765,53.93633762336467],[-122.82087163634388,53.936350727758],[-122.82089384497901,53.9363475854045]]]},"properties":{"OBJECTID":12,"AssetID":"12","LifeCycleStatus":"ACT","SubType":9,"AssetOwner":1,"AssetManager":13,"Location":"Moore's Meadow Park","InstallDate":null,"Electrical":0,"Sewer":0,"Storm":0,"Water":0,"Accessibility":0,"ConstructionType":null,"Height_m":null,"gisuid":1000015140,"barcode":"PRK-00015140","GlobalID":"{4BC6D567-12E3-48FE-B0C0-F7A3DA7304B8}"}},{"type":"Feature","id":13,"geometry":{"type":"Polygon","coordinates":[[[-122.79162638036557,53.917543426388015],[-122.79163822638667,53.91755494536616],[-122.79165773930791,53.917547952353914],[-122.7916458932834,53.91753643337768],[-122.79162638036557,53.917543426388015]]]},"properties":{"OBJECTID":13,"AssetID":"13","LifeCycleStatus":"ACT","SubType":9,"AssetOwner":1,"AssetManager":13,"Location":"Rainbow Park","InstallDate":null,"Electrical":0,"Sewer":0,"Storm":0,"Water":0,"Accessibility":0,"ConstructionType":"Cinder Block","Height_m":null,"gisuid":1000015141,"barcode":"PRK-00015141","GlobalID":"{55B27B71-EC66-4D01-887C-5A593E0B9559}"}},{"type":"Feature","id":15,"geometry":{"type":"Polygon","coordinates":[[[-122.79158613863972,53.91745118849817],[-122.79159314705001,53.917464013139984],[-122.79161487169434,53.91745987588417],[-122.7916078632781,53.91744705124359],[-122.79158613863972,53.91745118849817]]]},"properties":{"OBJECTID":15,"AssetID":"14","LifeCycleStatus":"ACT","SubType":9,"AssetOwner":1,"AssetManager":13,"Location":"Rainbow Park","InstallDate":null,"Electrical":0,"Sewer":0,"Storm":0,"Water":0,"Accessibility":0,"ConstructionType":"Cinder Block","Height_m":null,"gisuid":1000015142,"barcode":"PRK-00015142","GlobalID":"{C926F839-E4E4-4A84-9836-D351BDB76D90}"}},{"type":"Feature","id":16,"geometry":{"type":"Polygon","coordinates":[[[-122.64665924988084,53.89793294999284],[-122.64665514470754,53.89794620528068],[-122.64667758831352,53.897948630710026],[-122.64668169500938,53.8979353745271],[-122.64665924988084,53.89793294999284]]]},"properties":{"OBJECTID":16,"AssetID":"15","LifeCycleStatus":"ACT","SubType":9,"AssetOwner":1,"AssetManager":13,"Location":"Bitner Park","InstallDate":null,"Electrical":0,"Sewer":0,"Storm":0,"Water":0,"Accessibility":0,"ConstructionType":"Cinder Block","Height_m":null,"gisuid":1000015143,"barcode":"PRK-00015143","GlobalID":"{46566EB8-0825-46A3-AF78-7165671C348D}"}},{"type":"Feature","id":17,"geometry":{"type":"Polygon","coordinates":[[[-122.64664835570912,53.89796965598761],[-122.64664425052872,53.89798291127499],[-122.64666669415372,53.89798533670637],[-122.64667080085667,53.89797208052392],[-122.64664835570912,53.89796965598761]]]},"properties":{"OBJECTID":17,"AssetID":"16","LifeCycleStatus":"ACT","SubType":9,"AssetOwner":1,"AssetManager":13,"Location":"Bitner Park","InstallDate":null,"Electrical":0,"Sewer":0,"Storm":0,"Water":0,"Accessibility":0,"ConstructionType":"Cinder Block","Height_m":null,"gisuid":1000015144,"barcode":"PRK-00015144","GlobalID":"{25A70480-5583-4F15-BE02-A302704C5522}"}},{"type":"Feature","id":18,"geometry":{"type":"Polygon","coordinates":[[[-122.64645435875204,53.897746854453274],[-122.64655816365675,53.89774489146674],[-122.6465550352313,53.897686406423595],[-122.64645122916964,53.89768834333829],[-122.64645435875204,53.897746854453274]]]},"properties":{"OBJECTID":18,"AssetID":"17","LifeCycleStatus":"ACT","SubType":11,"AssetOwner":1,"AssetManager":13,"Location":"Bitner Park","InstallDate":null,"Electrical":0,"Sewer":0,"Storm":0,"Water":0,"Accessibility":0,"ConstructionType":"Timber","Height_m":null,"gisuid":1000015145,"barcode":"PRK-00015145","GlobalID":"{7081D3C8-A2B0-48F2-A605-D5939A2FD500}"}},{"type":"Feature","id":19,"geometry":{"type":"Polygon","coordinates":[[[-122.74654937291311,53.910297970048745],[-122.7465614378687,53.910286531217075],[-122.74654206562249,53.91027940772376],[-122.7465300006691,53.9102908456547],[-122.74654937291311,53.910297970048745]]]},"properties":{"OBJECTID":19,"AssetID":"18","LifeCycleStatus":"ACT","SubType":9,"AssetOwner":1,"AssetManager":13,"Location":"Connaught Park","InstallDate":null,"Electrical":0,"Sewer":0,"Storm":0,"Water":0,"Accessibility":0,"ConstructionType":"Poured Concrete","Height_m":null,"gisuid":1000015146,"barcode":"PRK-00015146","GlobalID":"{90418A49-C72C-4677-A201-35EA3BB6109A}"}},{"type":"Feature","id":20,"geometry":{"type":"Polygon","coordinates":[[[-122.74647886795255,53.91037459649582],[-122.74648877704661,53.91036245744275],[-122.7464682188087,53.91035660684237],[-122.74645830819321,53.910368744991715],[-122.74647886795255,53.91037459649582]]]},"properties":{"OBJECTID":20,"AssetID":"19","LifeCycleStatus":"ACT","SubType":9,"AssetOwner":1,"AssetManager":13,"Location":"Connaught Park","InstallDate":null,"Electrical":0,"Sewer":0,"Storm":0,"Water":0,"Accessibility":0,"ConstructionType":"Poured Concrete","Height_m":null,"gisuid":1000015147,"barcode":"PRK-00015147","GlobalID":"{C7755F3A-581A-4E2B-B17A-7AA4E796465F}"}},{"type":"Feature","id":21,"geometry":{"type":"Polygon","coordinates":[[[-122.73173954432748,53.92224447018573],[-122.73175087681328,53.922227794774656],[-122.73172262582331,53.92222110477169],[-122.73171129180535,53.922237780176715],[-122.73173954432748,53.92224447018573]]]},"properties":{"OBJECTID":21,"AssetID":"20","LifeCycleStatus":"ACT","SubType":9,"AssetOwner":1,"AssetManager":13,"Location":"Cottonwood Island Nature Park","InstallDate":null,"Electrical":0,"Sewer":0,"Storm":0,"Water":0,"Accessibility":1,"ConstructionType":"Tilt-Up Walls","Height_m":null,"gisuid":1000015148,"barcode":"PRK-00015148","GlobalID":"{FB5EC675-286C-49D0-8F9F-DD687B63B4C2}"}},{"type":"Feature","id":22,"geometry":{"type":"Polygon","coordinates":[[[-122.73952949310988,53.926079561061],[-122.73952544409836,53.92609736840701],[-122.73955561560597,53.92609975724902],[-122.73955966460497,53.926081949902006],[-122.73952949310988,53.926079561061]]]},"properties":{"OBJECTID":22,"AssetID":"21","LifeCycleStatus":"ACT","SubType":9,"AssetOwner":1,"AssetManager":13,"Location":"Kiwanis Park","InstallDate":null,"Electrical":0,"Sewer":0,"Storm":0,"Water":0,"Accessibility":1,"ConstructionType":"Tilt-Up Walls","Height_m":null,"gisuid":1000015149,"barcode":"PRK-00015149","GlobalID":"{2ABA2614-5383-4A0B-B47F-5780629E55BF}"}},{"type":"Feature","id":23,"geometry":{"type":"Polygon","coordinates":[[[-122.72155167761852,53.906140427508255],[-122.72152885641769,53.90614037458649],[-122.72152876679617,53.90615384932505],[-122.7215515880043,53.90615390224683],[-122.72155167761852,53.906140427508255]]]},"properties":{"OBJECTID":23,"AssetID":"22","LifeCycleStatus":"ACT","SubType":9,"AssetOwner":1,"AssetManager":13,"Location":"L C Gunn Park","InstallDate":null,"Electrical":0,"Sewer":0,"Storm":0,"Water":0,"Accessibility":0,"ConstructionType":"Wood Board","Height_m":null,"gisuid":1000015150,"barcode":"PRK-00015150","GlobalID":"{8659DA48-2C09-4A39-BC3E-62AA9C12DC57}"}},{"type":"Feature","id":24,"geometry":{"type":"Polygon","coordinates":[[[-122.79806105527877,53.9366887642697],[-122.79804848485557,53.93667751439066],[-122.79802941900066,53.936684931614145],[-122.79804198942095,53.93669618149518],[-122.79806105527877,53.9366887642697]]]},"properties":{"OBJECTID":24,"AssetID":"23","LifeCycleStatus":"ACT","SubType":9,"AssetOwner":1,"AssetManager":13,"Location":"Wilson Park","InstallDate":null,"Electrical":0,"Sewer":0,"Storm":0,"Water":0,"Accessibility":0,"ConstructionType":"Cinder Block","Height_m":null,"gisuid":1000015151,"barcode":"PRK-00015151","GlobalID":"{EC8BD1D2-081E-4053-BF2D-14F7989E3E54}"}},{"type":"Feature","id":25,"geometry":{"type":"Polygon","coordinates":[[[-122.80344958193893,53.95106154316222],[-122.80372253398569,53.951023161211204],[-122.80368364204921,53.95092691699724],[-122.80341067535798,53.95096529883611],[-122.80344958193893,53.95106154316222]]]},"properties":{"OBJECTID":25,"AssetID":"24","LifeCycleStatus":"ACT","SubType":13,"AssetOwner":1,"AssetManager":13,"Location":"North Nechahko","InstallDate":null,"Electrical":1,"Sewer":1,"Storm":1,"Water":1,"Accessibility":1,"ConstructionType":"Cinder Block","Height_m":null,"gisuid":1000015152,"barcode":"PRK-00015152","GlobalID":"{E4E223B3-9D21-4BAC-A26E-F1F617EF229A}"}},{"type":"Feature","id":26,"geometry":{"type":"Polygon","coordinates":[[[-122.64199142432598,53.896590411479984],[-122.64222502761754,53.89659144036695],[-122.6422209259517,53.89646411132899],[-122.64199227686272,53.89646574870293],[-122.64199142432598,53.896590411479984]]]},"properties":{"OBJECTID":26,"AssetID":"25","LifeCycleStatus":"ACT","SubType":13,"AssetOwner":1,"AssetManager":13,"Location":"Blackburn Park","InstallDate":null,"Electrical":1,"Sewer":1,"Storm":1,"Water":1,"Accessibility":1,"ConstructionType":"Cinder Block","Height_m":null,"gisuid":1000015153,"barcode":"PRK-00015153","GlobalID":"{B68FD1DF-0621-407C-887A-F00119767095}"}},{"type":"Feature","id":27,"geometry":{"type":"Polygon","coordinates":[[[-122.7502687275049,53.912677232446114],[-122.75023061700271,53.91266790445731],[-122.75023779408627,53.91265148019521],[-122.75006994682498,53.91266499059626],[-122.75007437063964,53.91269329696718],[-122.7500742249567,53.9127219465666],[-122.750069513503,53.91275020648476],[-122.75006035680627,53.91277735378067],[-122.75004698911172,53.91280269397627],[-122.75002975238972,53.91282557882246],[-122.75000908758753,53.91284542288255],[-122.749985523349,53.912861718508736],[-122.74995966249097,53.912874048828776],[-122.74993216658203,53.91288209841026],[-122.74990373901841,53.912885661329994],[-122.74998974105762,53.91295921905],[-122.75001051746196,53.91295228755634],[-122.75003958700144,53.91295875656457],[-122.7502687275049,53.912677232446114]]]},"properties":{"OBJECTID":27,"AssetID":"26","LifeCycleStatus":"ACT","SubType":13,"AssetOwner":1,"AssetManager":13,"Location":"Canada Games Plaza","InstallDate":null,"Electrical":1,"Sewer":1,"Storm":1,"Water":1,"Accessibility":1,"ConstructionType":"Cinder Block","Height_m":null,"gisuid":1000015154,"barcode":"PRK-00015154","GlobalID":"{1B2788B7-0909-42EB-9CCE-CF6115C3A63D}"}},{"type":"Feature","id":28,"geometry":{"type":"Polygon","coordinates":[[[-122.79520294831927,53.98587643240935],[-122.79512247255695,53.98583051779388],[-122.79497474560378,53.985921820802055],[-122.79505623526452,53.985966549036796],[-122.79520294831927,53.98587643240935]]]},"properties":{"OBJECTID":28,"AssetID":"27","LifeCycleStatus":"ACT","SubType":3,"AssetOwner":1,"AssetManager":13,"Location":"Balsum Park","InstallDate":null,"Electrical":null,"Sewer":null,"Storm":null,"Water":null,"Accessibility":null,"ConstructionType":null,"Height_m":null,"gisuid":1000015155,"barcode":"PRK-00015155","GlobalID":"{5BBDEAC1-7D57-444F-B427-F308031D2492}"}},{"type":"Feature","id":29,"geometry":{"type":"Polygon","coordinates":[[[-122.72173362988069,53.91832396443218],[-122.7216278053359,53.91824452797082],[-122.72151632576947,53.91828850252155],[-122.72162091282357,53.91837221633245],[-122.72173362988069,53.91832396443218]]]},"properties":{"OBJECTID":29,"AssetID":"28","LifeCycleStatus":"ACT","SubType":11,"AssetOwner":1,"AssetManager":13,"Location":"Cottonwood Island Park","InstallDate":null,"Electrical":0,"Sewer":0,"Storm":0,"Water":0,"Accessibility":1,"ConstructionType":"Timber","Height_m":null,"gisuid":1000015156,"barcode":"PRK-00015156","GlobalID":"{EF873939-93D2-423A-B6D3-3FE1915EA917}"}},{"type":"Feature","id":30,"geometry":{"type":"Polygon","coordinates":[[[-122.73142328239547,53.92249254669513],[-122.731568754344,53.922519625791594],[-122.73160543817795,53.922453715609485],[-122.73145995498466,53.92242842066262],[-122.73142328239547,53.92249254669513]]]},"properties":{"OBJECTID":30,"AssetID":"29","LifeCycleStatus":"ACT","SubType":11,"AssetOwner":1,"AssetManager":13,"Location":"Cottonwood Island Park","InstallDate":null,"Electrical":0,"Sewer":0,"Storm":0,"Water":0,"Accessibility":1,"ConstructionType":"Timber","Height_m":null,"gisuid":1000015157,"barcode":"PRK-00015157","GlobalID":"{17C98929-CA57-47AA-B04A-85ACF411A62E}"}},{"type":"Feature","id":31,"geometry":{"type":"Polygon","coordinates":[[[-122.77564565008235,53.913121379147086],[-122.77554938443446,53.913059729854105],[-122.7754907072878,53.91309481475335],[-122.7754380750909,53.913126285140606],[-122.77553507081178,53.91318238125996],[-122.77558091890181,53.91315522411045],[-122.77559105744722,53.91316386261522],[-122.775629376264,53.91313404259298],[-122.77564565008235,53.913121379147086]]]},"properties":{"OBJECTID":31,"AssetID":"30","LifeCycleStatus":"ACT","SubType":3,"AssetOwner":1,"AssetManager":13,"Location":"Freeman Park","InstallDate":null,"Electrical":null,"Sewer":null,"Storm":null,"Water":null,"Accessibility":null,"ConstructionType":null,"Height_m":null,"gisuid":1000015158,"barcode":"PRK-00015158","GlobalID":"{4A2C3597-D71A-4902-833A-87085F5799EE}"}},{"type":"Feature","id":32,"geometry":{"type":"Polygon","coordinates":[[[-122.77504789932179,53.9131342265797],[-122.77501608305698,53.91315200290177],[-122.77505322369126,53.91317406987951],[-122.77508605424167,53.913154808820636],[-122.77504789932179,53.9131342265797]]]},"properties":{"OBJECTID":32,"AssetID":"31","LifeCycleStatus":"ACT","SubType":3,"AssetOwner":1,"AssetManager":13,"Location":"Freeman Park","InstallDate":null,"Electrical":null,"Sewer":null,"Storm":null,"Water":null,"Accessibility":null,"ConstructionType":null,"Height_m":null,"gisuid":1000015159,"barcode":"PRK-00015159","GlobalID":"{3F4BFF13-891E-4D2D-A8C4-3E7583241033}"}},{"type":"Feature","id":33,"geometry":{"type":"Polygon","coordinates":[[[-122.77525918562361,53.91295472776396],[-122.77526158228909,53.91302156753524],[-122.77533462811743,53.91302132671505],[-122.77533197330297,53.91295434265322],[-122.77525918562361,53.91295472776396]]]},"properties":{"OBJECTID":33,"AssetID":"32","LifeCycleStatus":"ACT","SubType":12,"AssetOwner":1,"AssetManager":13,"Location":"Freeman Park","InstallDate":null,"Electrical":null,"Sewer":null,"Storm":null,"Water":null,"Accessibility":null,"ConstructionType":null,"Height_m":null,"gisuid":1000015160,"barcode":"PRK-00015160","GlobalID":"{4549DA48-CA9D-4315-93DB-B30D1D9E0DFF}"}},{"type":"Feature","id":35,"geometry":{"type":"Polygon","coordinates":[[[-122.77519428318386,53.91221824064964],[-122.77515459035679,53.9122502986906],[-122.77526932503345,53.912299651241774],[-122.77530875993631,53.912267421907266],[-122.77519428318386,53.91221824064964]]]},"properties":{"OBJECTID":35,"AssetID":"34","LifeCycleStatus":"ACT","SubType":4,"AssetOwner":1,"AssetManager":13,"Location":"Freeman Park","InstallDate":null,"Electrical":null,"Sewer":null,"Storm":null,"Water":null,"Accessibility":null,"ConstructionType":null,"Height_m":null,"gisuid":1000015162,"barcode":"PRK-00015162","GlobalID":"{6A371ECB-7E61-419B-A9F8-B34AF27F40EC}"}},{"type":"Feature","id":36,"geometry":{"type":"Polygon","coordinates":[[[-122.77201161552607,53.90157812009768],[-122.77185413636546,53.90157810859966],[-122.77172343627214,53.90150413989613],[-122.77172525990679,53.901409714513974],[-122.771595923603,53.90140953147468],[-122.77159727207197,53.90150273152119],[-122.771643691343,53.90156711160151],[-122.77174800791667,53.90162851882261],[-122.77185779631256,53.901655008641555],[-122.77201131023246,53.90165655855661],[-122.77201161552607,53.90157812009768]]]},"properties":{"OBJECTID":36,"AssetID":"35","LifeCycleStatus":"ACT","SubType":6,"AssetOwner":1,"AssetManager":13,"Location":"Carrie Jane Gray Park: Citizen Field","InstallDate":null,"Electrical":1,"Sewer":1,"Storm":1,"Water":1,"Accessibility":0,"ConstructionType":"Poured Concrete","Height_m":null,"gisuid":1000015163,"barcode":"PRK-00015163","GlobalID":"{FFB7116A-EC7A-478B-8606-FFB28ADC29C6}"}},{"type":"Feature","id":37,"geometry":{"type":"Polygon","coordinates":[[[-122.77003939739205,53.90126336231615],[-122.76993458032833,53.901218877215335],[-122.76988684806382,53.90125827042032],[-122.76999129961011,53.90130280879083],[-122.77003939739205,53.90126336231615]]]},"properties":{"OBJECTID":37,"AssetID":"36","LifeCycleStatus":"ACT","SubType":3,"AssetOwner":1,"AssetManager":13,"Location":"Carrie Jane Gray Park: Ron Wiley Field","InstallDate":null,"Electrical":null,"Sewer":null,"Storm":null,"Water":null,"Accessibility":null,"ConstructionType":null,"Height_m":null,"gisuid":1000015164,"barcode":"PRK-00015164","GlobalID":"{56059FDC-8D13-4270-8E58-6018C020A3F9}"}},{"type":"Feature","id":38,"geometry":{"type":"Polygon","coordinates":[[[-122.76966722695651,53.903446072742426],[-122.76965538054517,53.90340324426227],[-122.76951193373215,53.90341818852231],[-122.76952297484598,53.9034610154709],[-122.76966722695651,53.903446072742426]]]},"properties":{"OBJECTID":38,"AssetID":"37","LifeCycleStatus":"ACT","SubType":3,"AssetOwner":1,"AssetManager":13,"Location":"Carrie Jane Gray: Rotary Field","InstallDate":null,"Electrical":null,"Sewer":null,"Storm":null,"Water":null,"Accessibility":null,"ConstructionType":null,"Height_m":null,"gisuid":1000015165,"barcode":"PRK-00015165","GlobalID":"{E1FD613D-AC74-4670-8072-4AC3CB536D77}"}},{"type":"Feature","id":39,"geometry":{"type":"Polygon","coordinates":[[[-122.7670812646605,53.90311014309399],[-122.76704026666623,53.903096271341845],[-122.76704351392101,53.903091758432176],[-122.76699044986323,53.90307477135142],[-122.76695762768367,53.90311133051011],[-122.76705653145925,53.90314053506561],[-122.7670812646605,53.90311014309399]]]},"properties":{"OBJECTID":39,"AssetID":"38","LifeCycleStatus":"ACT","SubType":3,"AssetOwner":1,"AssetManager":13,"Location":"Carrie Jane Gray: Minor Girls Field","InstallDate":null,"Electrical":null,"Sewer":null,"Storm":null,"Water":null,"Accessibility":null,"ConstructionType":null,"Height_m":null,"gisuid":1000015166,"barcode":"PRK-00015166","GlobalID":"{02558E74-A7DB-403D-89AD-F6BC3FB8EB67}"}},{"type":"Feature","id":40,"geometry":{"type":"Polygon","coordinates":[[[-122.76758929292059,53.90403477728083],[-122.76750708564265,53.9041061093629],[-122.76759928493279,53.90414316595523],[-122.76768147695607,53.90407182479296],[-122.76758929292059,53.90403477728083]]]},"properties":{"OBJECTID":40,"AssetID":"39","LifeCycleStatus":"ACT","SubType":3,"AssetOwner":1,"AssetManager":13,"Location":"Carrie Jane Gray: Spruce City Mens","InstallDate":null,"Electrical":null,"Sewer":null,"Storm":null,"Water":null,"Accessibility":null,"ConstructionType":null,"Height_m":null,"gisuid":1000015167,"barcode":"PRK-00015167","GlobalID":"{701C0B96-4107-48FA-BF49-E5D0E217A7CB}"}},{"type":"Feature","id":42,"geometry":{"type":"Polygon","coordinates":[[[-122.76729682125341,53.90388798368684],[-122.76734618506397,53.90388191351583],[-122.7673097282577,53.903778443943835],[-122.76726036456388,53.903784514100074],[-122.76729682125341,53.90388798368684]]]},"properties":{"OBJECTID":42,"AssetID":"40","LifeCycleStatus":"ACT","SubType":12,"AssetOwner":1,"AssetManager":13,"Location":"Carrie Jane Gray: Spruce City Mens","InstallDate":null,"Electrical":null,"Sewer":0,"Storm":0,"Water":0,"Accessibility":null,"ConstructionType":null,"Height_m":null,"gisuid":1000015168,"barcode":"PRK-00015168","GlobalID":"{B607E877-1139-4178-89DE-6E9F5BAE1B4D}"}},{"type":"Feature","id":43,"geometry":{"type":"Polygon","coordinates":[[[-122.78859740352017,53.91608634773082],[-122.7885632556749,53.91606486007329],[-122.78850023024147,53.9160997665852],[-122.78853465217713,53.916121245755086],[-122.78859740352017,53.91608634773082]]]},"properties":{"OBJECTID":43,"AssetID":"41","LifeCycleStatus":"ACT","SubType":3,"AssetOwner":1,"AssetManager":13,"Location":"Harry Loder Park","InstallDate":null,"Electrical":null,"Sewer":null,"Storm":null,"Water":null,"Accessibility":null,"ConstructionType":null,"Height_m":null,"gisuid":1000015169,"barcode":"PRK-00015169","GlobalID":"{71B8B3BA-D1CE-44FB-9CE3-DE6859DC6892}"}},{"type":"Feature","id":44,"geometry":{"type":"Polygon","coordinates":[[[-122.83589875280173,53.89128683955083],[-122.8357726026166,53.891255037061185],[-122.83573561458344,53.89130920892557],[-122.83586130128805,53.891340890379645],[-122.83589875280173,53.89128683955083]]]},"properties":{"OBJECTID":44,"AssetID":"42","LifeCycleStatus":"ACT","SubType":11,"AssetOwner":1,"AssetManager":13,"Location":"Forest for the World","InstallDate":null,"Electrical":0,"Sewer":0,"Storm":0,"Water":null,"Accessibility":0,"ConstructionType":"Timber","Height_m":null,"gisuid":1000015170,"barcode":"PRK-00015170","GlobalID":"{DBC5A022-62F2-4811-AB87-CF446A229D40}"}},{"type":"Feature","id":45,"geometry":{"type":"Polygon","coordinates":[[[-122.73134313672541,53.907690799208076],[-122.73129450492577,53.907708420294284],[-122.73126779738271,53.907734817859726],[-122.73126458348175,53.907768337129106],[-122.73129702586347,53.90779591057753],[-122.73134787771482,53.907812122019784],[-122.73140776785961,53.907811109114455],[-122.73137796474508,53.90773872070884],[-122.73134313672541,53.907690799208076]]]},"properties":{"OBJECTID":45,"AssetID":"43","LifeCycleStatus":"ACT","SubType":1,"AssetOwner":1,"AssetManager":13,"Location":"Lheidli T'enneh Memorial Park","InstallDate":null,"Electrical":1,"Sewer":0,"Storm":0,"Water":0,"Accessibility":0,"ConstructionType":null,"Height_m":null,"gisuid":1000015171,"barcode":"PRK-00015171","GlobalID":"{7F1CEB32-B5B1-4811-8256-63BDE01678E3}"}},{"type":"Feature","id":46,"geometry":{"type":"Polygon","coordinates":[[[-122.738106000985,53.90495453073423],[-122.73801570830419,53.90490368588442],[-122.737971299726,53.90492699397044],[-122.73804979801969,53.904982397050006],[-122.738106000985,53.90495453073423]]]},"properties":{"OBJECTID":46,"AssetID":"44","LifeCycleStatus":"ACT","SubType":3,"AssetOwner":1,"AssetManager":13,"Location":"Gyro Park","InstallDate":null,"Electrical":null,"Sewer":null,"Storm":null,"Water":null,"Accessibility":null,"ConstructionType":null,"Height_m":null,"gisuid":1000015172,"barcode":"PRK-00015172","GlobalID":"{F6BECD4A-F52A-41AB-8DEF-82535DC54C7E}"}},{"type":"Feature","id":48,"geometry":{"type":"Polygon","coordinates":[[[-122.73468522632763,53.90635409839239],[-122.7346573634493,53.90630219443344],[-122.73465905805064,53.90627381805337],[-122.73466255490187,53.90624560701562],[-122.73452932148916,53.90617064039926],[-122.73451375467114,53.90619406740602],[-122.73450226559022,53.90621974135174],[-122.7344951690349,53.90624695879784],[-122.7344926594432,53.90627497401546],[-122.73449480557522,53.9063030194177],[-122.73450154862928,53.906330326590584],[-122.7345127038529,53.90635614734688],[-122.73452796560491,53.90637977422552],[-122.73454691572968,53.90640055987539],[-122.7345690350141,53.90641793479195],[-122.73459371741352,53.90643142292112],[-122.73468522632763,53.90635409839239]]]},"properties":{"OBJECTID":48,"AssetID":"45","LifeCycleStatus":"ACT","SubType":11,"AssetOwner":1,"AssetManager":13,"Location":"Lheidli T'enneh Memorial Park","InstallDate":null,"Electrical":1,"Sewer":0,"Storm":1,"Water":0,"Accessibility":1,"ConstructionType":"Supreme Steel Framing","Height_m":null,"gisuid":1000015173,"barcode":"PRK-00015173","GlobalID":"{BEE82750-2371-49A5-BEE5-C89D75EB5FCE}"}},{"type":"Feature","id":54,"geometry":{"type":"Polygon","coordinates":[[[-122.72155241471737,53.90610535229246],[-122.72152959353566,53.90610529937086],[-122.7215295039145,53.9061187741095],[-122.7215523251035,53.906118827031115],[-122.72155241471737,53.90610535229246]]]},"properties":{"OBJECTID":54,"AssetID":"46","LifeCycleStatus":"ACT","SubType":9,"AssetOwner":1,"AssetManager":13,"Location":"L C Gunn Park","InstallDate":null,"Electrical":0,"Sewer":0,"Storm":0,"Water":0,"Accessibility":0,"ConstructionType":"Wood Board","Height_m":null,"gisuid":1000015174,"barcode":"PRK-00015174","GlobalID":"{BE4CF67B-C55A-4DEB-B04D-B3F696A3F4E6}"}},{"type":"Feature","id":55,"geometry":{"type":"Polygon","coordinates":[[[-122.83206598888036,53.89450865330622],[-122.83210623301474,53.89443482750433],[-122.8319842436422,53.894411512527775],[-122.83194167555753,53.894484223209716],[-122.83206598888036,53.89450865330622]]]},"properties":{"OBJECTID":55,"AssetID":"47","LifeCycleStatus":"ACT","SubType":11,"AssetOwner":1,"AssetManager":13,"Location":"Forest for the World","InstallDate":null,"Electrical":0,"Sewer":0,"Storm":0,"Water":0,"Accessibility":0,"ConstructionType":"Timber","Height_m":null,"gisuid":1000015175,"barcode":"PRK-00015175","GlobalID":"{3205ED10-0BEC-47BF-A507-F6178E624D71}"}},{"type":"Feature","id":56,"geometry":{"type":"Polygon","coordinates":[[[-122.7938521686561,53.918591636954574],[-122.79383131817656,53.91857186248845],[-122.79378619651457,53.918572380029126],[-122.7937653355233,53.91859553070045],[-122.79378518096364,53.91861470844281],[-122.79382989836637,53.91861466567676],[-122.7938521686561,53.918591636954574]]]},"properties":{"OBJECTID":56,"AssetID":"48","LifeCycleStatus":"ACT","SubType":5,"AssetOwner":1,"AssetManager":13,"Location":"Rainbow Park","InstallDate":null,"Electrical":null,"Sewer":null,"Storm":null,"Water":null,"Accessibility":null,"ConstructionType":null,"Height_m":null,"gisuid":1000015176,"barcode":"PRK-00015176","GlobalID":"{FF291AB5-3181-4498-8407-817E7562C85A}"}},{"type":"Feature","id":57,"geometry":{"type":"Polygon","coordinates":[[[-122.73632920464762,53.89888684519968],[-122.7363943120895,53.89887866158273],[-122.73643013536723,53.89884630846862],[-122.73641602232655,53.89880917102008],[-122.73636352758463,53.898788464033736],[-122.73629910274425,53.89879605861505],[-122.73626180295342,53.89882723999431],[-122.73627615288996,53.898866130660615],[-122.73632920464762,53.89888684519968]]]},"properties":{"OBJECTID":57,"AssetID":"49","LifeCycleStatus":"ACT","SubType":5,"AssetOwner":1,"AssetManager":13,"Location":"Paddlewheel Park","InstallDate":null,"Electrical":null,"Sewer":null,"Storm":null,"Water":null,"Accessibility":null,"ConstructionType":null,"Height_m":null,"gisuid":1000015177,"barcode":"PRK-00015177","GlobalID":"{1FA5F764-D166-4AE0-B9FB-FB2029AF9BDD}"}},{"type":"Feature","id":58,"geometry":{"type":"Polygon","coordinates":[[[-122.76458038789535,53.92213867559691],[-122.76452995710609,53.922159977298726],[-122.76453327251242,53.922195891090254],[-122.7645898115313,53.9222094121082],[-122.76463283889264,53.92219134954973],[-122.76463045680522,53.922154628664885],[-122.76458038789535,53.92213867559691]]]},"properties":{"OBJECTID":58,"AssetID":"50","LifeCycleStatus":"ACT","SubType":5,"AssetOwner":1,"AssetManager":13,"Location":"Watrous Park","InstallDate":null,"Electrical":null,"Sewer":null,"Storm":null,"Water":null,"Accessibility":null,"ConstructionType":null,"Height_m":null,"gisuid":1000015178,"barcode":"PRK-00015178","GlobalID":"{6FF90167-3C8E-4995-ABC3-3487888A22F2}"}},{"type":"Feature","id":59,"geometry":{"type":"Polygon","coordinates":[[[-122.81229110052016,53.99386703136759],[-122.81229133047982,53.99381590382042],[-122.81224693729219,53.99381583448569],[-122.81224771704743,53.993866963610024],[-122.81229110052016,53.99386703136759]]]},"properties":{"OBJECTID":59,"AssetID":"51","LifeCycleStatus":"ACT","SubType":12,"AssetOwner":1,"AssetManager":13,"Location":"Volunteer Park","InstallDate":null,"Electrical":null,"Sewer":null,"Storm":null,"Water":null,"Accessibility":null,"ConstructionType":null,"Height_m":null,"gisuid":1000015179,"barcode":"PRK-00015179","GlobalID":"{FB6DFA18-6F4C-4AEF-9241-4F4B0D1EF59B}"}},{"type":"Feature","id":60,"geometry":{"type":"Polygon","coordinates":[[[-122.81242444278857,53.99313331922211],[-122.81242462169652,53.99309351280159],[-122.81238022927694,53.993093443516706],[-122.8123810600782,53.99313325151326],[-122.81242444278857,53.99313331922211]]]},"properties":{"OBJECTID":60,"AssetID":"52","LifeCycleStatus":"ACT","SubType":12,"AssetOwner":1,"AssetManager":13,"Location":"Volunteer Park","InstallDate":null,"Electrical":null,"Sewer":null,"Storm":null,"Water":null,"Accessibility":null,"ConstructionType":null,"Height_m":null,"gisuid":1000015180,"barcode":"PRK-00015180","GlobalID":"{83CD9EFC-7661-4562-8872-3D0923C6473F}"}},{"type":"Feature","id":61,"geometry":{"type":"Polygon","coordinates":[[[-122.81249316084734,53.993481745162626],[-122.81232273371134,53.993383879114354],[-122.81215803773377,53.99348364865622],[-122.81232834326835,53.99358142486708],[-122.81249316084734,53.993481745162626]]]},"properties":{"OBJECTID":61,"AssetID":"53","LifeCycleStatus":"ACT","SubType":3,"AssetOwner":1,"AssetManager":13,"Location":"Volunteer Park","InstallDate":null,"Electrical":1,"Sewer":null,"Storm":null,"Water":null,"Accessibility":null,"ConstructionType":null,"Height_m":null,"gisuid":1000015181,"barcode":"PRK-00015181","GlobalID":"{17660D45-35A3-451B-B4CE-49B82A9F9B7E}"}},{"type":"Feature","id":62,"geometry":{"type":"Polygon","coordinates":[[[-122.80537082211413,53.909352047194716],[-122.8053755829851,53.90915640260302],[-122.80529413025187,53.909155740265064],[-122.80529558567122,53.90909483047309],[-122.80518437401439,53.909093958020144],[-122.80518287326557,53.90915803153809],[-122.80510595702462,53.90915733149185],[-122.80510105748137,53.909349794071936],[-122.80537082211413,53.909352047194716]]]},"properties":{"OBJECTID":62,"AssetID":"54","LifeCycleStatus":"ACT","SubType":3,"AssetOwner":1,"AssetManager":13,"Location":"Exhibition Park: Glen Thompson Fields","InstallDate":null,"Electrical":1,"Sewer":1,"Storm":1,"Water":null,"Accessibility":0,"ConstructionType":"Cinder Block","Height_m":null,"gisuid":1000015182,"barcode":"PRK-00015182","GlobalID":"{8FE9A7AE-921C-4268-A863-A98A17D28A5A}"}},{"type":"Feature","id":63,"geometry":{"type":"Polygon","coordinates":[[[-122.76493340353339,53.86023620652159],[-122.7648777339301,53.86020181666535],[-122.76479345988362,53.860249540405036],[-122.7648487793206,53.86028401050736],[-122.76493340353339,53.86023620652159]]]},"properties":{"OBJECTID":63,"AssetID":"55","LifeCycleStatus":"ACT","SubType":12,"AssetOwner":0,"AssetManager":13,"Location":"College Heights Secondary Ball Diamonds","InstallDate":null,"Electrical":0,"Sewer":0,"Storm":0,"Water":0,"Accessibility":0,"ConstructionType":null,"Height_m":null,"gisuid":1000015183,"barcode":"PRK-00015183","GlobalID":"{712071E9-4E86-4958-8DD9-57252A5711C0}"}},{"type":"Feature","id":64,"geometry":{"type":"Polygon","coordinates":[[[-122.76444849267672,53.86048520727739],[-122.76435095555436,53.86048752350068],[-122.76435457397362,53.86054360048691],[-122.76445237963914,53.860543035679385],[-122.76444849267672,53.86048520727739]]]},"properties":{"OBJECTID":64,"AssetID":"56","LifeCycleStatus":"ACT","SubType":4,"AssetOwner":0,"AssetManager":13,"Location":"College Heights Secondary Ball Diamonds","InstallDate":null,"Electrical":1,"Sewer":null,"Storm":null,"Water":null,"Accessibility":null,"ConstructionType":null,"Height_m":null,"gisuid":1000015184,"barcode":"PRK-00015184","GlobalID":"{EA433BE0-319B-4B46-9ADD-32E6CE209245}"}},{"type":"Feature","id":65,"geometry":{"type":"Polygon","coordinates":[[[-122.77600302144708,53.90380604895997],[-122.7754011163722,53.90430379918395],[-122.77552479454832,53.90435600853769],[-122.77612703361322,53.903858285285686],[-122.77600302144708,53.90380604895997]]]},"properties":{"OBJECTID":65,"AssetID":"57","LifeCycleStatus":"ACT","SubType":6,"AssetOwner":1,"AssetManager":13,"Location":"Masich Place Stadium","InstallDate":null,"Electrical":1,"Sewer":1,"Storm":1,"Water":1,"Accessibility":1,"ConstructionType":"Cinder Block","Height_m":null,"gisuid":1000015185,"barcode":"PRK-00015185","GlobalID":"{964FA062-23D0-46E1-B9F0-3BDE45C70778}"}},{"type":"Feature","id":66,"geometry":{"type":"Polygon","coordinates":[[[-122.80356711740713,53.95073270240883],[-122.80358634960294,53.950673853412475],[-122.80347156478278,53.95066079487134],[-122.80345231723614,53.95071963483647],[-122.80356711740713,53.95073270240883]]]},"properties":{"OBJECTID":66,"AssetID":"58","LifeCycleStatus":"ACT","SubType":11,"AssetOwner":1,"AssetManager":13,"Location":"Nechako Park","InstallDate":null,"Electrical":0,"Sewer":0,"Storm":0,"Water":0,"Accessibility":1,"ConstructionType":null,"Height_m":null,"gisuid":1000015186,"barcode":"PRK-00015186","GlobalID":"{519A3F6D-C179-4410-AE2E-A999205F37AE}"}},{"type":"Feature","id":67,"geometry":{"type":"Polygon","coordinates":[[[-122.8005696887608,53.90869007173543],[-122.80056779245466,53.908653559038925],[-122.80058523893807,53.90865321051363],[-122.80058335383691,53.90861434296095],[-122.80056344085551,53.908614795246415],[-122.80055917827906,53.908525392804506],[-122.80041651847989,53.90852780726209],[-122.80042070098749,53.90861478279678],[-122.80040702967325,53.908615128584984],[-122.80040897443878,53.90865741170698],[-122.80042176210564,53.90865722623521],[-122.80042334401602,53.90869260591456],[-122.8005696887608,53.90869007173543]]]},"properties":{"OBJECTID":67,"AssetID":"59","LifeCycleStatus":"ACT","SubType":4,"AssetOwner":1,"AssetManager":0,"Location":"Exhibition Park: Rotary Fields","InstallDate":null,"Electrical":1,"Sewer":1,"Storm":1,"Water":1,"Accessibility":null,"ConstructionType":"Cinder Block","Height_m":null,"gisuid":1000015187,"barcode":"PRK-00015187","GlobalID":"{B4E33F0D-4EAC-431B-AB3F-E2563BF202EE}"}},{"type":"Feature","id":68,"geometry":{"type":"Polygon","coordinates":[[[-122.8019319038998,53.90775150888144],[-122.80194021451898,53.90767441391177],[-122.80179902506056,53.90766912066837],[-122.80180041084925,53.907656135190216],[-122.80173617033093,53.90765370123013],[-122.80173502847167,53.907663388487556],[-122.80168319173353,53.90766140640579],[-122.80167465344401,53.90774147603432],[-122.80173259384057,53.90774355807835],[-122.80173149040766,53.90775477337139],[-122.80179425510833,53.907757088052854],[-122.80179558455536,53.90774635848825],[-122.8019319038998,53.90775150888144]]]},"properties":{"OBJECTID":68,"AssetID":"60","LifeCycleStatus":"ACT","SubType":13,"AssetOwner":1,"AssetManager":0,"Location":"Exhibition Park: Rotary Fields","InstallDate":null,"Electrical":1,"Sewer":1,"Storm":1,"Water":1,"Accessibility":null,"ConstructionType":null,"Height_m":null,"gisuid":1000015188,"barcode":"PRK-00015188","GlobalID":"{87934697-7409-41F2-A26B-025288B89777}"}},{"type":"Feature","id":69,"geometry":{"type":"Polygon","coordinates":[[[-122.76566531134303,53.88760953785543],[-122.76566791132673,53.88745587861007],[-122.76550000684536,53.88745397244876],[-122.76550010427783,53.88743656446769],[-122.7654242646656,53.88743613138373],[-122.76542132757164,53.88754685017071],[-122.765395628782,53.88754651413201],[-122.76539500426266,53.8875719115123],[-122.7654220541243,53.887572249292226],[-122.76542089581022,53.8876079325211],[-122.76566531134303,53.88760953785543]]]},"properties":{"OBJECTID":69,"AssetID":"61","LifeCycleStatus":"ACT","SubType":8,"AssetOwner":1,"AssetManager":13,"Location":"Prince George Municipal Cemetery","InstallDate":null,"Electrical":1,"Sewer":0,"Storm":0,"Water":null,"Accessibility":1,"ConstructionType":null,"Height_m":null,"gisuid":1000015189,"barcode":"PRK-00015189","GlobalID":"{29461CB6-942C-4A6F-A9BF-B363EB85539C}"}},{"type":"Feature","id":70,"geometry":{"type":"Polygon","coordinates":[[[-122.76400568281151,53.88765175778249],[-122.76400398356047,53.88752476323311],[-122.76381558770751,53.88752474957361],[-122.76381607433271,53.88765245449767],[-122.76400568281151,53.88765175778249]]]},"properties":{"OBJECTID":70,"AssetID":"62","LifeCycleStatus":"ACT","SubType":12,"AssetOwner":1,"AssetManager":13,"Location":"Prince George Municipal Cemetery","InstallDate":null,"Electrical":1,"Sewer":null,"Storm":null,"Water":null,"Accessibility":0,"ConstructionType":null,"Height_m":null,"gisuid":1000015190,"barcode":"PRK-00015190","GlobalID":"{018F152E-797F-42BE-8973-9274F5E52F62}"}},{"type":"Feature","id":71,"geometry":{"type":"Polygon","coordinates":[[[-122.76455005116797,53.88713406347021],[-122.76454949992686,53.88706998255296],[-122.76443346772315,53.88707108876798],[-122.76443410571562,53.88713486246273],[-122.76455005116797,53.88713406347021]]]},"properties":{"OBJECTID":71,"AssetID":"63","LifeCycleStatus":"ACT","SubType":13,"AssetOwner":1,"AssetManager":13,"Location":"Prince George Municipal Cemetery","InstallDate":null,"Electrical":1,"Sewer":1,"Storm":1,"Water":1,"Accessibility":null,"ConstructionType":null,"Height_m":null,"gisuid":1000015191,"barcode":"PRK-00015191","GlobalID":"{42121216-FFB9-483A-81DD-F463A16BF42A}"}},{"type":"Feature","id":72,"geometry":{"type":"Polygon","coordinates":[[[-122.76482495706469,53.887096338120045],[-122.76482310295737,53.887034440560335],[-122.76479603620548,53.887034463934064],[-122.76479604560768,53.88700975204085],[-122.76472079536272,53.88701098246687],[-122.76472130320899,53.88703569447502],[-122.76457378480266,53.88703731794947],[-122.76457510758928,53.88709893853642],[-122.76472395297058,53.887097847959254],[-122.764725320114,53.88712017980173],[-122.76479808688781,53.8871196078298],[-122.7647971475923,53.88709667012895],[-122.76482495706469,53.887096338120045]]]},"properties":{"OBJECTID":72,"AssetID":"64","LifeCycleStatus":"ACT","SubType":14,"AssetOwner":1,"AssetManager":13,"Location":"Prince George Municipal Cemetery","InstallDate":null,"Electrical":1,"Sewer":1,"Storm":1,"Water":1,"Accessibility":null,"ConstructionType":null,"Height_m":null,"gisuid":1000015192,"barcode":"PRK-00015192","GlobalID":"{1F24C9AB-FB8D-4422-A4B5-6FFF4BADA6B9}"}},{"type":"Feature","id":73,"geometry":{"type":"Polygon","coordinates":[[[-122.73232838027563,53.90606479837505],[-122.73227364818982,53.90612841089575],[-122.73235087035708,53.90614926463674],[-122.73239890363273,53.906085852866894],[-122.73232838027563,53.90606479837505]]]},"properties":{"OBJECTID":73,"AssetID":"65","LifeCycleStatus":"ACT","SubType":14,"AssetOwner":1,"AssetManager":13,"Location":"Lheidli T'enneh Memorial Park","InstallDate":null,"Electrical":0,"Sewer":0,"Storm":0,"Water":0,"Accessibility":0,"ConstructionType":"Timber","Height_m":null,"gisuid":1000015193,"barcode":"PRK-00015193","GlobalID":"{4A2A6AD6-3F1B-47AC-B200-FB26A5BB0BBD}"}},{"type":"Feature","id":74,"geometry":{"type":"Polygon","coordinates":[[[-122.81549838888385,53.94751856843893],[-122.81548167065729,53.947538756798636],[-122.8155214102705,53.9475502083349],[-122.81553838276312,53.947529712970166],[-122.81549838888385,53.94751856843893]]]},"properties":{"OBJECTID":74,"AssetID":"66","LifeCycleStatus":"ACT","SubType":9,"AssetOwner":1,"AssetManager":13,"Location":"Nechako Riverside Park","InstallDate":null,"Electrical":0,"Sewer":0,"Storm":0,"Water":null,"Accessibility":1,"ConstructionType":"Poured Concrete","Height_m":null,"gisuid":1000015194,"barcode":"PRK-00015194","GlobalID":"{932E91F3-A3A0-4418-8039-699A5F6A16A4}"}},{"type":"Feature","id":75,"geometry":{"type":"Polygon","coordinates":[[[-122.79095390806324,53.91638123214373],[-122.79095041948537,53.91632463453783],[-122.7907875933868,53.916328432469896],[-122.79079328885223,53.91638392030429],[-122.79095390806324,53.91638123214373]]]},"properties":{"OBJECTID":75,"AssetID":"67","LifeCycleStatus":"ACT","SubType":12,"AssetOwner":1,"AssetManager":13,"Location":"Rainbow Park","InstallDate":null,"Electrical":null,"Sewer":null,"Storm":null,"Water":null,"Accessibility":null,"ConstructionType":null,"Height_m":null,"gisuid":1000015195,"barcode":"PRK-00015195","GlobalID":"{05DDA4E7-8E2E-4CFB-9F43-3C8D0FA234CE}"}},{"type":"Feature","id":76,"geometry":{"type":"Polygon","coordinates":[[[-122.83621695977345,53.891474416035265],[-122.83620878310587,53.89145834046336],[-122.83618512174272,53.8914623150724],[-122.83619266739007,53.89147866302296],[-122.83621695977345,53.891474416035265]]]},"properties":{"OBJECTID":76,"AssetID":"68","LifeCycleStatus":"ACT","SubType":9,"AssetOwner":1,"AssetManager":13,"Location":"Forest for the Wold","InstallDate":1150156800000,"Electrical":0,"Sewer":1,"Storm":0,"Water":0,"Accessibility":0,"ConstructionType":"Poured Concrete","Height_m":"2.5","gisuid":1000015196,"barcode":"PRK-00015196","GlobalID":"{1DD6EE12-A2A9-4E50-B132-0EC581BC0DC9}"}},{"type":"Feature","id":77,"geometry":{"type":"Polygon","coordinates":[[[-122.75361705744827,53.90683497232895],[-122.75353291457058,53.90679571946722],[-122.75344917675055,53.90685856750958],[-122.75353312341791,53.906897027277864],[-122.75361705744827,53.90683497232895]]]},"properties":{"OBJECTID":77,"AssetID":"69","LifeCycleStatus":"ACT","SubType":13,"AssetOwner":1,"AssetManager":13,"Location":"Ron Brent Park","InstallDate":1600128000000,"Electrical":1,"Sewer":1,"Storm":1,"Water":1,"Accessibility":1,"ConstructionType":"Cinder Block","Height_m":null,"gisuid":1000015197,"barcode":"PRK-00015197","GlobalID":"{E3ED2404-0488-4899-8372-D732DAB69926}"}},{"type":"Feature","id":79,"geometry":{"type":"Polygon","coordinates":[[[-122.77532390392652,53.91287136857113],[-122.77532429702691,53.912798131816736],[-122.77526385794357,53.912798188599155],[-122.77526360406496,53.912871278209664],[-122.77532390392652,53.91287136857113]]]},"properties":{"OBJECTID":79,"AssetID":"70","LifeCycleStatus":"ACT","SubType":13,"AssetOwner":1,"AssetManager":13,"Location":"Freeman Park","InstallDate":1600128000000,"Electrical":1,"Sewer":1,"Storm":0,"Water":1,"Accessibility":1,"ConstructionType":"Tilt-Up Walls","Height_m":null,"gisuid":1000015198,"barcode":"PRK-00015198","GlobalID":"{C06D3034-6E8E-4061-B5A9-B52D749A8C50}"}},{"type":"Feature","id":81,"geometry":{"type":"Polygon","coordinates":[[[-122.76874327876797,53.904243059833234],[-122.76886638962209,53.90422941477495],[-122.76884328402144,53.90415671601787],[-122.76872017337368,53.904170361052856],[-122.76874327876797,53.904243059833234]]]},"properties":{"OBJECTID":81,"AssetID":"22847","LifeCycleStatus":"ACT","SubType":13,"AssetOwner":1,"AssetManager":13,"Location":"Carrie Jane Gray Park","InstallDate":1697385600000,"Electrical":1,"Sewer":1,"Storm":null,"Water":1,"Accessibility":null,"ConstructionType":null,"Height_m":null,"gisuid":1000015199,"barcode":"PRK-00015199","GlobalID":"{0A85C39D-4A29-439F-A1CC-0FDB95DF25FD}"}},{"type":"Feature","id":184,"geometry":{"type":"Polygon","coordinates":[[[-122.76872743862742,53.90417221850235],[-122.7687235274562,53.90417266846267],[-122.76874833910517,53.90424784764437],[-122.76875225788352,53.9042473994955],[-122.76872743862742,53.90417221850235]]]},"properties":{"OBJECTID":184,"AssetID":"22845","LifeCycleStatus":"ACT","SubType":13,"AssetOwner":null,"AssetManager":null,"Location":null,"InstallDate":null,"Electrical":null,"Sewer":null,"Storm":null,"Water":null,"Accessibility":null,"ConstructionType":null,"Height_m":null,"gisuid":1000015200,"barcode":"PRK-00015200","GlobalID":"{5558DAB0-E82F-41EC-9499-9276B42A8357}"}},{"type":"Feature","id":185,"geometry":{"type":"Polygon","coordinates":[[[-122.77056890702707,53.90586815674239],[-122.77021957597265,53.905672795247575],[-122.77016652713466,53.90570627768929],[-122.77051786983856,53.90590036867188],[-122.77056890702707,53.90586815674239]]]},"properties":{"OBJECTID":185,"AssetID":"23046","LifeCycleStatus":"ACT","SubType":11,"AssetOwner":1,"AssetManager":13,"Location":"Carrie Jane Gray Park: Jumpstart Park","InstallDate":1685577600000,"Electrical":null,"Sewer":null,"Storm":null,"Water":null,"Accessibility":null,"ConstructionType":null,"Height_m":null,"gisuid":1000015201,"barcode":"PRK-00015201","GlobalID":"{C5CD0DD5-BB54-4169-91F0-9730128CE63D}"}},{"type":"Feature","id":186,"geometry":{"type":"Polygon","coordinates":[[[-122.77014201934797,53.906131589926865],[-122.76978893671152,53.90593859375887],[-122.76973653671354,53.90597243138407],[-122.77009160827917,53.90616414352113],[-122.77014201934797,53.906131589926865]]]},"properties":{"OBJECTID":186,"AssetID":"23047","LifeCycleStatus":"ACT","SubType":11,"AssetOwner":1,"AssetManager":13,"Location":"Carrie Jane Gray Park: Jumpstart Park","InstallDate":1685577600000,"Electrical":null,"Sewer":null,"Storm":null,"Water":null,"Accessibility":null,"ConstructionType":null,"Height_m":null,"gisuid":1000015202,"barcode":"PRK-00015202","GlobalID":"{79EED1FA-1CA1-4A1F-B772-8406C6455E7B}"}},{"type":"Feature","id":585,"geometry":{"type":"Polygon","coordinates":[[[-122.73134313672541,53.907690799208076],[-122.73137796474508,53.90773872070884],[-122.73140776785961,53.907811109114455],[-122.73144756465614,53.907801585365036],[-122.73146004821646,53.9077700318433],[-122.73145232182037,53.907739368784405],[-122.73142636132712,53.90770983429386],[-122.73138489069666,53.90768962260016],[-122.73134313672541,53.907690799208076]]]},"properties":{"OBJECTID":585,"AssetID":"23050","LifeCycleStatus":"ACT","SubType":1,"AssetOwner":1,"AssetManager":13,"Location":"Lheidli T'enneh Memorial Park","InstallDate":null,"Electrical":1,"Sewer":0,"Storm":0,"Water":0,"Accessibility":0,"ConstructionType":null,"Height_m":null,"gisuid":1000015203,"barcode":"PRK-00015203","GlobalID":"{C447F015-64CA-4854-A16C-5C3A962ADA5F}"}}]}
