{"type":"FeatureCollection","features":[{"type":"Feature","id":1878,"geometry":{"type":"Point","coordinates":[-122.74855742903758,53.911909268034854]},"properties":{"OBJECTID":1878,"StreetName1":"Patricia Blvd ","StreetName2":"Dominion St ","CountID":"ac27","gisuid":200000074,"barcode":"TFK-00000074","GlobalID":"{B7BFA431-CAB6-42B3-BB6A-F3AAC8B14B0E}"}},{"type":"Feature","id":1879,"geometry":{"type":"Point","coordinates":[-122.76047458848807,53.94427152927868]},"properties":{"OBJECTID":1879,"StreetName1":"Northwood Pulpmill Rd ","StreetName2":"Aberdeen Rd ","CountID":"o27","gisuid":200000075,"barcode":"TFK-00000075","GlobalID":"{D680C5EB-9E0B-4485-8452-D6428B9CBBD4}"}},{"type":"Feature","id":1880,"geometry":{"type":"Point","coordinates":[-122.75085382449848,53.90545361724685]},"properties":{"OBJECTID":1880,"StreetName1":"20th Ave ","StreetName2":"Oak St ","CountID":"o28","gisuid":200000076,"barcode":"TFK-00000076","GlobalID":"{39A09162-C3D3-4A03-8146-558974B46C59}"}},{"type":"Feature","id":1881,"geometry":{"type":"Point","coordinates":[-122.78901259267049,53.892077135985865]},"properties":{"OBJECTID":1881,"StreetName1":"Ospika Blvd ","StreetName2":"Pinewood Ave ","CountID":"o29","gisuid":200000077,"barcode":"TFK-00000077","GlobalID":"{94E01288-EE62-4D3C-9A47-5E6416848DA6}"}},{"type":"Feature","id":1882,"geometry":{"type":"Point","coordinates":[-122.74746651623992,53.89320199885578]},"properties":{"OBJECTID":1882,"StreetName1":"Queensway  ","StreetName2":"Moyie St ","CountID":"o30","gisuid":200000078,"barcode":"TFK-00000078","GlobalID":"{07893A9E-10A3-4ECE-9110-69B0EB98177C}"}},{"type":"Feature","id":1883,"geometry":{"type":"Point","coordinates":[-122.76156577818801,53.916225436233454]},"properties":{"OBJECTID":1883,"StreetName1":"Ross Cres ","StreetName2":"10th Ave ","CountID":"o31","gisuid":200000079,"barcode":"TFK-00000079","GlobalID":"{7B91164E-E5B9-49D9-8177-5022120162FA}"}},{"type":"Feature","id":1884,"geometry":{"type":"Point","coordinates":[-122.75271402152558,53.91889267348769]},"properties":{"OBJECTID":1884,"StreetName1":"3rd Ave ","StreetName2":"Prince Rupert St ","CountID":"o32","gisuid":200000080,"barcode":"TFK-00000080","GlobalID":"{A934BE1F-AA40-4FD7-92BF-4E17A971F27B}"}},{"type":"Feature","id":1885,"geometry":{"type":"Point","coordinates":[-122.78593885307781,53.90730767999363]},"properties":{"OBJECTID":1885,"StreetName1":"18th Ave ","StreetName2":"Nicholson St ","CountID":"o25","gisuid":200000081,"barcode":"TFK-00000081","GlobalID":"{7D429BE1-4E3A-45B1-81B6-6DE127E546D6}"}},{"type":"Feature","id":1886,"geometry":{"type":"Point","coordinates":[-122.78698762585412,53.90362823913182]},"properties":{"OBJECTID":1886,"StreetName1":"22nd Ave ","StreetName2":"Nicholson St ","CountID":"o26","gisuid":200000082,"barcode":"TFK-00000082","GlobalID":"{25435164-AFB7-4E99-8E7F-F5E7C0C8E7C0}"}},{"type":"Feature","id":1887,"geometry":{"type":"Point","coordinates":[-122.76433785234043,53.87027582381591]},"properties":{"OBJECTID":1887,"StreetName1":"Simon Fraser Ave ","StreetName2":"Brock Dr ","CountID":"o33","gisuid":200000083,"barcode":"TFK-00000083","GlobalID":"{DF55C303-5765-4467-8015-6B6D15F51724}"}},{"type":"Feature","id":1888,"geometry":{"type":"Point","coordinates":[-122.7652448570452,53.87173082974923]},"properties":{"OBJECTID":1888,"StreetName1":"Simon Fraser Ave ","StreetName2":"Cowart Rd ","CountID":"o34","gisuid":200000084,"barcode":"TFK-00000084","GlobalID":"{769DF448-6DDB-4BDF-9BA8-37F0C10D87B2}"}},{"type":"Feature","id":1889,"geometry":{"type":"Point","coordinates":[-122.62219983981704,53.89840584498024]},"properties":{"OBJECTID":1889,"StreetName1":"Giscome Rd ","StreetName2":"Sommerville Rd ","CountID":"o35","gisuid":200000085,"barcode":"TFK-00000085","GlobalID":"{B5A7F062-75E4-45DD-8317-AAB655A0C80C}"}},{"type":"Feature","id":1890,"geometry":{"type":"Point","coordinates":[-122.77861287968427,53.855596470941755]},"properties":{"OBJECTID":1890,"StreetName1":"Southridge Ave ","StreetName2":"St Lawrence Ave ","CountID":"o36","gisuid":200000086,"barcode":"TFK-00000086","GlobalID":"{14226DC2-99FE-4FAC-8E56-69045AA39D63}"}},{"type":"Feature","id":1891,"geometry":{"type":"Point","coordinates":[-122.80708588190849,53.91486381991933]},"properties":{"OBJECTID":1891,"StreetName1":"Tabor Blvd ","StreetName2":"Eaglenest Cres ","CountID":"o37","gisuid":200000087,"barcode":"TFK-00000087","GlobalID":"{D848539F-8CAE-44A0-82DF-208A11DC970D}"}},{"type":"Feature","id":1892,"geometry":{"type":"Point","coordinates":[-122.76066986225891,53.89186082697482]},"properties":{"OBJECTID":1892,"StreetName1":"Upland St ","StreetName2":"Emmet Ave ","CountID":"o38","gisuid":200000088,"barcode":"TFK-00000088","GlobalID":"{BC4313A7-28E9-44FE-827A-FF79C807388A}"}},{"type":"Feature","id":1893,"geometry":{"type":"Point","coordinates":[-122.7605888639239,53.90226667123825]},"properties":{"OBJECTID":1893,"StreetName1":"Upland St ","StreetName2":"Strathcona Ave ","CountID":"o39","gisuid":200000089,"barcode":"TFK-00000089","GlobalID":"{EC8A520A-78AE-46F7-BB67-FE0DAC21DE93}"}},{"type":"Feature","id":1894,"geometry":{"type":"Point","coordinates":[-122.75519264726289,53.89856472034597]},"properties":{"OBJECTID":1894,"StreetName1":"Victoria St ","StreetName2":"McCullagh Ave ","CountID":"o40","gisuid":200000090,"barcode":"TFK-00000090","GlobalID":"{D0C039D1-A845-49DE-B1EB-74D88EC3B5BB}"}},{"type":"Feature","id":1895,"geometry":{"type":"Point","coordinates":[-122.76363771387273,53.92066007935419]},"properties":{"OBJECTID":1895,"StreetName1":"5th Ave ","StreetName2":"Watrous St ","CountID":"o41","gisuid":200000091,"barcode":"TFK-00000091","GlobalID":"{C354B7DA-948E-4BA2-8C49-BF53455051A6}"}},{"type":"Feature","id":1896,"geometry":{"type":"Point","coordinates":[-122.800504391382,53.85939279755209]},"properties":{"OBJECTID":1896,"StreetName1":"Cathedral Ave ","StreetName2":"Westgate Ave ","CountID":"o42","gisuid":200000092,"barcode":"TFK-00000092","GlobalID":"{0053350D-163F-409E-8937-9538567A2FA4}"}},{"type":"Feature","id":1897,"geometry":{"type":"Point","coordinates":[-122.80139008884423,53.860761209412516]},"properties":{"OBJECTID":1897,"StreetName1":"Westgate Ave ","StreetName2":"Hwy 16 W Frontage Rd W","CountID":"o43","gisuid":200000093,"barcode":"TFK-00000093","GlobalID":"{D685ECAB-0F20-456D-AC3D-26B913D493FD}"}},{"type":"Feature","id":1898,"geometry":{"type":"Point","coordinates":[-122.779556864719,53.885771822238496]},"properties":{"OBJECTID":1898,"StreetName1":"Westwood Dr ","StreetName2":"Andres Rd ","CountID":"o44","gisuid":200000094,"barcode":"TFK-00000094","GlobalID":"{5FA454C8-251C-4845-A452-C5BF23C7161B}"}},{"type":"Feature","id":1899,"geometry":{"type":"Point","coordinates":[-122.75825678224284,53.914768662227836]},"properties":{"OBJECTID":1899,"StreetName1":"Winnipeg St ","StreetName2":"9th Ave ","CountID":"o45","gisuid":200000095,"barcode":"TFK-00000095","GlobalID":"{46FDCF13-06D6-45D9-8AB2-B87FF27C1504}"}},{"type":"Feature","id":1900,"geometry":{"type":"Point","coordinates":[-122.85763677319311,53.8275197005505]},"properties":{"OBJECTID":1900,"StreetName1":"Hwy 16 W","StreetName2":"Jutland Rd ","CountID":"mot54","gisuid":200000096,"barcode":"TFK-00000096","GlobalID":"{DBA6AA5B-8F34-4F6D-A987-8B4663388425}"}},{"type":"Feature","id":1901,"geometry":{"type":"Point","coordinates":[-122.75795102096752,53.89461159075187]},"properties":{"OBJECTID":1901,"StreetName1":"Hwy 97 S","StreetName2":"Spruce St ","CountID":"mot55","gisuid":200000097,"barcode":"TFK-00000097","GlobalID":"{5EB0DB8B-0BD2-41D2-841E-00F585AC53ED}"}},{"type":"Feature","id":1902,"geometry":{"type":"Point","coordinates":[-122.75514286607886,53.90844783150687]},"properties":{"OBJECTID":1902,"StreetName1":"Victoria St ","StreetName2":"17th Ave ","CountID":"mot56","gisuid":200000098,"barcode":"TFK-00000098","GlobalID":"{D1CF43B5-0C5F-437C-888C-DB53C4B901B7}"}},{"type":"Feature","id":1903,"geometry":{"type":"Point","coordinates":[-122.83831647836338,53.835427196416575]},"properties":{"OBJECTID":1903,"StreetName1":"Hwy 16 W Frontage Rd W","StreetName2":"Sykes Rd E","CountID":"o13","gisuid":200000099,"barcode":"TFK-00000099","GlobalID":"{DC7A4083-4FDC-4F13-BCD9-7E5913488F19}"}},{"type":"Feature","id":1904,"geometry":{"type":"Point","coordinates":[-122.7561873313498,53.919875494511196]},"properties":{"OBJECTID":1904,"StreetName1":"3rd Ave ","StreetName2":"Edmonton St ","CountID":"o14","gisuid":200000100,"barcode":"TFK-00000100","GlobalID":"{447A38DB-948B-4CFE-B707-3FBDC25EB275}"}},{"type":"Feature","id":1905,"geometry":{"type":"Point","coordinates":[-122.7623968589614,53.912201830038946]},"properties":{"OBJECTID":1905,"StreetName1":"Edmonton St ","StreetName2":"13th Ave ","CountID":"o15","gisuid":200000101,"barcode":"TFK-00000101","GlobalID":"{B4070796-6D5A-403B-B1C4-1F516B6A7B35}"}},{"type":"Feature","id":1906,"geometry":{"type":"Point","coordinates":[-122.75993211706691,53.915240917106885]},"properties":{"OBJECTID":1906,"StreetName1":"Edmonton St ","StreetName2":"9th Ave ","CountID":"o16","gisuid":200000102,"barcode":"TFK-00000102","GlobalID":"{C01997C7-3605-4EF3-BB70-FC516B2E6625}"}},{"type":"Feature","id":1907,"geometry":{"type":"Point","coordinates":[-122.74339019081057,53.91530678636959]},"properties":{"OBJECTID":1907,"StreetName1":"4th Ave ","StreetName2":"George St ","CountID":"o17","gisuid":200000103,"barcode":"TFK-00000103","GlobalID":"{A9C31052-E6EA-4DD0-8234-45310BA0EB62}"}},{"type":"Feature","id":1908,"geometry":{"type":"Point","coordinates":[-122.77674505826542,53.920629562404585]},"properties":{"OBJECTID":1908,"StreetName1":"5th Ave ","StreetName2":"Harper St ","CountID":"o18","gisuid":200000104,"barcode":"TFK-00000104","GlobalID":"{147E2ACA-BA65-44BE-AA35-8C910514CFBA}"}},{"type":"Feature","id":1909,"geometry":{"type":"Point","coordinates":[-122.83793791686213,54.01064382133815]},"properties":{"OBJECTID":1909,"StreetName1":"Chief Lake Rd ","StreetName2":"Inglewood Rd ","CountID":"o19","gisuid":200000105,"barcode":"TFK-00000105","GlobalID":"{5203A8F9-8885-431D-9788-EF0C4341BBE9}"}},{"type":"Feature","id":1910,"geometry":{"type":"Point","coordinates":[-122.77970292525097,53.91036525785395]},"properties":{"OBJECTID":1910,"StreetName1":"15th Ave ","StreetName2":"Johnson St ","CountID":"o20","gisuid":200000106,"barcode":"TFK-00000106","GlobalID":"{6AA65BF6-DAA5-4CC2-9B6E-7A64E27E88AB}"}},{"type":"Feature","id":1911,"geometry":{"type":"Point","coordinates":[-122.80180517632996,53.91727632909205]},"properties":{"OBJECTID":1911,"StreetName1":"Kerry St ","StreetName2":"Lacoma St ","CountID":"o21","gisuid":200000107,"barcode":"TFK-00000107","GlobalID":"{17389137-BBC7-4956-90F8-B434BFC959A2}"}},{"type":"Feature","id":1913,"geometry":{"type":"Point","coordinates":[-122.74748283393272,53.895033674988966]},"properties":{"OBJECTID":1913,"StreetName1":"Moyie St ","StreetName2":"Village Ave ","CountID":"o23","gisuid":200000109,"barcode":"TFK-00000109","GlobalID":"{274CF67B-AFD1-4E43-8E66-7179911C4E80}"}},{"type":"Feature","id":1914,"geometry":{"type":"Point","coordinates":[-122.84949890742323,53.96752974904358]},"properties":{"OBJECTID":1914,"StreetName1":"North Nechako Rd ","StreetName2":"Toombs Dr ","CountID":"o24","gisuid":200000110,"barcode":"TFK-00000110","GlobalID":"{CF8FF77B-B4F3-44E8-8D6D-96BC249B8A70}"}},{"type":"Feature","id":1915,"geometry":{"type":"Point","coordinates":[-122.76490603693601,53.92614353997236]},"properties":{"OBJECTID":1915,"StreetName1":"Cameron St ","StreetName2":"River Rd ","CountID":"ac28","gisuid":200000111,"barcode":"TFK-00000111","GlobalID":"{541C593C-9EB9-4864-8085-C751A27219BC}"}},{"type":"Feature","id":1916,"geometry":{"type":"Point","coordinates":[-122.76234365143456,53.88879785944073]},"properties":{"OBJECTID":1916,"StreetName1":"Ferry Ave ","StreetName2":"Lansdowne Rd ","CountID":"ac03","gisuid":200000112,"barcode":"TFK-00000112","GlobalID":"{85C72B22-8A4B-46E0-BE89-10E49E4EF439}"}},{"type":"Feature","id":1917,"geometry":{"type":"Point","coordinates":[-122.77336804360446,53.90476328549217]},"properties":{"OBJECTID":1917,"StreetName1":"Massey Dr ","StreetName2":"Griffiths Ave ","CountID":"ac04","gisuid":200000113,"barcode":"TFK-00000113","GlobalID":"{7C4E0277-31FF-4F92-96AD-640819E8FA09}"}},{"type":"Feature","id":1918,"geometry":{"type":"Point","coordinates":[-122.75700126800933,53.91631466368754]},"properties":{"OBJECTID":1918,"StreetName1":"Winnipeg St ","StreetName2":"7th Ave ","CountID":"ac05","gisuid":200000114,"barcode":"TFK-00000114","GlobalID":"{F51AFFD2-A113-49B0-82B9-D0E437504B0F}"}},{"type":"Feature","id":1919,"geometry":{"type":"Point","coordinates":[-122.76929873361725,53.915419753537186]},"properties":{"OBJECTID":1919,"StreetName1":"Carney St ","StreetName2":"10th Ave ","CountID":"ac06","gisuid":200000115,"barcode":"TFK-00000115","GlobalID":"{2B20890D-42F0-44A4-AC6F-38E230270D50}"}},{"type":"Feature","id":1920,"geometry":{"type":"Point","coordinates":[-122.76933271692779,53.922629354341076]},"properties":{"OBJECTID":1920,"StreetName1":"Carney St ","StreetName2":"3rd Ave ","CountID":"ac07","gisuid":200000116,"barcode":"TFK-00000116","GlobalID":"{706F906D-A875-481F-A7C8-60D5491F64C4}"}},{"type":"Feature","id":1921,"geometry":{"type":"Point","coordinates":[-122.78224625863687,53.89958123704295]},"properties":{"OBJECTID":1921,"StreetName1":"Massey Dr ","StreetName2":"Westwood Dr ","CountID":"ac08","gisuid":200000117,"barcode":"TFK-00000117","GlobalID":"{9C9FB180-99E4-4D56-9BAD-FB6370662AA2}"}},{"type":"Feature","id":1922,"geometry":{"type":"Point","coordinates":[-122.78430178914829,53.920617341026805]},"properties":{"OBJECTID":1922,"StreetName1":"5th Ave ","StreetName2":"Lyon St ","CountID":"ac09","gisuid":200000118,"barcode":"TFK-00000118","GlobalID":"{A7954950-54F1-4ED3-BD7C-49F3EF832D7A}"}},{"type":"Feature","id":1923,"geometry":{"type":"Point","coordinates":[-122.70517522021494,53.85017808835903]},"properties":{"OBJECTID":1923,"StreetName1":"Hwy 97 S","StreetName2":"Sintich Rd ","CountID":"mot01","gisuid":200000119,"barcode":"TFK-00000119","GlobalID":"{18AC8A63-CCC4-4A0E-8F70-B4891EFCA675}"}},{"type":"Feature","id":1924,"geometry":{"type":"Point","coordinates":[-122.76734491583154,53.96552360812949]},"properties":{"OBJECTID":1924,"StreetName1":"Hart Hwy ","StreetName2":"Noranda Rd ","CountID":"mot10","gisuid":200000120,"barcode":"TFK-00000120","GlobalID":"{A5BC1375-6BC4-493D-AB3B-89A34407DA52}"}},{"type":"Feature","id":1925,"geometry":{"type":"Point","coordinates":[-122.78690547847852,53.989492420877234]},"properties":{"OBJECTID":1925,"StreetName1":"Hart Hwy ","StreetName2":"Austin Rd W","CountID":"mot11","gisuid":200000121,"barcode":"TFK-00000121","GlobalID":"{5E18F933-FEF1-4A7E-828A-394EAB5C1B15}"}},{"type":"Feature","id":1926,"geometry":{"type":"Point","coordinates":[-122.76418112314613,53.952749021772064]},"properties":{"OBJECTID":1926,"StreetName1":"Hart Hwy ","StreetName2":"Bellamy Rd ","CountID":"mot12","gisuid":200000122,"barcode":"TFK-00000122","GlobalID":"{550ED629-8764-4704-840A-BA9B6966FEF4}"}},{"type":"Feature","id":1927,"geometry":{"type":"Point","coordinates":[-122.80020130677434,54.01065710732824]},"properties":{"OBJECTID":1927,"StreetName1":"Hart Hwy ","StreetName2":"Kelly Rd N","CountID":"mot13","gisuid":200000123,"barcode":"TFK-00000123","GlobalID":"{E04DFD75-8E05-4C04-AE80-80F43B6C8FB3}"}},{"type":"Feature","id":1928,"geometry":{"type":"Point","coordinates":[-122.78171600573413,53.90726541436779]},"properties":{"OBJECTID":1928,"StreetName1":"Hwy 97 S","StreetName2":"18th Ave ","CountID":"mot14","gisuid":200000124,"barcode":"TFK-00000124","GlobalID":"{1C7BA52A-C66F-4119-AD6C-12CDB2E6D497}"}},{"type":"Feature","id":1929,"geometry":{"type":"Point","coordinates":[-122.78169946893357,53.91540089506774]},"properties":{"OBJECTID":1929,"StreetName1":"Hwy 97 S","StreetName2":"10th Ave ","CountID":"mot15","gisuid":200000125,"barcode":"TFK-00000125","GlobalID":"{3F996140-9709-4009-B239-81A12F62D9C9}"}},{"type":"Feature","id":1930,"geometry":{"type":"Point","coordinates":[-122.78171927547073,53.910347614176736]},"properties":{"OBJECTID":1930,"StreetName1":"Hwy 97 S","StreetName2":"15th Ave ","CountID":"mot16","gisuid":200000126,"barcode":"TFK-00000126","GlobalID":"{C9488142-2D83-4763-9BB9-6DE90E0D6514}"}},{"type":"Feature","id":1931,"geometry":{"type":"Point","coordinates":[-122.78174096017382,53.90361330725508]},"properties":{"OBJECTID":1931,"StreetName1":"Hwy 97 S","StreetName2":"22nd Ave ","CountID":"mot17","gisuid":200000127,"barcode":"TFK-00000127","GlobalID":"{D897D9B7-4ECF-4234-A102-1BE10E1AB4DF}"}},{"type":"Feature","id":1932,"geometry":{"type":"Point","coordinates":[-122.78170257332246,53.92062905800833]},"properties":{"OBJECTID":1932,"StreetName1":"Hwy 97 S","StreetName2":"5th Ave ","CountID":"mot18","gisuid":200000128,"barcode":"TFK-00000128","GlobalID":"{D9EF5E73-16FA-4BB7-8974-0077B0396BD9}"}},{"type":"Feature","id":1933,"geometry":{"type":"Point","coordinates":[-122.7681517126588,53.89733511322775]},"properties":{"OBJECTID":1933,"StreetName1":"Hwy 16","StreetName2":"Hwy 97 S","CountID":"mot19","gisuid":200000129,"barcode":"TFK-00000129","GlobalID":"{B9EEA839-E228-4AFB-8D99-08EE925E3E28}"}},{"type":"Feature","id":1934,"geometry":{"type":"Point","coordinates":[-122.74176055436949,53.88486454881532]},"properties":{"OBJECTID":1934,"StreetName1":"Hwy 97 S","StreetName2":"Railway Rd ","CountID":"mot02","gisuid":200000130,"barcode":"TFK-00000130","GlobalID":"{44C97BEE-44F8-4E48-AB89-0FACB052AB32}"}},{"type":"Feature","id":1935,"geometry":{"type":"Point","coordinates":[-122.83892612298105,53.83547737271615]},"properties":{"OBJECTID":1935,"StreetName1":"Hwy 16 W","StreetName2":"Blackwater Rd ","CountID":"mot20","gisuid":200000131,"barcode":"TFK-00000131","GlobalID":"{C0A27EBD-D593-415C-B3FE-42A1347B6DFF}"}},{"type":"Feature","id":1936,"geometry":{"type":"Point","coordinates":[-122.8160045070945,53.858255928241995]},"properties":{"OBJECTID":1936,"StreetName1":"Hwy 16 W","StreetName2":"Kimball Rd ","CountID":"mot23","gisuid":200000132,"barcode":"TFK-00000132","GlobalID":"{3D1D57EF-E96F-4AE7-9994-01296887BE88}"}},{"type":"Feature","id":1937,"geometry":{"type":"Point","coordinates":[-122.83367021032677,53.840543374852196]},"properties":{"OBJECTID":1937,"StreetName1":"Hwy 16 W","StreetName2":"Haldi Rd ","CountID":"mot22","gisuid":200000133,"barcode":"TFK-00000133","GlobalID":"{9DB4E7C9-E917-429D-B0B2-FA32247CE295}"}},{"type":"Feature","id":1938,"geometry":{"type":"Point","coordinates":[-122.79166749681923,53.86507406936265]},"properties":{"OBJECTID":1938,"StreetName1":"Hwy 16 W","StreetName2":"Marleau Rd ","CountID":"mot23","gisuid":200000134,"barcode":"TFK-00000134","GlobalID":"{573D69FE-58E8-4BFF-993C-2E0885C0972B}"}},{"type":"Feature","id":1939,"geometry":{"type":"Point","coordinates":[-122.7440076365005,53.9145406788619]},"properties":{"OBJECTID":1939,"StreetName1":"George St ","StreetName2":"5th Ave ","CountID":"o47","gisuid":200000135,"barcode":"TFK-00000135","GlobalID":"{BB60F533-7F39-426E-9D5F-6E4814B49CED}"}},{"type":"Feature","id":1940,"geometry":{"type":"Point","coordinates":[-122.76888545519655,53.884415294452246]},"properties":{"OBJECTID":1940,"StreetName1":"Hwy 16 W","StreetName2":"Range Rd ","CountID":"mot25","gisuid":200000136,"barcode":"TFK-00000136","GlobalID":"{EA114FA7-8B81-459F-B474-C39724388780}"}},{"type":"Feature","id":1941,"geometry":{"type":"Point","coordinates":[-122.82436725152843,53.84949780950274]},"properties":{"OBJECTID":1941,"StreetName1":"Hwy 16 W","StreetName2":"Gauthier Rd ","CountID":"mot26","gisuid":200000137,"barcode":"TFK-00000137","GlobalID":"{1B5219BE-1D8F-48A8-8032-409F4449B65B}"}},{"type":"Feature","id":1942,"geometry":{"type":"Point","coordinates":[-122.77010695215188,53.88095664656987]},"properties":{"OBJECTID":1942,"StreetName1":"Hwy 16 W","StreetName2":"Vance Rd ","CountID":"mot27","gisuid":200000138,"barcode":"TFK-00000138","GlobalID":"{AFF34C30-99DB-4498-8FE5-5B1E9473F5E0}"}},{"type":"Feature","id":1943,"geometry":{"type":"Point","coordinates":[-122.80448403260475,53.910267879269476]},"properties":{"OBJECTID":1943,"StreetName1":"15th Ave ","StreetName2":"Jarvis St ","CountID":"o48","gisuid":200000139,"barcode":"TFK-00000139","GlobalID":"{B796F880-66CC-4DB5-B808-4A5E56F8CAD0}"}},{"type":"Feature","id":1944,"geometry":{"type":"Point","coordinates":[-122.76736746470986,53.88884946394708]},"properties":{"OBJECTID":1944,"StreetName1":"Hwy 16 W","StreetName2":"Ferry Ave ","CountID":"mot29","gisuid":200000140,"barcode":"TFK-00000140","GlobalID":"{B8ADFE56-3172-488F-AE46-437AD57CA072}"}},{"type":"Feature","id":1945,"geometry":{"type":"Point","coordinates":[-122.73639090677582,53.87659357965906]},"properties":{"OBJECTID":1945,"StreetName1":"Hwy 97 S","StreetName2":"Terminal Blvd ","CountID":"mot03","gisuid":200000141,"barcode":"TFK-00000141","GlobalID":"{B8DA9C0E-0293-4589-ABCD-A8310E89BECF}"}},{"type":"Feature","id":1946,"geometry":{"type":"Point","coordinates":[-122.67946174084119,53.90713420702341]},"properties":{"OBJECTID":1946,"StreetName1":"Hwy 16 E","StreetName2":"Boundary Rd","CountID":"mot30","gisuid":200000142,"barcode":"TFK-00000142","GlobalID":"{04FD6219-F7C5-4FF3-94A5-A6E8963734E8}"}},{"type":"Feature","id":1947,"geometry":{"type":"Point","coordinates":[-122.64795509232084,53.920417063591344]},"properties":{"OBJECTID":1947,"StreetName1":"Hwy 16 E","StreetName2":"Graves Rd ","CountID":"mot31","gisuid":200000143,"barcode":"TFK-00000143","GlobalID":"{114A9D12-98E2-48F9-A2A1-B1A80B559814}"}},{"type":"Feature","id":1948,"geometry":{"type":"Point","coordinates":[-122.74665898322097,53.91622988069068]},"properties":{"OBJECTID":1948,"StreetName1":"4th Ave ","StreetName2":"Quebec St ","CountID":"o49","gisuid":200000144,"barcode":"TFK-00000144","GlobalID":"{5CBF1E49-6954-4387-942C-E7D2AA010381}"}},{"type":"Feature","id":1949,"geometry":{"type":"Point","coordinates":[-122.74229117911835,53.914053477372896]},"properties":{"OBJECTID":1949,"StreetName1":"Queensway  ","StreetName2":"5th Ave ","CountID":"o50","gisuid":200000145,"barcode":"TFK-00000145","GlobalID":"{A4D323CC-2B0B-4423-BF6A-31E5FEA055B4}"}},{"type":"Feature","id":1950,"geometry":{"type":"Point","coordinates":[-122.7551940272854,53.89439032892254]},"properties":{"OBJECTID":1950,"StreetName1":"Victoria St ","StreetName2":"Ford Ave ","CountID":"o51","gisuid":200000146,"barcode":"TFK-00000146","GlobalID":"{84B91753-6E8B-456B-8872-FB83743BEC90}"}},{"type":"Feature","id":1951,"geometry":{"type":"Point","coordinates":[-122.79586490008928,53.975448830572454]},"properties":{"OBJECTID":1951,"StreetName1":"Berwick Dr ","StreetName2":"Nixon Cres ","CountID":"o52","gisuid":200000147,"barcode":"TFK-00000147","GlobalID":"{17709AE9-C1A2-4C9E-9F81-D7FF58D348C2}"}},{"type":"Feature","id":1952,"geometry":{"type":"Point","coordinates":[-122.77714982171861,53.86796109069017]},"properties":{"OBJECTID":1952,"StreetName1":"Dakelh Ti","StreetName2":"Shopping Centre","CountID":"o53","gisuid":200000148,"barcode":"TFK-00000148","GlobalID":"{3E9B9E8D-2D02-496D-870F-F687E7E97091}"}},{"type":"Feature","id":1954,"geometry":{"type":"Point","coordinates":[-122.80700759692519,53.922507205113995]},"properties":{"OBJECTID":1954,"StreetName1":"Tabor Blvd ","StreetName2":"Hill Ave","CountID":"o55","gisuid":200000150,"barcode":"TFK-00000150","GlobalID":"{C154ED0D-A177-4D99-BD71-8E7286E89766}"}},{"type":"Feature","id":1955,"geometry":{"type":"Point","coordinates":[-122.74538851832396,53.91779874547961]},"properties":{"OBJECTID":1955,"StreetName1":"2nd Ave ","StreetName2":"Quebec St ","CountID":"o57","gisuid":200000151,"barcode":"TFK-00000151","GlobalID":"{F6CE4B99-0093-44DA-9FD5-3F859952CD9E}"}},{"type":"Feature","id":1956,"geometry":{"type":"Point","coordinates":[-122.75093680556144,53.91839203841145]},"properties":{"OBJECTID":1956,"StreetName1":"3rd Ave ","StreetName2":"Vancouver St ","CountID":"o58","gisuid":200000152,"barcode":"TFK-00000152","GlobalID":"{DF587A7E-821E-474C-9EB4-A43EB83DB41F}"}},{"type":"Feature","id":1957,"geometry":{"type":"Point","coordinates":[-122.76073385395058,53.88878783100392]},"properties":{"OBJECTID":1957,"StreetName1":"Ferry Ave ","StreetName2":"Upland St ","CountID":"ac30","gisuid":200000153,"barcode":"TFK-00000153","GlobalID":"{19E3253C-3F0A-4C21-A937-6C15471759BB}"}},{"type":"Feature","id":1958,"geometry":{"type":"Point","coordinates":[-122.75797985427765,53.88876082921385]},"properties":{"OBJECTID":1958,"StreetName1":"Ferry Ave ","StreetName2":"Spruce St ","CountID":"ac31","gisuid":200000154,"barcode":"TFK-00000154","GlobalID":"{010D68A5-211F-48EA-BD87-BC92AFE3588B}"}},{"type":"Feature","id":1959,"geometry":{"type":"Point","coordinates":[-122.74750995879444,53.919877360017445]},"properties":{"OBJECTID":1959,"StreetName1":"Victoria St ","StreetName2":"1st Ave ","CountID":"mot58","gisuid":200000155,"barcode":"TFK-00000155","GlobalID":"{8B43E32A-1A4D-4C3A-A38A-DF95E7C5C7DC}"}},{"type":"Feature","id":1960,"geometry":{"type":"Point","coordinates":[-122.74440825743984,53.91901810119736]},"properties":{"OBJECTID":1960,"StreetName1":"1st Ave ","StreetName2":"Quebec St ","CountID":"mot24","gisuid":200000156,"barcode":"TFK-00000156","GlobalID":"{AA01715B-626E-42EC-996F-4E252AD5CD0F}"}},{"type":"Feature","id":1961,"geometry":{"type":"Point","coordinates":[-122.74817797282147,53.91665797522892]},"properties":{"OBJECTID":1961,"StreetName1":"4th Ave ","StreetName2":"Brunswick St ","CountID":"o56","gisuid":200000157,"barcode":"TFK-00000157","GlobalID":"{A2807A67-2212-4CB3-B072-0265A0819E79}"}},{"type":"Feature","id":1962,"geometry":{"type":"Point","coordinates":[-122.75518929482686,53.89271518070749]},"properties":{"OBJECTID":1962,"StreetName1":"Clapperton St ","StreetName2":"Van Bien Ave ","CountID":"o46","gisuid":200000158,"barcode":"TFK-00000158","GlobalID":"{48D43803-0CC1-4F24-8201-27CABBB0C1B3}"}},{"type":"Feature","id":1963,"geometry":{"type":"Point","coordinates":[-122.75515928608925,53.90543710894791]},"properties":{"OBJECTID":1963,"StreetName1":"Victoria St ","StreetName2":"20th Ave ","CountID":"mot57","gisuid":200000159,"barcode":"TFK-00000159","GlobalID":"{BC04E1CA-55BF-4DA3-9765-D10932FB3DBD}"}},{"type":"Feature","id":1964,"geometry":{"type":"Point","coordinates":[-122.74103485901203,53.91559783125673]},"properties":{"OBJECTID":1964,"StreetName1":"Queensway  ","StreetName2":"3rd Ave ","CountID":"ac29","gisuid":200000160,"barcode":"TFK-00000160","GlobalID":"{AD9C609E-1D93-49AB-A016-31B4EA1856EB}"}},{"type":"Feature","id":1965,"geometry":{"type":"Point","coordinates":[-122.75449936938418,53.91939938709479]},"properties":{"OBJECTID":1965,"StreetName1":"Winnipeg St ","StreetName2":"3rd Ave ","CountID":"aa29","gisuid":200000161,"barcode":"TFK-00000161","GlobalID":"{5426F130-F34C-480C-AE47-0367572C6083}"}},{"type":"Feature","id":1966,"geometry":{"type":"Point","coordinates":[-122.77956685372381,53.88457582864101]},"properties":{"OBJECTID":1966,"StreetName1":"Westwood Dr ","StreetName2":"Range Rd ","CountID":"o60","gisuid":200000162,"barcode":"TFK-00000162","GlobalID":"{D72579BB-B23A-410D-8400-BAF49719D3B3}"}},{"type":"Feature","id":1967,"geometry":{"type":"Point","coordinates":[-122.74882157104018,53.91589267663896]},"properties":{"OBJECTID":1967,"StreetName1":"Brunswick St ","StreetName2":"5th Ave ","CountID":"o61","gisuid":200000163,"barcode":"TFK-00000163","GlobalID":"{47563E26-7368-4F80-8557-5218BB9EEA9E}"}},{"type":"Feature","id":1968,"geometry":{"type":"Point","coordinates":[-122.74697094385736,53.913480162351235]},"properties":{"OBJECTID":1968,"StreetName1":"Dominion St ","StreetName2":"7th Ave ","CountID":"o05","gisuid":200000164,"barcode":"TFK-00000164","GlobalID":"{93DA40E8-68E4-451C-8945-CEAB231CEAF3}"}},{"type":"Feature","id":1969,"geometry":{"type":"Point","coordinates":[-122.7427567658879,53.916084463370424]},"properties":{"OBJECTID":1969,"StreetName1":"3rd Ave ","StreetName2":"George St ","CountID":"o06","gisuid":200000165,"barcode":"TFK-00000165","GlobalID":"{EA7B5267-4095-41CF-BB1D-E03131BAA838}"}},{"type":"Feature","id":1970,"geometry":{"type":"Point","coordinates":[-122.74603049349132,53.91700957606054]},"properties":{"OBJECTID":1970,"StreetName1":"3rd Ave ","StreetName2":"Quebec St ","CountID":"o07","gisuid":200000166,"barcode":"TFK-00000166","GlobalID":"{CB2154BF-BC0E-4047-9331-0E0D2ED11BB4}"}},{"type":"Feature","id":1971,"geometry":{"type":"Point","coordinates":[-122.80195235185886,53.86118655417967]},"properties":{"OBJECTID":1971,"StreetName1":"Hwy 16 W","StreetName2":"Westgate Ave ","CountID":"mot44","gisuid":200000167,"barcode":"TFK-00000167","GlobalID":"{7744D6F9-D060-4514-A53E-AAAD5EEE51B2}"}},{"type":"Feature","id":1972,"geometry":{"type":"Point","coordinates":[-122.78049199254812,53.86921219193591]},"properties":{"OBJECTID":1972,"StreetName1":"Hwy 16 W","StreetName2":"Domano Blvd ","CountID":"mot28","gisuid":200000168,"barcode":"TFK-00000168","GlobalID":"{A2E00DE2-D3B4-474A-883D-11B9F8D2F489}"}},{"type":"Feature","id":1974,"geometry":{"type":"Point","coordinates":[-122.75350372960446,53.91247432309783]},"properties":{"OBJECTID":1974,"StreetName1":"Victoria St ","StreetName2":"10th Ave ","CountID":"mot47","gisuid":200000170,"barcode":"TFK-00000170","GlobalID":"{7BEFCD7F-6CED-4655-A7FA-20B82128D739}"}},{"type":"Feature","id":1975,"geometry":{"type":"Point","coordinates":[-122.7503716329681,53.91634193601102]},"properties":{"OBJECTID":1975,"StreetName1":"Victoria St ","StreetName2":"5th Ave ","CountID":"mot48.08","gisuid":200000171,"barcode":"TFK-00000171","GlobalID":"{E08461D1-15A2-4B9C-888B-B20C26F791E0}"}},{"type":"Feature","id":1976,"geometry":{"type":"Point","coordinates":[-122.75288190029268,53.91325010456554]},"properties":{"OBJECTID":1976,"StreetName1":"Victoria St ","StreetName2":"9th Ave ","CountID":"mot49","gisuid":200000172,"barcode":"TFK-00000172","GlobalID":"{068E4B53-A392-4536-B386-7DE6D2784CDC}"}},{"type":"Feature","id":1977,"geometry":{"type":"Point","coordinates":[-122.75994638995633,53.9383005053209]},"properties":{"OBJECTID":1977,"StreetName1":"Hart Hwy ","StreetName2":"Hoferkamp Rd ","CountID":"mot50","gisuid":200000173,"barcode":"TFK-00000173","GlobalID":"{9E4DDFD1-241C-41F1-AE3A-9BBBD644D0FA}"}},{"type":"Feature","id":1978,"geometry":{"type":"Point","coordinates":[-122.76275939193279,53.95065481393183]},"properties":{"OBJECTID":1978,"StreetName1":"Hart Hwy ","StreetName2":"Houghtaling Rd ","CountID":"mot51","gisuid":200000174,"barcode":"TFK-00000174","GlobalID":"{EF8A6B12-94F4-4F98-9DCB-5FF4A330BA19}"}},{"type":"Feature","id":1979,"geometry":{"type":"Point","coordinates":[-122.75109974239277,53.89083627202107]},"properties":{"OBJECTID":1979,"StreetName1":"Hwy 97 S","StreetName2":"Ferry Ave ","CountID":"mot53","gisuid":200000175,"barcode":"TFK-00000175","GlobalID":"{00A0D2BB-2087-4EA8-85A0-341A0051BF9C}"}},{"type":"Feature","id":1980,"geometry":{"type":"Point","coordinates":[-122.80965917785832,53.92813412068221]},"properties":{"OBJECTID":1980,"StreetName1":"1st Ave ","StreetName2":"Anderson St ","CountID":"o11","gisuid":200000176,"barcode":"TFK-00000176","GlobalID":"{691AE2FD-319D-475A-B3C3-A706E22EEC89}"}},{"type":"Feature","id":1981,"geometry":{"type":"Point","coordinates":[-122.80259990282465,53.985246824189325]},"properties":{"OBJECTID":1981,"StreetName1":"Berger Cres ","StreetName2":"Vellencher Rd ","CountID":"o12","gisuid":200000177,"barcode":"TFK-00000177","GlobalID":"{6FB5F359-F238-49FE-9B14-8E4656D02C67}"}},{"type":"Feature","id":1982,"geometry":{"type":"Point","coordinates":[-122.74510138195097,53.915792375535254]},"properties":{"OBJECTID":1982,"StreetName1":"Dominion St ","StreetName2":"4th Ave ","CountID":"o04","gisuid":200000178,"barcode":"TFK-00000178","GlobalID":"{53081C1F-F0D0-4437-8C6A-24C430E857F5}"}},{"type":"Feature","id":1983,"geometry":{"type":"Point","coordinates":[-122.75502343018456,53.91049625560846]},"properties":{"OBJECTID":1983,"StreetName1":"Victoria St ","StreetName2":"15th Ave ","CountID":"mot33","gisuid":200000179,"barcode":"TFK-00000179","GlobalID":"{12D57A50-71E4-44FB-A921-16ED5682835D}"}},{"type":"Feature","id":1984,"geometry":{"type":"Point","coordinates":[-122.74974357079387,53.917104072082296]},"properties":{"OBJECTID":1984,"StreetName1":"Victoria St ","StreetName2":"4th Ave ","CountID":"mot34","gisuid":200000180,"barcode":"TFK-00000180","GlobalID":"{4728DEF3-264D-483F-A94A-6E801DA7ED2C}"}},{"type":"Feature","id":1985,"geometry":{"type":"Point","coordinates":[-122.75099667142061,53.915563416293196]},"properties":{"OBJECTID":1985,"StreetName1":"Victoria St ","StreetName2":"6th Ave ","CountID":"mot35","gisuid":200000181,"barcode":"TFK-00000181","GlobalID":"{9B7B8136-D312-4C78-837C-FFD6CF269FE9}"}},{"type":"Feature","id":1986,"geometry":{"type":"Point","coordinates":[-122.75162681401262,53.91479602653869]},"properties":{"OBJECTID":1986,"StreetName1":"Victoria St ","StreetName2":"7th Ave ","CountID":"mot36","gisuid":200000182,"barcode":"TFK-00000182","GlobalID":"{BDA62A2B-FF0C-4169-93F7-8C7839900BE1}"}},{"type":"Feature","id":1987,"geometry":{"type":"Point","coordinates":[-122.74911925979954,53.91788239452225]},"properties":{"OBJECTID":1987,"StreetName1":"Victoria St ","StreetName2":"3rd Ave ","CountID":"mot37","gisuid":200000183,"barcode":"TFK-00000183","GlobalID":"{8AE6A219-553D-4A2A-B580-9BD0AEF9C710}"}},{"type":"Feature","id":1988,"geometry":{"type":"Point","coordinates":[-122.74846696878713,53.9186736787477]},"properties":{"OBJECTID":1988,"StreetName1":"Victoria St ","StreetName2":"2nd Ave ","CountID":"mot38","gisuid":200000184,"barcode":"TFK-00000184","GlobalID":"{3FB08356-A11E-4432-9F4C-2202A9311114}"}},{"type":"Feature","id":1989,"geometry":{"type":"Point","coordinates":[-122.79858504739535,53.99618115466598]},"properties":{"OBJECTID":1989,"StreetName1":"Hart Hwy ","StreetName2":"Hndlen Rd ","CountID":"mot04","gisuid":200000185,"barcode":"TFK-00000185","GlobalID":"{A2F95081-5B29-4489-9A5A-C30F1EE7B425}"}},{"type":"Feature","id":1990,"geometry":{"type":"Point","coordinates":[-122.75793253555837,53.90542699235455]},"properties":{"OBJECTID":1990,"StreetName1":"20th Ave ","StreetName2":"Spruce St ","CountID":"mot40","gisuid":200000186,"barcode":"TFK-00000186","GlobalID":"{839DC51C-09A6-4BDE-8788-F3A616B106B1}"}},{"type":"Feature","id":1993,"geometry":{"type":"Point","coordinates":[-122.73940907006714,53.917605008927005]},"properties":{"OBJECTID":1993,"StreetName1":"1st Ave ","StreetName2":"Queensway  ","CountID":"mot43","gisuid":200000189,"barcode":"TFK-00000189","GlobalID":"{1ED345D8-9AC0-4A90-8231-E8D41DE36BF2}"}},{"type":"Feature","id":1994,"geometry":{"type":"Point","coordinates":[-122.77236828975786,53.978832773329984]},"properties":{"OBJECTID":1994,"StreetName1":"Hart Hwy ","StreetName2":"Monterey Rd ","CountID":"mot05","gisuid":200000190,"barcode":"TFK-00000190","GlobalID":"{B53ADC61-A5E6-4920-9F95-FF006F95E2AF}"}},{"type":"Feature","id":1995,"geometry":{"type":"Point","coordinates":[-122.77580107033836,53.98094898045476]},"properties":{"OBJECTID":1995,"StreetName1":"Hart Hwy ","StreetName2":"Lehman St ","CountID":"mot06","gisuid":200000191,"barcode":"TFK-00000191","GlobalID":"{12CFAEB4-0555-4B22-BC83-8DAE3CABD12C}"}},{"type":"Feature","id":1996,"geometry":{"type":"Point","coordinates":[-122.80111115863575,54.00364183328486]},"properties":{"OBJECTID":1996,"StreetName1":"Hart Hwy ","StreetName2":"Chief Lake Rd ","CountID":"mot07","gisuid":200000192,"barcode":"TFK-00000192","GlobalID":"{60AC8F4F-BE3D-4724-92EE-A548F0C60CD1}"}},{"type":"Feature","id":1997,"geometry":{"type":"Point","coordinates":[-122.76808334247202,53.971227570060385]},"properties":{"OBJECTID":1997,"StreetName1":"Hart Hwy ","StreetName2":"Collins Rd ","CountID":"mot08","gisuid":200000193,"barcode":"TFK-00000193","GlobalID":"{B9E4D69C-FC69-40C2-AF90-8C3AA8DF1D88}"}},{"type":"Feature","id":1998,"geometry":{"type":"Point","coordinates":[-122.761348884521,53.94368662545691]},"properties":{"OBJECTID":1998,"StreetName1":"Hart Hwy ","StreetName2":"Northwood Pulpmill Rd ","CountID":"mot09","gisuid":200000194,"barcode":"TFK-00000194","GlobalID":"{28BFFC43-0286-4492-83A9-BE0B7A1BA795}"}},{"type":"Feature","id":1999,"geometry":{"type":"Point","coordinates":[-122.74691579485197,53.91823374926651]},"properties":{"OBJECTID":1999,"StreetName1":"2nd Ave ","StreetName2":"Brunswick St ","CountID":"o01","gisuid":200000195,"barcode":"TFK-00000195","GlobalID":"{BA8D3EC0-8D2F-41B7-869F-279E14871DA3}"}},{"type":"Feature","id":2000,"geometry":{"type":"Point","coordinates":[-122.64103604407536,53.898371885872585]},"properties":{"OBJECTID":2000,"StreetName1":"Blackburn Rd N","StreetName2":"Giscome Rd ","CountID":"o10","gisuid":200000196,"barcode":"TFK-00000196","GlobalID":"{B1C04A2E-E421-4CD8-9CD6-4AC3D1B5C39C}"}},{"type":"Feature","id":2001,"geometry":{"type":"Point","coordinates":[-122.74755504470203,53.91744279538464]},"properties":{"OBJECTID":2001,"StreetName1":"3rd Ave ","StreetName2":"Brunswick St ","CountID":"o02","gisuid":200000197,"barcode":"TFK-00000197","GlobalID":"{00CD63F9-85E0-4254-BDB9-09A5D240D53A}"}},{"type":"Feature","id":2002,"geometry":{"type":"Point","coordinates":[-122.74446537574399,53.91656979083405]},"properties":{"OBJECTID":2002,"StreetName1":"Dominion St ","StreetName2":"3rd Ave ","CountID":"o03","gisuid":200000198,"barcode":"TFK-00000198","GlobalID":"{DF3C9119-D68E-4944-8E88-1B93067EC02C}"}},{"type":"Feature","id":2003,"geometry":{"type":"Point","coordinates":[-122.66665036565574,53.908539209197]},"properties":{"OBJECTID":2003,"StreetName1":"Hwy 16 E","StreetName2":"Old Cariboo Hwy ","CountID":"mot32","gisuid":200000199,"barcode":"TFK-00000199","GlobalID":"{2A022657-D3B9-4176-A588-949A3FDB1894}"}},{"type":"Feature","id":2004,"geometry":{"type":"Point","coordinates":[-122.76927183550572,53.91036031345688]},"properties":{"OBJECTID":2004,"StreetName1":"15th Ave ","StreetName2":"Carney St ","CountID":"aa10","gisuid":200000200,"barcode":"TFK-00000200","GlobalID":"{D76ACF2B-963D-466D-8497-E65801D473EE}"}},{"type":"Feature","id":2005,"geometry":{"type":"Point","coordinates":[-122.79102153485567,53.89892906609719]},"properties":{"OBJECTID":2005,"StreetName1":"Ospika Blvd ","StreetName2":"Massey Dr ","CountID":"aa11","gisuid":200000201,"barcode":"TFK-00000201","GlobalID":"{9C59DC81-A7D8-4894-8AD6-514935E0481D}"}},{"type":"Feature","id":2006,"geometry":{"type":"Point","coordinates":[-122.79191683305996,53.86918526648059]},"properties":{"OBJECTID":2006,"StreetName1":"Ospika Blvd ","StreetName2":"Tyner Blvd ","CountID":"aa12","gisuid":200000202,"barcode":"TFK-00000202","GlobalID":"{79DC89A6-AE6F-44EF-BB4E-8DEBF96DF21D}"}},{"type":"Feature","id":2007,"geometry":{"type":"Point","coordinates":[-122.74165986344757,53.914829591601425]},"properties":{"OBJECTID":2007,"StreetName1":"Queensway  ","StreetName2":"4th Ave ","CountID":"aa13","gisuid":200000203,"barcode":"TFK-00000203","GlobalID":"{E384A1C0-C538-414E-ADBE-B2275AEAA829}"}},{"type":"Feature","id":2008,"geometry":{"type":"Point","coordinates":[-122.74039815767703,53.916372819305266]},"properties":{"OBJECTID":2008,"StreetName1":"2nd Ave ","StreetName2":"Queensway  ","CountID":"aa14","gisuid":200000204,"barcode":"TFK-00000204","GlobalID":"{3D6BF794-2B41-4045-92C6-C4A2699E2902}"}},{"type":"Feature","id":2009,"geometry":{"type":"Point","coordinates":[-122.80762437419341,53.920622364433825]},"properties":{"OBJECTID":2009,"StreetName1":"5th Ave ","StreetName2":"Tabor Blvd ","CountID":"aa15","gisuid":200000205,"barcode":"TFK-00000205","GlobalID":"{EE3AC131-B2FF-419C-9C67-6EF5ED56B2C5}"}},{"type":"Feature","id":2010,"geometry":{"type":"Point","coordinates":[-122.76931640732978,53.92064802145685]},"properties":{"OBJECTID":2010,"StreetName1":"5th Ave ","StreetName2":"Carney St ","CountID":"aa01","gisuid":200000206,"barcode":"TFK-00000206","GlobalID":"{042942B3-8600-4FBE-8065-2814EB16CCDD}"}},{"type":"Feature","id":2011,"geometry":{"type":"Point","coordinates":[-122.75512152356931,53.91862807358645]},"properties":{"OBJECTID":2011,"StreetName1":"Winnipeg St ","StreetName2":"4th Ave ","CountID":"aa16","gisuid":200000207,"barcode":"TFK-00000207","GlobalID":"{53BC6124-C25D-43F7-8389-1F1103C2810D}"}},{"type":"Feature","id":2012,"geometry":{"type":"Point","coordinates":[-122.76845635059172,53.92546295310466]},"properties":{"OBJECTID":2012,"StreetName1":"1st Ave ","StreetName2":"River Rd ","CountID":"aa17","gisuid":200000208,"barcode":"TFK-00000208","GlobalID":"{8A5C75BB-4A1D-467A-A9D2-9E4899649A2F}"}},{"type":"Feature","id":2013,"geometry":{"type":"Point","coordinates":[-122.81936042455835,53.92062255981435]},"properties":{"OBJECTID":2013,"StreetName1":"Foothills Blvd ","StreetName2":"5th Ave ","CountID":"aa18","gisuid":200000209,"barcode":"TFK-00000209","GlobalID":"{CF41E5CB-C9A3-4592-B16F-FF834996CC63}"}},{"type":"Feature","id":2014,"geometry":{"type":"Point","coordinates":[-122.81959161831733,53.93116848168069]},"properties":{"OBJECTID":2014,"StreetName1":"Foothills Blvd ","StreetName2":"1st Ave ","CountID":"aa19","gisuid":200000210,"barcode":"TFK-00000210","GlobalID":"{5EB97FDB-86B8-43BA-AA5E-A334E995B07D}"}},{"type":"Feature","id":2015,"geometry":{"type":"Point","coordinates":[-122.80158654643019,53.977951970534065]},"properties":{"OBJECTID":2015,"StreetName1":"Foothills Blvd ","StreetName2":"Highland Dr ","CountID":"aa02","gisuid":200000211,"barcode":"TFK-00000211","GlobalID":"{47B0F10E-C6E5-4590-88AB-F0332163FD0F}"}},{"type":"Feature","id":2016,"geometry":{"type":"Point","coordinates":[-122.81522946316895,53.98950797974666]},"properties":{"OBJECTID":2016,"StreetName1":"Foothills Blvd ","StreetName2":"Austin Rd W","CountID":"aa20","gisuid":200000212,"barcode":"TFK-00000212","GlobalID":"{3CBD7CF7-AE0D-4E1E-8248-A80F921C4527}"}},{"type":"Feature","id":2017,"geometry":{"type":"Point","coordinates":[-122.819444204011,54.00927203408439]},"properties":{"OBJECTID":2017,"StreetName1":"Foothills Blvd ","StreetName2":"Chief Lake Rd ","CountID":"aa21","gisuid":200000213,"barcode":"TFK-00000213","GlobalID":"{52B1C7CB-DBEB-4C94-B07F-A0E37860EA48}"}},{"type":"Feature","id":2018,"geometry":{"type":"Point","coordinates":[-122.78722894113292,53.88821815786741]},"properties":{"OBJECTID":2018,"StreetName1":"Ospika Blvd ","StreetName2":"Ferry Ave ","CountID":"aa23","gisuid":200000214,"barcode":"TFK-00000214","GlobalID":"{E4D60D47-BDF1-4A18-BA8B-DF866F2D4184}"}},{"type":"Feature","id":2019,"geometry":{"type":"Point","coordinates":[-122.79415284639992,53.92486886921023]},"properties":{"OBJECTID":2019,"StreetName1":"Ospika Blvd ","StreetName2":"1st Ave ","CountID":"aa24","gisuid":200000215,"barcode":"TFK-00000215","GlobalID":"{21266851-B89C-4709-81FD-5B84CF3BB41E}"}},{"type":"Feature","id":2020,"geometry":{"type":"Point","coordinates":[-122.79877711958154,53.935949394869674]},"properties":{"OBJECTID":2020,"StreetName1":"Ospika Blvd ","StreetName2":"Tabor Blvd ","CountID":"aa25","gisuid":200000216,"barcode":"TFK-00000216","GlobalID":"{921EA829-49A9-4D33-81C6-296429D92969}"}},{"type":"Feature","id":2021,"geometry":{"type":"Point","coordinates":[-122.74301526503352,53.912765619460735]},"properties":{"OBJECTID":2021,"StreetName1":"Queensway  ","StreetName2":"Patricia Blvd ","CountID":"aa26","gisuid":200000217,"barcode":"TFK-00000217","GlobalID":"{201DB0B9-58FF-4BB3-8408-A37966E721C3}"}},{"type":"Feature","id":2022,"geometry":{"type":"Point","coordinates":[-122.80116130749938,53.988847004385526]},"properties":{"OBJECTID":2022,"StreetName1":"Austin Rd W","StreetName2":"Kelly Rd S","CountID":"aa27","gisuid":200000218,"barcode":"TFK-00000218","GlobalID":"{6B91C153-4444-4ECA-964B-8F5652123F5C}"}},{"type":"Feature","id":2023,"geometry":{"type":"Point","coordinates":[-122.80314461452129,53.9271207548937]},"properties":{"OBJECTID":2023,"StreetName1":"Tabor Blvd ","StreetName2":"1st Ave ","CountID":"aa28","gisuid":200000219,"barcode":"TFK-00000219","GlobalID":"{258939D9-CEF4-4E01-A65A-1FD60E54E0A3}"}},{"type":"Feature","id":2024,"geometry":{"type":"Point","coordinates":[-122.78075390821313,53.89750470483532]},"properties":{"OBJECTID":2024,"StreetName1":"Westwood Dr ","StreetName2":"Lorne Cres ","CountID":"o59","gisuid":200000220,"barcode":"TFK-00000220","GlobalID":"{8420A89F-B222-4B15-95A8-63034527430C}"}},{"type":"Feature","id":2025,"geometry":{"type":"Point","coordinates":[-122.81385103985637,53.958002665899436]},"properties":{"OBJECTID":2025,"StreetName1":"Foothills Blvd ","StreetName2":"North Nechako Rd ","CountID":"aa03","gisuid":200000221,"barcode":"TFK-00000221","GlobalID":"{AEECA9B0-4756-432D-9769-23EBB5BDF49B}"}},{"type":"Feature","id":2026,"geometry":{"type":"Point","coordinates":[-122.76735530395197,53.928495890151524]},"properties":{"OBJECTID":2026,"StreetName1":"Cameron St ","StreetName2":"North Nechako Rd ","CountID":"aa04","gisuid":200000222,"barcode":"TFK-00000222","GlobalID":"{E277465E-A1CF-4F19-96B8-F0E2ABD66080}"}},{"type":"Feature","id":2027,"geometry":{"type":"Point","coordinates":[-122.79746915579001,53.910274191833174]},"properties":{"OBJECTID":2027,"StreetName1":"Ospika Blvd ","StreetName2":"15th Ave ","CountID":"aa05","gisuid":200000223,"barcode":"TFK-00000223","GlobalID":"{B7B8C9A6-85CD-4E45-A528-C815777AF209}"}},{"type":"Feature","id":2028,"geometry":{"type":"Point","coordinates":[-122.76722303303444,53.90638526576201]},"properties":{"OBJECTID":2028,"StreetName1":"Massey Dr ","StreetName2":"Carney St ","CountID":"aa06","gisuid":200000224,"barcode":"TFK-00000224","GlobalID":"{82450E16-F5DC-43B5-8388-41C3006FE0D8}"}},{"type":"Feature","id":2029,"geometry":{"type":"Point","coordinates":[-122.79419767614168,53.92061076442464]},"properties":{"OBJECTID":2029,"StreetName1":"Ospika Blvd ","StreetName2":"5th Ave ","CountID":"aa07","gisuid":200000225,"barcode":"TFK-00000225","GlobalID":"{7F30A585-04AF-4D57-B6CF-ED5F5FF964C4}"}},{"type":"Feature","id":2030,"geometry":{"type":"Point","coordinates":[-122.80703073319012,53.910366392756906]},"properties":{"OBJECTID":2030,"StreetName1":"15th Ave ","StreetName2":"Tabor Blvd ","CountID":"aa08","gisuid":200000226,"barcode":"TFK-00000226","GlobalID":"{7851CC9C-E462-4114-A789-BD1B5662FFB7}"}},{"type":"Feature","id":2031,"geometry":{"type":"Point","coordinates":[-122.81160040229163,53.91035345555264]},"properties":{"OBJECTID":2031,"StreetName1":"Foothills Blvd ","StreetName2":"15th Ave ","CountID":"aa09","gisuid":200000227,"barcode":"TFK-00000227","GlobalID":"{A26575B0-3D77-4C7D-BFB3-28946C4EB694}"}},{"type":"Feature","id":2032,"geometry":{"type":"Point","coordinates":[-122.7606982294987,53.91172681806628]},"properties":{"OBJECTID":2032,"StreetName1":"Winnipeg St ","StreetName2":"13th Ave ","CountID":"ac01","gisuid":200000228,"barcode":"TFK-00000228","GlobalID":"{83CA822C-B178-4BA8-9816-6AC27A776E45}"}},{"type":"Feature","id":2033,"geometry":{"type":"Point","coordinates":[-122.7579455157955,53.909889254726856]},"properties":{"OBJECTID":2033,"StreetName1":"15th Ave ","StreetName2":"Spruce St ","CountID":"ac10","gisuid":200000229,"barcode":"TFK-00000229","GlobalID":"{AE219B1C-950A-43DD-A804-E34BF34DDE55}"}},{"type":"Feature","id":2034,"geometry":{"type":"Point","coordinates":[-122.78462810295323,53.876639163965805]},"properties":{"OBJECTID":2034,"StreetName1":"Ospika Blvd ","StreetName2":"Davis Rd ","CountID":"ac11","gisuid":200000230,"barcode":"TFK-00000230","GlobalID":"{061F4069-87BE-4ECE-A546-DB54CC8327F7}"}},{"type":"Feature","id":2035,"geometry":{"type":"Point","coordinates":[-122.7965764541204,53.902212288476576]},"properties":{"OBJECTID":2035,"StreetName1":"Ospika Blvd ","StreetName2":"22nd Ave ","CountID":"ac12","gisuid":200000231,"barcode":"TFK-00000231","GlobalID":"{FD947C47-E390-4BEA-9A59-5DDCA4A45D08}"}},{"type":"Feature","id":2036,"geometry":{"type":"Point","coordinates":[-122.74230466693932,53.90846267068837]},"properties":{"OBJECTID":2036,"StreetName1":"Queensway  ","StreetName2":"17th Ave ","CountID":"ac13","gisuid":200000232,"barcode":"TFK-00000232","GlobalID":"{A5682154-B279-4149-8C25-A28DAAD68740}"}},{"type":"Feature","id":2037,"geometry":{"type":"Point","coordinates":[-122.74229401145472,53.9054641933294]},"properties":{"OBJECTID":2037,"StreetName1":"Queensway  ","StreetName2":"20th Ave ","CountID":"ac14","gisuid":200000233,"barcode":"TFK-00000233","GlobalID":"{89C0BEF3-E5D8-4B6E-8445-C14C8A9013CE}"}},{"type":"Feature","id":2038,"geometry":{"type":"Point","coordinates":[-122.74384771548478,53.91736243952086]},"properties":{"OBJECTID":2038,"StreetName1":"2nd Ave ","StreetName2":"Dominion St ","CountID":"ac15","gisuid":200000234,"barcode":"TFK-00000234","GlobalID":"{79E2B50D-966A-44C8-863B-6FE9DAAFA979}"}},{"type":"Feature","id":2039,"geometry":{"type":"Point","coordinates":[-122.7764707055939,53.868650389789615]},"properties":{"OBJECTID":2039,"StreetName1":"Domano Blvd ","StreetName2":"Dakelh Ti ","CountID":"ac16","gisuid":200000235,"barcode":"TFK-00000235","GlobalID":"{C90BFB2F-C863-4A00-A038-E3877E89F16E}"}},{"type":"Feature","id":2040,"geometry":{"type":"Point","coordinates":[-122.7958509739848,53.916513592716505]},"properties":{"OBJECTID":2040,"StreetName1":"Ospika Blvd ","StreetName2":"Rainbow Dr ","CountID":"ac17","gisuid":200000236,"barcode":"TFK-00000236","GlobalID":"{13350B65-C26C-4792-B11D-6C1E3CBCF337}"}},{"type":"Feature","id":2041,"geometry":{"type":"Point","coordinates":[-122.79748739018798,53.907333809140475]},"properties":{"OBJECTID":2041,"StreetName1":"Ospika Blvd ","StreetName2":"18th Ave ","CountID":"ac18","gisuid":200000237,"barcode":"TFK-00000237","GlobalID":"{AB99AE37-1D2A-43DE-B427-D87ED3330FEA}"}},{"type":"Feature","id":2042,"geometry":{"type":"Point","coordinates":[-122.78470936225878,53.91027574163941]},"properties":{"OBJECTID":2042,"StreetName1":"15th Ave ","StreetName2":"Lyon St ","CountID":"ac19","gisuid":200000238,"barcode":"TFK-00000238","GlobalID":"{1AA40891-89D4-4CE8-9348-E9C2EDD7F3B4}"}},{"type":"Feature","id":2043,"geometry":{"type":"Point","coordinates":[-122.77955809743166,53.888220471038615]},"properties":{"OBJECTID":2043,"StreetName1":"Ferry Ave ","StreetName2":"Westwood Dr ","CountID":"ac02","gisuid":200000239,"barcode":"TFK-00000239","GlobalID":"{573BF8F9-170A-4AB3-B444-D440BEDC124E}"}},{"type":"Feature","id":2044,"geometry":{"type":"Point","coordinates":[-122.76374445026292,53.908762278283206]},"properties":{"OBJECTID":2044,"StreetName1":"Winnipeg St ","StreetName2":"17th Ave ","CountID":"ac20","gisuid":200000240,"barcode":"TFK-00000240","GlobalID":"{B8366286-6F6E-41F1-B95C-5824F37E2114}"}},{"type":"Feature","id":2045,"geometry":{"type":"Point","coordinates":[-122.81880656943633,53.9161263940554]},"properties":{"OBJECTID":2045,"StreetName1":"Foothills Blvd ","StreetName2":"Cranbrook Hill Rd ","CountID":"ac21","gisuid":200000241,"barcode":"TFK-00000241","GlobalID":"{542AE41C-B9FE-4392-8C45-B4E67242C966}"}},{"type":"Feature","id":2046,"geometry":{"type":"Point","coordinates":[-122.76635470722196,53.85902300715957]},"properties":{"OBJECTID":2046,"StreetName1":"Domano Blvd ","StreetName2":"St Lawrence Ave ","CountID":"ac22","gisuid":200000242,"barcode":"TFK-00000242","GlobalID":"{B4DAB0E4-B0CC-4AB1-8F4C-DCD17A637D2D}"}},{"type":"Feature","id":2047,"geometry":{"type":"Point","coordinates":[-122.80115355501506,54.02116126991489]},"properties":{"OBJECTID":2047,"StreetName1":"Kelly Rd N","StreetName2":"Ferguson Lake Rd ","CountID":"ac23","gisuid":200000243,"barcode":"TFK-00000243","GlobalID":"{698F9A51-6A03-4CBE-AE19-EED6097EB886}"}},{"type":"Feature","id":2048,"geometry":{"type":"Point","coordinates":[-122.66551094613577,53.8983763119145]},"properties":{"OBJECTID":2048,"StreetName1":"Old Cariboo Hwy ","StreetName2":"Giscome Rd ","CountID":"ac25","gisuid":200000244,"barcode":"TFK-00000244","GlobalID":"{D03273B1-5878-432A-AC08-83C40F37AD6E}"}},{"type":"Feature","id":2640,"geometry":{"type":"Point","coordinates":[-122.72686601480362,53.91395656260887]},"properties":{"OBJECTID":2640,"StreetName1":"1st Ave ","StreetName2":"Lower Patricia Blvd ","CountID":"mot42","gisuid":200000836,"barcode":"TFK-00000836","GlobalID":"{F4F3FE4A-D2DE-4A41-879E-528B5B53D2AB}"}},{"type":"Feature","id":3062,"geometry":{"type":"Point","coordinates":[-122.76195319195145,53.90547223090603]},"properties":{"OBJECTID":3062,"StreetName1":"20th Ave ","StreetName2":"Vine St ","CountID":"mot41","gisuid":200001258,"barcode":"TFK-00001258","GlobalID":"{EC32DF3B-D3F7-4BF2-822F-E4F4398072DB}"}},{"type":"Feature","id":3385,"geometry":{"type":"Point","coordinates":[-122.73055904773315,53.84198545152905]},"properties":{"OBJECTID":3385,"StreetName1":"Pacific St ","StreetName2":"Sintich Rd ","CountID":"o54","gisuid":200001581,"barcode":"TFK-00001581","GlobalID":"{4F62EDBF-25BC-4FC6-9891-256D768568FA}"}}]}
