{"type":"FeatureCollection","name":"no2_caaqs_stations_2022_2024","metadata":{"title":"Status of Nitrogen Dioxide in B.C.","indicator":"https://www.env.gov.bc.ca/soe/indicators/air/no2.html","source":"https://www.env.gov.bc.ca/soe/indicators/air/no2_viz/leaflet_map.html","assessmentPeriod":"2022–2024","updated":"June 2026","standard":"Canadian Ambient Air Quality Standards for NO₂"},"features":[{"type":"Feature","id":"abbotsford-a-columbia-street","properties":{"id":"abbotsford-a-columbia-street","name":"Abbotsford A Columbia Street","display":"Abbotsford A Columbia Street · Lower Fraser Valley","air_zone":"Lower Fraser Valley","management_level":"Actions for Preventing Air Quality Deterioration","details":"Station: Abbotsford A Columbia Street\nAir Zone: Lower Fraser Valley\n1-hour Metric\n26.3 ppb (3 year average)\nAnnual Metric\n6.1 ppb (3 year average)\nNO 2 Air Quality Management Actions\nActions for Preventing Air Quality Deterioration"},"geometry":{"type":"Point","coordinates":[-122.3266,49.0215]}},{"type":"Feature","id":"abbotsford-central","properties":{"id":"abbotsford-central","name":"Abbotsford Central","display":"Abbotsford Central · Lower Fraser Valley","air_zone":"Lower Fraser Valley","management_level":"Actions for Preventing CAAQS Exceedance","details":"Station: Abbotsford Central\nAir Zone: Lower Fraser Valley\n1-hour Metric\n29.8 ppb (1 year average)\nAnnual Metric\n7.2 ppb (1 year average)\nNO 2 Air Quality Management Actions\nActions for Preventing CAAQS Exceedance"},"geometry":{"type":"Point","coordinates":[-122.3097,49.0428]}},{"type":"Feature","id":"agassiz","properties":{"id":"agassiz","name":"Agassiz","display":"Agassiz · Lower Fraser Valley","air_zone":"Lower Fraser Valley","management_level":"Actions for Preventing Air Quality Deterioration","details":"Station: Agassiz\nAir Zone: Lower Fraser Valley\n1-hour Metric\n29 ppb (3 year average)\nAnnual Metric\n5.8 ppb (3 year average)\nNO 2 Air Quality Management Actions\nActions for Preventing Air Quality Deterioration"},"geometry":{"type":"Point","coordinates":[-121.762334,49.238032]}},{"type":"Feature","id":"burnaby-kensington-park","properties":{"id":"burnaby-kensington-park","name":"Burnaby Kensington Park","display":"Burnaby Kensington Park · Lower Fraser Valley","air_zone":"Lower Fraser Valley","management_level":"Actions for Preventing CAAQS Exceedance","details":"Station: Burnaby Kensington Park\nAir Zone: Lower Fraser Valley\n1-hour Metric\n34.1 ppb (3 year average)\nAnnual Metric\n9.6 ppb (3 year average)\nNO 2 Air Quality Management Actions\nActions for Preventing CAAQS Exceedance"},"geometry":{"type":"Point","coordinates":[-122.9711,49.2794]}},{"type":"Feature","id":"burnaby-mountain","properties":{"id":"burnaby-mountain","name":"Burnaby Mountain","display":"Burnaby Mountain · Lower Fraser Valley","air_zone":"Lower Fraser Valley","management_level":"Actions for Preventing Air Quality Deterioration","details":"Station: Burnaby Mountain\nAir Zone: Lower Fraser Valley\n1-hour Metric\n28.4 ppb (3 year average)\nAnnual Metric\n5.8 ppb (3 year average)\nNO 2 Air Quality Management Actions\nActions for Preventing Air Quality Deterioration"},"geometry":{"type":"Point","coordinates":[-122.9222,49.2797]}},{"type":"Feature","id":"burnaby-south","properties":{"id":"burnaby-south","name":"Burnaby South","display":"Burnaby South · Lower Fraser Valley","air_zone":"Lower Fraser Valley","management_level":"Actions for Preventing CAAQS Exceedance","details":"Station: Burnaby South\nAir Zone: Lower Fraser Valley\n1-hour Metric\n36.3 ppb (3 year average)\nAnnual Metric\n11 ppb (3 year average)\nNO 2 Air Quality Management Actions\nActions for Preventing CAAQS Exceedance"},"geometry":{"type":"Point","coordinates":[-122.9856,49.2153]}},{"type":"Feature","id":"castlegar-zinio-park","properties":{"id":"castlegar-zinio-park","name":"Castlegar Zinio Park","display":"Castlegar Zinio Park · Southern Interior","air_zone":"Southern Interior","management_level":"Actions for Preventing Air Quality Deterioration","details":"Station: Castlegar Zinio Park\nAir Zone: Southern Interior\n1-hour Metric\n23.2 ppb (3 year average)\nAnnual Metric\n5.2 ppb (3 year average)\nNO 2 Air Quality Management Actions\nActions for Preventing Air Quality Deterioration"},"geometry":{"type":"Point","coordinates":[-117.661527,49.317698]}},{"type":"Feature","id":"chilliwack-airport","properties":{"id":"chilliwack-airport","name":"Chilliwack Airport","display":"Chilliwack Airport · Lower Fraser Valley","air_zone":"Lower Fraser Valley","management_level":"Actions for Preventing Air Quality Deterioration","details":"Station: Chilliwack Airport\nAir Zone: Lower Fraser Valley\n1-hour Metric\n29.4 ppb (3 year average)\nAnnual Metric\n6.6 ppb (3 year average)\nNO 2 Air Quality Management Actions\nActions for Preventing Air Quality Deterioration"},"geometry":{"type":"Point","coordinates":[-121.9469,49.1511]}},{"type":"Feature","id":"colwood-city-hall","properties":{"id":"colwood-city-hall","name":"Colwood City Hall","display":"Colwood City Hall · Georgia Strait","air_zone":"Georgia Strait","management_level":"Actions for Preventing Air Quality Deterioration","details":"Station: Colwood City Hall\nAir Zone: Georgia Strait\n1-hour Metric\n20.9 ppb (3 year average)\nAnnual Metric\n3.7 ppb (3 year average)\nNO 2 Air Quality Management Actions\nActions for Preventing Air Quality Deterioration"},"geometry":{"type":"Point","coordinates":[-123.49278,48.42389]}},{"type":"Feature","id":"coquitlam-douglas-college","properties":{"id":"coquitlam-douglas-college","name":"Coquitlam Douglas College","display":"Coquitlam Douglas College · Lower Fraser Valley","air_zone":"Lower Fraser Valley","management_level":"Actions for Preventing CAAQS Exceedance","details":"Station: Coquitlam Douglas College\nAir Zone: Lower Fraser Valley\n1-hour Metric\n30.6 ppb (1 year average)\nAnnual Metric\n8.2 ppb (1 year average)\nNO 2 Air Quality Management Actions\nActions for Preventing CAAQS Exceedance"},"geometry":{"type":"Point","coordinates":[-122.7914,49.2881]}},{"type":"Feature","id":"courtenay-elementary-school","properties":{"id":"courtenay-elementary-school","name":"Courtenay Elementary School","display":"Courtenay Elementary School · Georgia Strait","air_zone":"Georgia Strait","management_level":"Actions for Preventing Air Quality Deterioration","details":"Station: Courtenay Elementary School\nAir Zone: Georgia Strait\n1-hour Metric\n20.8 ppb (3 year average)\nAnnual Metric\n3.2 ppb (3 year average)\nNO 2 Air Quality Management Actions\nActions for Preventing Air Quality Deterioration"},"geometry":{"type":"Point","coordinates":[-124.996222,49.682603]}},{"type":"Feature","id":"cranbrook-muriel-baxter","properties":{"id":"cranbrook-muriel-baxter","name":"Cranbrook Muriel Baxter","display":"Cranbrook Muriel Baxter · Southern Interior","air_zone":"Southern Interior","management_level":"Actions for Preventing Air Quality Deterioration","details":"Station: Cranbrook Muriel Baxter\nAir Zone: Southern Interior\n1-hour Metric\n27.3 ppb (3 year average)\nAnnual Metric\n4.3 ppb (3 year average)\nNO 2 Air Quality Management Actions\nActions for Preventing Air Quality Deterioration"},"geometry":{"type":"Point","coordinates":[-115.753682,49.507103]}},{"type":"Feature","id":"duncan","properties":{"id":"duncan","name":"Duncan","display":"Duncan · Georgia Strait","air_zone":"Georgia Strait","management_level":"Actions for Preventing Air Quality Deterioration","details":"Station: Duncan\nAir Zone: Georgia Strait\n1-hour Metric\n19.7 ppb (1 year average)\nAnnual Metric\n3.9 ppb (1 year average)\nNO 2 Air Quality Management Actions\nActions for Preventing Air Quality Deterioration"},"geometry":{"type":"Point","coordinates":[-123.715846,48.784854]}},{"type":"Feature","id":"fort-st-john-key-learning-centre","properties":{"id":"fort-st-john-key-learning-centre","name":"Fort St John Key Learning Centre","display":"Fort St John Key Learning Centre · Northeast","air_zone":"Northeast","management_level":"Actions for Preventing CAAQS Exceedance","details":"Station: Fort St John Key Learning Centre\nAir Zone: Northeast\n1-hour Metric\n46.1 ppb (3 year average)\nAnnual Metric\n6 ppb (3 year average)\nNO 2 Air Quality Management Actions\nActions for Preventing CAAQS Exceedance"},"geometry":{"type":"Point","coordinates":[-120.856111,56.244722]}},{"type":"Feature","id":"hope-airport","properties":{"id":"hope-airport","name":"Hope Airport","display":"Hope Airport · Lower Fraser Valley","air_zone":"Lower Fraser Valley","management_level":"Actions for Preventing Air Quality Deterioration","details":"Station: Hope Airport\nAir Zone: Lower Fraser Valley\n1-hour Metric\n25.5 ppb (3 year average)\nAnnual Metric\n5.8 ppb (3 year average)\nNO 2 Air Quality Management Actions\nActions for Preventing Air Quality Deterioration"},"geometry":{"type":"Point","coordinates":[-121.4994,49.3697]}},{"type":"Feature","id":"horseshoe-bay","properties":{"id":"horseshoe-bay","name":"Horseshoe Bay","display":"Horseshoe Bay · Lower Fraser Valley","air_zone":"Lower Fraser Valley","management_level":"Actions for Preventing CAAQS Exceedance","details":"Station: Horseshoe Bay\nAir Zone: Lower Fraser Valley\n1-hour Metric\n44.2 ppb (3 year average)\nAnnual Metric\n9.3 ppb (3 year average)\nNO 2 Air Quality Management Actions\nActions for Preventing CAAQS Exceedance"},"geometry":{"type":"Point","coordinates":[-123.2766,49.3686]}},{"type":"Feature","id":"kamloops-federal-building","properties":{"id":"kamloops-federal-building","name":"Kamloops Federal Building","display":"Kamloops Federal Building · Southern Interior","air_zone":"Southern Interior","management_level":"Actions for Preventing CAAQS Exceedance","details":"Station: Kamloops Federal Building\nAir Zone: Southern Interior\n1-hour Metric\n37.7 ppb (3 year average)\nAnnual Metric\n9.6 ppb (3 year average)\nNO 2 Air Quality Management Actions\nActions for Preventing CAAQS Exceedance"},"geometry":{"type":"Point","coordinates":[-120.334016,50.67477]}},{"type":"Feature","id":"kelowna","properties":{"id":"kelowna","name":"Kelowna","display":"Kelowna · Southern Interior","air_zone":"Southern Interior","management_level":"Actions for Preventing Air Quality Deterioration","details":"Station: Kelowna\nAir Zone: Southern Interior\n1-hour Metric\n25.7 ppb (3 year average)\nAnnual Metric\n4.6 ppb (3 year average)\nNO 2 Air Quality Management Actions\nActions for Preventing Air Quality Deterioration"},"geometry":{"type":"Point","coordinates":[-119.467461,49.862119]}},{"type":"Feature","id":"kitimat-whitesail","properties":{"id":"kitimat-whitesail","name":"Kitimat Whitesail","display":"Kitimat Whitesail · Coastal","air_zone":"Coastal","management_level":"Actions for Keeping Clean Areas Clean","details":"Station: Kitimat Whitesail\nAir Zone: Coastal\n1-hour Metric\n11 ppb (2 year average)\nAnnual Metric\n1 ppb (2 year average)\nNO 2 Air Quality Management Actions\nActions for Keeping Clean Areas Clean"},"geometry":{"type":"Point","coordinates":[-128.639131,54.066909]}},{"type":"Feature","id":"langdale-elementary","properties":{"id":"langdale-elementary","name":"Langdale Elementary","display":"Langdale Elementary · Georgia Strait","air_zone":"Georgia Strait","management_level":"Actions for Preventing Air Quality Deterioration","details":"Station: Langdale Elementary\nAir Zone: Georgia Strait\n1-hour Metric\n21.8 ppb (3 year average)\nAnnual Metric\n3.6 ppb (3 year average)\nNO 2 Air Quality Management Actions\nActions for Preventing Air Quality Deterioration"},"geometry":{"type":"Point","coordinates":[-123.479185,49.438848]}},{"type":"Feature","id":"langley-central","properties":{"id":"langley-central","name":"Langley Central","display":"Langley Central · Lower Fraser Valley","air_zone":"Lower Fraser Valley","management_level":"Actions for Preventing Air Quality Deterioration","details":"Station: Langley Central\nAir Zone: Lower Fraser Valley\n1-hour Metric\n23.2 ppb (3 year average)\nAnnual Metric\n5.4 ppb (3 year average)\nNO 2 Air Quality Management Actions\nActions for Preventing Air Quality Deterioration"},"geometry":{"type":"Point","coordinates":[-122.5669,49.0956]}},{"type":"Feature","id":"maple-ridge-golden-ears-school","properties":{"id":"maple-ridge-golden-ears-school","name":"Maple Ridge Golden Ears School","display":"Maple Ridge Golden Ears School · Lower Fraser Valley","air_zone":"Lower Fraser Valley","management_level":"Actions for Preventing Air Quality Deterioration","details":"Station: Maple Ridge Golden Ears School\nAir Zone: Lower Fraser Valley\n1-hour Metric\n28.8 ppb (3 year average)\nAnnual Metric\n6.3 ppb (3 year average)\nNO 2 Air Quality Management Actions\nActions for Preventing Air Quality Deterioration"},"geometry":{"type":"Point","coordinates":[-122.5819,49.215]}},{"type":"Feature","id":"mission-school-works-yard","properties":{"id":"mission-school-works-yard","name":"Mission School Works Yard","display":"Mission School Works Yard · Lower Fraser Valley","air_zone":"Lower Fraser Valley","management_level":"Actions for Preventing Air Quality Deterioration","details":"Station: Mission School Works Yard\nAir Zone: Lower Fraser Valley\n1-hour Metric\n26.9 ppb (3 year average)\nAnnual Metric\n5.5 ppb (3 year average)\nNO 2 Air Quality Management Actions\nActions for Preventing Air Quality Deterioration"},"geometry":{"type":"Point","coordinates":[-122.311078,49.14149]}},{"type":"Feature","id":"nanaimo-labieux-road","properties":{"id":"nanaimo-labieux-road","name":"Nanaimo Labieux Road","display":"Nanaimo Labieux Road · Georgia Strait","air_zone":"Georgia Strait","management_level":"Actions for Preventing Air Quality Deterioration","details":"Station: Nanaimo Labieux Road\nAir Zone: Georgia Strait\n1-hour Metric\n24.9 ppb (3 year average)\nAnnual Metric\n4.7 ppb (3 year average)\nNO 2 Air Quality Management Actions\nActions for Preventing Air Quality Deterioration"},"geometry":{"type":"Point","coordinates":[-123.99389,49.20083]}},{"type":"Feature","id":"new-westminster-sapperton-park","properties":{"id":"new-westminster-sapperton-park","name":"New Westminster Sapperton Park","display":"New Westminster Sapperton Park · Lower Fraser Valley","air_zone":"Lower Fraser Valley","management_level":"Actions for Preventing CAAQS Exceedance","details":"Station: New Westminster Sapperton Park\nAir Zone: Lower Fraser Valley\n1-hour Metric\n41.6 ppb (2 year average)\nAnnual Metric\nInsufficient Data\nNO 2 Air Quality Management Actions\nActions for Preventing CAAQS Exceedance"},"geometry":{"type":"Point","coordinates":[-122.894487,49.227045]}},{"type":"Feature","id":"north-delta","properties":{"id":"north-delta","name":"North Delta","display":"North Delta · Lower Fraser Valley","air_zone":"Lower Fraser Valley","management_level":"Actions for Preventing CAAQS Exceedance","details":"Station: North Delta\nAir Zone: Lower Fraser Valley\n1-hour Metric\n38 ppb (3 year average)\nAnnual Metric\n10.5 ppb (3 year average)\nNO 2 Air Quality Management Actions\nActions for Preventing CAAQS Exceedance"},"geometry":{"type":"Point","coordinates":[-122.9017,49.1583]}},{"type":"Feature","id":"north-vancouver-mahon-park","properties":{"id":"north-vancouver-mahon-park","name":"North Vancouver Mahon Park","display":"North Vancouver Mahon Park · Lower Fraser Valley","air_zone":"Lower Fraser Valley","management_level":"Actions for Preventing CAAQS Exceedance","details":"Station: North Vancouver Mahon Park\nAir Zone: Lower Fraser Valley\n1-hour Metric\n36.6 ppb (3 year average)\nAnnual Metric\n10.1 ppb (3 year average)\nNO 2 Air Quality Management Actions\nActions for Preventing CAAQS Exceedance"},"geometry":{"type":"Point","coordinates":[-123.0836,49.3239]}},{"type":"Feature","id":"north-vancouver-second-narrows","properties":{"id":"north-vancouver-second-narrows","name":"North Vancouver Second Narrows","display":"North Vancouver Second Narrows · Lower Fraser Valley","air_zone":"Lower Fraser Valley","management_level":"Actions for Preventing CAAQS Exceedance","details":"Station: North Vancouver Second Narrows\nAir Zone: Lower Fraser Valley\n1-hour Metric\n50.4 ppb (3 year average)\nAnnual Metric\n11 ppb (3 year average)\nNO 2 Air Quality Management Actions\nActions for Preventing CAAQS Exceedance"},"geometry":{"type":"Point","coordinates":[-123.0203,49.3017]}},{"type":"Feature","id":"pitt-meadows-meadowlands-school","properties":{"id":"pitt-meadows-meadowlands-school","name":"Pitt Meadows Meadowlands School","display":"Pitt Meadows Meadowlands School · Lower Fraser Valley","air_zone":"Lower Fraser Valley","management_level":"Actions for Preventing CAAQS Exceedance","details":"Station: Pitt Meadows Meadowlands School\nAir Zone: Lower Fraser Valley\n1-hour Metric\n32.9 ppb (3 year average)\nAnnual Metric\n6.8 ppb (3 year average)\nNO 2 Air Quality Management Actions\nActions for Preventing CAAQS Exceedance"},"geometry":{"type":"Point","coordinates":[-122.7089,49.2453]}},{"type":"Feature","id":"port-edward-sunset-drive","properties":{"id":"port-edward-sunset-drive","name":"Port Edward Sunset Drive","display":"Port Edward Sunset Drive · Coastal","air_zone":"Coastal","management_level":"Actions for Keeping Clean Areas Clean","details":"Station: Port Edward Sunset Drive\nAir Zone: Coastal\n1-hour Metric\n15.9 ppb (2 year average)\nAnnual Metric\n1.4 ppb (2 year average)\nNO 2 Air Quality Management Actions\nActions for Keeping Clean Areas Clean"},"geometry":{"type":"Point","coordinates":[-130.29045,54.2231999]}},{"type":"Feature","id":"port-moody-rocky-point-park","properties":{"id":"port-moody-rocky-point-park","name":"Port Moody Rocky Point Park","display":"Port Moody Rocky Point Park · Lower Fraser Valley","air_zone":"Lower Fraser Valley","management_level":"Actions for Preventing CAAQS Exceedance","details":"Station: Port Moody Rocky Point Park\nAir Zone: Lower Fraser Valley\n1-hour Metric\n34.4 ppb (3 year average)\nAnnual Metric\n9.9 ppb (3 year average)\nNO 2 Air Quality Management Actions\nActions for Preventing CAAQS Exceedance"},"geometry":{"type":"Point","coordinates":[-122.8492,49.2808]}},{"type":"Feature","id":"prince-george-plaza-400","properties":{"id":"prince-george-plaza-400","name":"Prince George Plaza 400","display":"Prince George Plaza 400 · Central Interior","air_zone":"Central Interior","management_level":"Actions for Preventing CAAQS Exceedance","details":"Station: Prince George Plaza 400\nAir Zone: Central Interior\n1-hour Metric\n44 ppb (3 year average)\nAnnual Metric\n8 ppb (3 year average)\nNO 2 Air Quality Management Actions\nActions for Preventing CAAQS Exceedance"},"geometry":{"type":"Point","coordinates":[-122.74194,53.91472]}},{"type":"Feature","id":"prince-rupert-fairview","properties":{"id":"prince-rupert-fairview","name":"Prince Rupert Fairview","display":"Prince Rupert Fairview · Coastal","air_zone":"Coastal","management_level":"Actions for Preventing Air Quality Deterioration","details":"Station: Prince Rupert Fairview\nAir Zone: Coastal\n1-hour Metric\n20.1 ppb (3 year average)\nAnnual Metric\n3 ppb (3 year average)\nNO 2 Air Quality Management Actions\nActions for Preventing Air Quality Deterioration"},"geometry":{"type":"Point","coordinates":[-130.352188,54.292615]}},{"type":"Feature","id":"quesnel","properties":{"id":"quesnel","name":"Quesnel","display":"Quesnel · Central Interior","air_zone":"Central Interior","management_level":"Actions for Preventing Air Quality Deterioration","details":"Station: Quesnel\nAir Zone: Central Interior\n1-hour Metric\n21.5 ppb (3 year average)\nAnnual Metric\n3.2 ppb (3 year average)\nNO 2 Air Quality Management Actions\nActions for Preventing Air Quality Deterioration"},"geometry":{"type":"Point","coordinates":[-122.494031,52.969061]}},{"type":"Feature","id":"richmond-south","properties":{"id":"richmond-south","name":"Richmond South","display":"Richmond South · Lower Fraser Valley","air_zone":"Lower Fraser Valley","management_level":"Actions for Preventing CAAQS Exceedance","details":"Station: Richmond South\nAir Zone: Lower Fraser Valley\n1-hour Metric\n34.6 ppb (3 year average)\nAnnual Metric\n9.8 ppb (3 year average)\nNO 2 Air Quality Management Actions\nActions for Preventing CAAQS Exceedance"},"geometry":{"type":"Point","coordinates":[-123.1083,49.1414]}},{"type":"Feature","id":"smithers","properties":{"id":"smithers","name":"Smithers","display":"Smithers · Central Interior","air_zone":"Central Interior","management_level":"Actions for Preventing Air Quality Deterioration","details":"Station: Smithers\nAir Zone: Central Interior\n1-hour Metric\n25.8 ppb (3 year average)\nAnnual Metric\n5.7 ppb (3 year average)\nNO 2 Air Quality Management Actions\nActions for Preventing Air Quality Deterioration"},"geometry":{"type":"Point","coordinates":[-127.168542,54.77848610000004]}},{"type":"Feature","id":"sparwood-centennial-square","properties":{"id":"sparwood-centennial-square","name":"Sparwood Centennial Square","display":"Sparwood Centennial Square · Southern Interior","air_zone":"Southern Interior","management_level":"Actions for Preventing Air Quality Deterioration","details":"Station: Sparwood Centennial Square\nAir Zone: Southern Interior\n1-hour Metric\n29.7 ppb (3 year average)\nAnnual Metric\n5.4 ppb (3 year average)\nNO 2 Air Quality Management Actions\nActions for Preventing Air Quality Deterioration"},"geometry":{"type":"Point","coordinates":[-114.88766,49.73278569999999]}},{"type":"Feature","id":"squamish-elementary","properties":{"id":"squamish-elementary","name":"Squamish Elementary","display":"Squamish Elementary · Georgia Strait","air_zone":"Georgia Strait","management_level":"Actions for Preventing Air Quality Deterioration","details":"Station: Squamish Elementary\nAir Zone: Georgia Strait\n1-hour Metric\n20.6 ppb (3 year average)\nAnnual Metric\n4.4 ppb (3 year average)\nNO 2 Air Quality Management Actions\nActions for Preventing Air Quality Deterioration"},"geometry":{"type":"Point","coordinates":[-123.15133,49.70516]}},{"type":"Feature","id":"surrey-east","properties":{"id":"surrey-east","name":"Surrey East","display":"Surrey East · Lower Fraser Valley","air_zone":"Lower Fraser Valley","management_level":"Actions for Preventing Air Quality Deterioration","details":"Station: Surrey East\nAir Zone: Lower Fraser Valley\n1-hour Metric\n29.2 ppb (3 year average)\nAnnual Metric\n7 ppb (3 year average)\nNO 2 Air Quality Management Actions\nActions for Preventing Air Quality Deterioration"},"geometry":{"type":"Point","coordinates":[-122.6942,49.1328]}},{"type":"Feature","id":"taylor-townsite","properties":{"id":"taylor-townsite","name":"Taylor Townsite","display":"Taylor Townsite · Northeast","air_zone":"Northeast","management_level":"Actions for Preventing CAAQS Exceedance","details":"Station: Taylor Townsite\nAir Zone: Northeast\n1-hour Metric\n36.1 ppb (3 year average)\nAnnual Metric\n5.1 ppb (3 year average)\nNO 2 Air Quality Management Actions\nActions for Preventing CAAQS Exceedance"},"geometry":{"type":"Point","coordinates":[-120.686985,56.150186]}},{"type":"Feature","id":"terrace-skeena-middle-school","properties":{"id":"terrace-skeena-middle-school","name":"Terrace Skeena Middle School","display":"Terrace Skeena Middle School · Coastal","air_zone":"Coastal","management_level":"Actions for Preventing Air Quality Deterioration","details":"Station: Terrace Skeena Middle School\nAir Zone: Coastal\n1-hour Metric\n19.1 ppb (1 year average)\nAnnual Metric\n2.2 ppb (1 year average)\nNO 2 Air Quality Management Actions\nActions for Preventing Air Quality Deterioration"},"geometry":{"type":"Point","coordinates":[-128.6075,54.52167]}},{"type":"Feature","id":"tsawwassen","properties":{"id":"tsawwassen","name":"Tsawwassen","display":"Tsawwassen · Lower Fraser Valley","air_zone":"Lower Fraser Valley","management_level":"Actions for Preventing Air Quality Deterioration","details":"Station: Tsawwassen\nAir Zone: Lower Fraser Valley\n1-hour Metric\n28.7 ppb (3 year average)\nAnnual Metric\n5.3 ppb (3 year average)\nNO 2 Air Quality Management Actions\nActions for Preventing Air Quality Deterioration"},"geometry":{"type":"Point","coordinates":[-123.082,49.0099]}},{"type":"Feature","id":"vancouver-clark-drive","properties":{"id":"vancouver-clark-drive","name":"Vancouver Clark Drive","display":"Vancouver Clark Drive · Lower Fraser Valley","air_zone":"Lower Fraser Valley","management_level":"Actions for Preventing CAAQS Exceedance","details":"Station: Vancouver Clark Drive\nAir Zone: Lower Fraser Valley\n1-hour Metric\n43.6 ppb (3 year average)\nAnnual Metric\n15 ppb (3 year average)\nNO 2 Air Quality Management Actions\nActions for Preventing CAAQS Exceedance"},"geometry":{"type":"Point","coordinates":[-123.077811,49.26029]}},{"type":"Feature","id":"vancouver-international-airport-2","properties":{"id":"vancouver-international-airport-2","name":"Vancouver International Airport 2","display":"Vancouver International Airport 2 · Lower Fraser Valley","air_zone":"Lower Fraser Valley","management_level":"Actions for Preventing CAAQS Exceedance","details":"Station: Vancouver International Airport 2\nAir Zone: Lower Fraser Valley\n1-hour Metric\n39.9 ppb (3 year average)\nAnnual Metric\n11.6 ppb (3 year average)\nNO 2 Air Quality Management Actions\nActions for Preventing CAAQS Exceedance"},"geometry":{"type":"Point","coordinates":[-123.1522,49.1864]}},{"type":"Feature","id":"vancouver-robson-square","properties":{"id":"vancouver-robson-square","name":"Vancouver Robson Square","display":"Vancouver Robson Square · Lower Fraser Valley","air_zone":"Lower Fraser Valley","management_level":"Actions for Preventing CAAQS Exceedance","details":"Station: Vancouver Robson Square\nAir Zone: Lower Fraser Valley\n1-hour Metric\nInsufficient Data\nAnnual Metric\n15.9 ppb (1 year average)\nNO 2 Air Quality Management Actions\nActions for Preventing CAAQS Exceedance"},"geometry":{"type":"Point","coordinates":[-123.1219,49.2822]}},{"type":"Feature","id":"vernon-science-centre","properties":{"id":"vernon-science-centre","name":"Vernon Science Centre","display":"Vernon Science Centre · Southern Interior","air_zone":"Southern Interior","management_level":"Actions for Preventing CAAQS Exceedance","details":"Station: Vernon Science Centre\nAir Zone: Southern Interior\n1-hour Metric\n34.1 ppb (3 year average)\nAnnual Metric\n8.2 ppb (3 year average)\nNO 2 Air Quality Management Actions\nActions for Preventing CAAQS Exceedance"},"geometry":{"type":"Point","coordinates":[-119.270723,50.260617]}},{"type":"Feature","id":"victoria-topaz","properties":{"id":"victoria-topaz","name":"Victoria Topaz","display":"Victoria Topaz · Georgia Strait","air_zone":"Georgia Strait","management_level":"Actions for Preventing CAAQS Exceedance","details":"Station: Victoria Topaz\nAir Zone: Georgia Strait\n1-hour Metric\n35.1 ppb (3 year average)\nAnnual Metric\n6.8 ppb (3 year average)\nNO 2 Air Quality Management Actions\nActions for Preventing CAAQS Exceedance"},"geometry":{"type":"Point","coordinates":[-123.363165,48.441942]}},{"type":"Feature","id":"whistler-meadow-park","properties":{"id":"whistler-meadow-park","name":"Whistler Meadow Park","display":"Whistler Meadow Park · Georgia Strait","air_zone":"Georgia Strait","management_level":"Actions for Preventing Air Quality Deterioration","details":"Station: Whistler Meadow Park\nAir Zone: Georgia Strait\n1-hour Metric\n16.4 ppb (1 year average)\nAnnual Metric\n3 ppb (1 year average)\nNO 2 Air Quality Management Actions\nActions for Preventing Air Quality Deterioration"},"geometry":{"type":"Point","coordinates":[-122.960402,50.144285]}},{"type":"Feature","id":"williams-lake-columneetza-school","properties":{"id":"williams-lake-columneetza-school","name":"Williams Lake Columneetza School","display":"Williams Lake Columneetza School · Central Interior","air_zone":"Central Interior","management_level":"Actions for Preventing Air Quality Deterioration","details":"Station: Williams Lake Columneetza School\nAir Zone: Central Interior\n1-hour Metric\nInsufficient Data\nAnnual Metric\n4.2 ppb (1 year average)\nNO 2 Air Quality Management Actions\nActions for Preventing Air Quality Deterioration"},"geometry":{"type":"Point","coordinates":[-122.150391,52.14428]}}]}
