{"type":"FeatureCollection","name":"so2_caaqs_stations_2022_2024","metadata":{"title":"Status of Sulphur Dioxide in B.C.","indicator":"https://www.env.gov.bc.ca/soe/indicators/air/so2.html","source":"https://www.env.gov.bc.ca/soe/indicators/air/so2_viz/leaflet_map.html","assessmentPeriod":"2022–2024","updated":"June 2026","standard":"Canadian Ambient Air Quality Standards for SO₂"},"features":[{"type":"Feature","id":"abbotsford-a-columbia-street","properties":{"id":"abbotsford-a-columbia-street","name":"Abbotsford A Columbia Street","display":"Abbotsford A Columbia Street · Lower Fraser Valley","air_zone":"Lower Fraser Valley","management_level":"Actions for Keeping Clean Areas Clean","details":"Station: Abbotsford A Columbia Street\nAir Zone: Lower Fraser Valley\n1-hour Metric\n1.2 ppb (3 year average)\nAnnual Metric\n0.1 ppb (3 year average)\nSO 2 Air Quality Management Actions\nActions for Keeping Clean Areas Clean"},"geometry":{"type":"Point","coordinates":[-122.3266,49.0215]}},{"type":"Feature","id":"abbotsford-central","properties":{"id":"abbotsford-central","name":"Abbotsford Central","display":"Abbotsford Central · Lower Fraser Valley","air_zone":"Lower Fraser Valley","management_level":"Actions for Keeping Clean Areas Clean","details":"Station: Abbotsford Central\nAir Zone: Lower Fraser Valley\n1-hour Metric\n1.1 ppb (3 year average)\nAnnual Metric\n0.1 ppb (3 year average)\nSO 2 Air Quality Management Actions\nActions for Keeping Clean Areas Clean"},"geometry":{"type":"Point","coordinates":[-122.3097,49.0428]}},{"type":"Feature","id":"burnaby-kensington-park","properties":{"id":"burnaby-kensington-park","name":"Burnaby Kensington Park","display":"Burnaby Kensington Park · Lower Fraser Valley","air_zone":"Lower Fraser Valley","management_level":"Actions for Keeping Clean Areas Clean","details":"Station: Burnaby Kensington Park\nAir Zone: Lower Fraser Valley\n1-hour Metric\n5.9 ppb (3 year average)\nAnnual Metric\n0.2 ppb (3 year average)\nSO 2 Air Quality Management Actions\nActions for Keeping Clean Areas Clean"},"geometry":{"type":"Point","coordinates":[-122.9711,49.2794]}},{"type":"Feature","id":"burnaby-north-eton","properties":{"id":"burnaby-north-eton","name":"Burnaby North Eton","display":"Burnaby North Eton · Lower Fraser Valley","air_zone":"Lower Fraser Valley","management_level":"Actions for Keeping Clean Areas Clean","details":"Station: Burnaby North Eton\nAir Zone: Lower Fraser Valley\n1-hour Metric\n9.6 ppb (3 year average)\nAnnual Metric\n0.5 ppb (3 year average)\nSO 2 Air Quality Management Actions\nActions for Keeping Clean Areas Clean"},"geometry":{"type":"Point","coordinates":[-123.0078,49.2875]}},{"type":"Feature","id":"burnaby-south","properties":{"id":"burnaby-south","name":"Burnaby South","display":"Burnaby South · Lower Fraser Valley","air_zone":"Lower Fraser Valley","management_level":"Actions for Keeping Clean Areas Clean","details":"Station: Burnaby South\nAir Zone: Lower Fraser Valley\n1-hour Metric\n2.8 ppb (3 year average)\nAnnual Metric\n0.2 ppb (3 year average)\nSO 2 Air Quality Management Actions\nActions for Keeping Clean Areas Clean"},"geometry":{"type":"Point","coordinates":[-122.9856,49.2153]}},{"type":"Feature","id":"castlegar-zinio-park","properties":{"id":"castlegar-zinio-park","name":"Castlegar Zinio Park","display":"Castlegar Zinio Park · Southern Interior","air_zone":"Southern Interior","management_level":"Actions for Keeping Clean Areas Clean","details":"Station: Castlegar Zinio Park\nAir Zone: Southern Interior\n1-hour Metric\n23.3 ppb (3 year average)\nAnnual Metric\n0.6 ppb (3 year average)\nSO 2 Air Quality Management Actions\nActions for Keeping Clean Areas Clean"},"geometry":{"type":"Point","coordinates":[-117.661527,49.317698]}},{"type":"Feature","id":"chilliwack-airport","properties":{"id":"chilliwack-airport","name":"Chilliwack Airport","display":"Chilliwack Airport · Lower Fraser Valley","air_zone":"Lower Fraser Valley","management_level":"Actions for Keeping Clean Areas Clean","details":"Station: Chilliwack Airport\nAir Zone: Lower Fraser Valley\n1-hour Metric\n0.8 ppb (3 year average)\nAnnual Metric\n0.1 ppb (3 year average)\nSO 2 Air Quality Management Actions\nActions for Keeping Clean Areas Clean"},"geometry":{"type":"Point","coordinates":[-121.9469,49.1511]}},{"type":"Feature","id":"crofton-elementary","properties":{"id":"crofton-elementary","name":"Crofton Elementary","display":"Crofton Elementary · Georgia Strait","air_zone":"Georgia Strait","management_level":"Actions for Keeping Clean Areas Clean","details":"Station: Crofton Elementary\nAir Zone: Georgia Strait\n1-hour Metric\n18.5 ppb (3 year average)\nAnnual Metric\n0.9 ppb (3 year average)\nSO 2 Air Quality Management Actions\nActions for Keeping Clean Areas Clean"},"geometry":{"type":"Point","coordinates":[-123.64388889,48.86]}},{"type":"Feature","id":"fort-st-john-key-learning-centre","properties":{"id":"fort-st-john-key-learning-centre","name":"Fort St John Key Learning Centre","display":"Fort St John Key Learning Centre · Northeast","air_zone":"Northeast","management_level":"Actions for Keeping Clean Areas Clean","details":"Station: Fort St John Key Learning Centre\nAir Zone: Northeast\n1-hour Metric\n3 ppb (3 year average)\nAnnual Metric\n0.4 ppb (3 year average)\nSO 2 Air Quality Management Actions\nActions for Keeping Clean Areas Clean"},"geometry":{"type":"Point","coordinates":[-120.856111,56.244722]}},{"type":"Feature","id":"kamloops-federal-building","properties":{"id":"kamloops-federal-building","name":"Kamloops Federal Building","display":"Kamloops Federal Building · Southern Interior","air_zone":"Southern Interior","management_level":"Actions for Keeping Clean Areas Clean","details":"Station: Kamloops Federal Building\nAir Zone: Southern Interior\n1-hour Metric\n6.2 ppb (3 year average)\nAnnual Metric\n0.4 ppb (3 year average)\nSO 2 Air Quality Management Actions\nActions for Keeping Clean Areas Clean"},"geometry":{"type":"Point","coordinates":[-120.334016,50.67477]}},{"type":"Feature","id":"kelowna","properties":{"id":"kelowna","name":"Kelowna","display":"Kelowna · Southern Interior","air_zone":"Southern Interior","management_level":"Actions for Keeping Clean Areas Clean","details":"Station: Kelowna\nAir Zone: Southern Interior\n1-hour Metric\n1.7 ppb (3 year average)\nAnnual Metric\n0.3 ppb (3 year average)\nSO 2 Air Quality Management Actions\nActions for Keeping Clean Areas Clean"},"geometry":{"type":"Point","coordinates":[-119.467461,49.862119]}},{"type":"Feature","id":"kitimat-haisla-village","properties":{"id":"kitimat-haisla-village","name":"Kitimat Haisla Village","display":"Kitimat Haisla Village · Coastal","air_zone":"Coastal","management_level":"Actions for Keeping Clean Areas Clean","details":"Station: Kitimat Haisla Village\nAir Zone: Coastal\n1-hour Metric\n17.9 ppb (3 year average)\nAnnual Metric\n0.4 ppb (3 year average)\nSO 2 Air Quality Management Actions\nActions for Keeping Clean Areas Clean"},"geometry":{"type":"Point","coordinates":[-128.650768,53.973228]}},{"type":"Feature","id":"kitimat-riverlodge","properties":{"id":"kitimat-riverlodge","name":"Kitimat Riverlodge","display":"Kitimat Riverlodge · Coastal","air_zone":"Coastal","management_level":"Actions for Keeping Clean Areas Clean","details":"Station: Kitimat Riverlodge\nAir Zone: Coastal\n1-hour Metric\n20.6 ppb (3 year average)\nAnnual Metric\n0.5 ppb (3 year average)\nSO 2 Air Quality Management Actions\nActions for Keeping Clean Areas Clean"},"geometry":{"type":"Point","coordinates":[-128.671436,54.05389]}},{"type":"Feature","id":"kitimat-whitesail","properties":{"id":"kitimat-whitesail","name":"Kitimat Whitesail","display":"Kitimat Whitesail · Coastal","air_zone":"Coastal","management_level":"Actions for Keeping Clean Areas Clean","details":"Station: Kitimat Whitesail\nAir Zone: Coastal\n1-hour Metric\n14.3 ppb (3 year average)\nAnnual Metric\n0.4 ppb (3 year average)\nSO 2 Air Quality Management Actions\nActions for Keeping Clean Areas Clean"},"geometry":{"type":"Point","coordinates":[-128.639131,54.066909]}},{"type":"Feature","id":"langdale-elementary","properties":{"id":"langdale-elementary","name":"Langdale Elementary","display":"Langdale Elementary · Georgia Strait","air_zone":"Georgia Strait","management_level":"Actions for Keeping Clean Areas Clean","details":"Station: Langdale Elementary\nAir Zone: Georgia Strait\n1-hour Metric\n17.8 ppb (3 year average)\nAnnual Metric\n0.7 ppb (3 year average)\nSO 2 Air Quality Management Actions\nActions for Keeping Clean Areas Clean"},"geometry":{"type":"Point","coordinates":[-123.479185,49.438848]}},{"type":"Feature","id":"langley-central","properties":{"id":"langley-central","name":"Langley Central","display":"Langley Central · Lower Fraser Valley","air_zone":"Lower Fraser Valley","management_level":"Actions for Keeping Clean Areas Clean","details":"Station: Langley Central\nAir Zone: Lower Fraser Valley\n1-hour Metric\n1 ppb (3 year average)\nAnnual Metric\n0.1 ppb (3 year average)\nSO 2 Air Quality Management Actions\nActions for Keeping Clean Areas Clean"},"geometry":{"type":"Point","coordinates":[-122.5669,49.0956]}},{"type":"Feature","id":"north-burnaby-capitol-hill","properties":{"id":"north-burnaby-capitol-hill","name":"North Burnaby Capitol Hill","display":"North Burnaby Capitol Hill · Lower Fraser Valley","air_zone":"Lower Fraser Valley","management_level":"Actions for Preventing Air Quality Deterioration","details":"Station: North Burnaby Capitol Hill\nAir Zone: Lower Fraser Valley\n1-hour Metric\n36.7 ppb (3 year average)\nAnnual Metric\n0.4 ppb (3 year average)\nSO 2 Air Quality Management Actions\nActions for Preventing Air Quality Deterioration"},"geometry":{"type":"Point","coordinates":[-122.9856,49.2878]}},{"type":"Feature","id":"north-vancouver-mahon-park","properties":{"id":"north-vancouver-mahon-park","name":"North Vancouver Mahon Park","display":"North Vancouver Mahon Park · Lower Fraser Valley","air_zone":"Lower Fraser Valley","management_level":"Actions for Keeping Clean Areas Clean","details":"Station: North Vancouver Mahon Park\nAir Zone: Lower Fraser Valley\n1-hour Metric\n4.3 ppb (3 year average)\nAnnual Metric\n0.3 ppb (3 year average)\nSO 2 Air Quality Management Actions\nActions for Keeping Clean Areas Clean"},"geometry":{"type":"Point","coordinates":[-123.0836,49.3239]}},{"type":"Feature","id":"north-vancouver-second-narrows","properties":{"id":"north-vancouver-second-narrows","name":"North Vancouver Second Narrows","display":"North Vancouver Second Narrows · Lower Fraser Valley","air_zone":"Lower Fraser Valley","management_level":"Actions for Keeping Clean Areas Clean","details":"Station: North Vancouver Second Narrows\nAir Zone: Lower Fraser Valley\n1-hour Metric\n4 ppb (3 year average)\nAnnual Metric\n0.3 ppb (3 year average)\nSO 2 Air Quality Management Actions\nActions for Keeping Clean Areas Clean"},"geometry":{"type":"Point","coordinates":[-123.0203,49.3017]}},{"type":"Feature","id":"pitt-meadows-meadowlands-school","properties":{"id":"pitt-meadows-meadowlands-school","name":"Pitt Meadows Meadowlands School","display":"Pitt Meadows Meadowlands School · Lower Fraser Valley","air_zone":"Lower Fraser Valley","management_level":"Actions for Keeping Clean Areas Clean","details":"Station: Pitt Meadows Meadowlands School\nAir Zone: Lower Fraser Valley\n1-hour Metric\n1.8 ppb (3 year average)\nAnnual Metric\n0.1 ppb (3 year average)\nSO 2 Air Quality Management Actions\nActions for Keeping Clean Areas Clean"},"geometry":{"type":"Point","coordinates":[-122.7089,49.2453]}},{"type":"Feature","id":"port-moody-rocky-point-park","properties":{"id":"port-moody-rocky-point-park","name":"Port Moody Rocky Point Park","display":"Port Moody Rocky Point Park · Lower Fraser Valley","air_zone":"Lower Fraser Valley","management_level":"Actions for Keeping Clean Areas Clean","details":"Station: Port Moody Rocky Point Park\nAir Zone: Lower Fraser Valley\n1-hour Metric\n5.3 ppb (3 year average)\nAnnual Metric\n0.2 ppb (3 year average)\nSO 2 Air Quality Management Actions\nActions for Keeping Clean Areas Clean"},"geometry":{"type":"Point","coordinates":[-122.8492,49.2808]}},{"type":"Feature","id":"prince-george-plaza-400","properties":{"id":"prince-george-plaza-400","name":"Prince George Plaza 400","display":"Prince George Plaza 400 · Central Interior","air_zone":"Central Interior","management_level":"Actions for Preventing Air Quality Deterioration","details":"Station: Prince George Plaza 400\nAir Zone: Central Interior\n1-hour Metric\n31.6 ppb (3 year average)\nAnnual Metric\n1.1 ppb (3 year average)\nSO 2 Air Quality Management Actions\nActions for Preventing Air Quality Deterioration"},"geometry":{"type":"Point","coordinates":[-122.74194,53.91472]}},{"type":"Feature","id":"prince-rupert-fairview","properties":{"id":"prince-rupert-fairview","name":"Prince Rupert Fairview","display":"Prince Rupert Fairview · Coastal","air_zone":"Coastal","management_level":"Actions for Keeping Clean Areas Clean","details":"Station: Prince Rupert Fairview\nAir Zone: Coastal\n1-hour Metric\n1.2 ppb (3 year average)\nAnnual Metric\n0.3 ppb (3 year average)\nSO 2 Air Quality Management Actions\nActions for Keeping Clean Areas Clean"},"geometry":{"type":"Point","coordinates":[-130.352188,54.292615]}},{"type":"Feature","id":"quesnel","properties":{"id":"quesnel","name":"Quesnel","display":"Quesnel · Central Interior","air_zone":"Central Interior","management_level":"Actions for Keeping Clean Areas Clean","details":"Station: Quesnel\nAir Zone: Central Interior\n1-hour Metric\n10.8 ppb (2 year average)\nAnnual Metric\nInsufficient Data\nSO 2 Air Quality Management Actions\nActions for Keeping Clean Areas Clean"},"geometry":{"type":"Point","coordinates":[-122.494031,52.969061]}},{"type":"Feature","id":"richmond-south","properties":{"id":"richmond-south","name":"Richmond South","display":"Richmond South · Lower Fraser Valley","air_zone":"Lower Fraser Valley","management_level":"Actions for Keeping Clean Areas Clean","details":"Station: Richmond South\nAir Zone: Lower Fraser Valley\n1-hour Metric\n1.2 ppb (3 year average)\nAnnual Metric\n0.1 ppb (3 year average)\nSO 2 Air Quality Management Actions\nActions for Keeping Clean Areas Clean"},"geometry":{"type":"Point","coordinates":[-123.1083,49.1414]}},{"type":"Feature","id":"squamish-elementary","properties":{"id":"squamish-elementary","name":"Squamish Elementary","display":"Squamish Elementary · Georgia Strait","air_zone":"Georgia Strait","management_level":"Actions for Keeping Clean Areas Clean","details":"Station: Squamish Elementary\nAir Zone: Georgia Strait\n1-hour Metric\n5.8 ppb (3 year average)\nAnnual Metric\n0.3 ppb (3 year average)\nSO 2 Air Quality Management Actions\nActions for Keeping Clean Areas Clean"},"geometry":{"type":"Point","coordinates":[-123.15133,49.70516]}},{"type":"Feature","id":"taylor-south-hill","properties":{"id":"taylor-south-hill","name":"Taylor South Hill","display":"Taylor South Hill · Northeast","air_zone":"Northeast","management_level":"Actions for Keeping Clean Areas Clean","details":"Station: Taylor South Hill\nAir Zone: Northeast\n1-hour Metric\n11.2 ppb (3 year average)\nAnnual Metric\n0.4 ppb (3 year average)\nSO 2 Air Quality Management Actions\nActions for Keeping Clean Areas Clean"},"geometry":{"type":"Point","coordinates":[-120.662779,56.105871]}},{"type":"Feature","id":"taylor-townsite","properties":{"id":"taylor-townsite","name":"Taylor Townsite","display":"Taylor Townsite · Northeast","air_zone":"Northeast","management_level":"Actions for Keeping Clean Areas Clean","details":"Station: Taylor Townsite\nAir Zone: Northeast\n1-hour Metric\n28 ppb (3 year average)\nAnnual Metric\n0.7 ppb (3 year average)\nSO 2 Air Quality Management Actions\nActions for Keeping Clean Areas Clean"},"geometry":{"type":"Point","coordinates":[-120.686985,56.150186]}},{"type":"Feature","id":"terrace-skeena-middle-school","properties":{"id":"terrace-skeena-middle-school","name":"Terrace Skeena Middle School","display":"Terrace Skeena Middle School · Coastal","air_zone":"Coastal","management_level":"Actions for Keeping Clean Areas Clean","details":"Station: Terrace Skeena Middle School\nAir Zone: Coastal\n1-hour Metric\n4.9 ppb (3 year average)\nAnnual Metric\n0.6 ppb (3 year average)\nSO 2 Air Quality Management Actions\nActions for Keeping Clean Areas Clean"},"geometry":{"type":"Point","coordinates":[-128.6075,54.52167]}},{"type":"Feature","id":"trail-butler-park","properties":{"id":"trail-butler-park","name":"Trail Butler Park","display":"Trail Butler Park · Southern Interior","air_zone":"Southern Interior","management_level":"Actions for Achieving Air Zone CAAQS","details":"Station: Trail Butler Park\nAir Zone: Southern Interior\n1-hour Metric\n108.3 ppb (3 year average)\nAnnual Metric\n3.2 ppb (3 year average)\nSO 2 Air Quality Management Actions\nActions for Achieving Air Zone CAAQS"},"geometry":{"type":"Point","coordinates":[-117.697828,49.096218]}},{"type":"Feature","id":"trail-columbia-gardens-airport","properties":{"id":"trail-columbia-gardens-airport","name":"Trail Columbia Gardens Airport","display":"Trail Columbia Gardens Airport · Southern Interior","air_zone":"Southern Interior","management_level":"Actions for Preventing Air Quality Deterioration","details":"Station: Trail Columbia Gardens Airport\nAir Zone: Southern Interior\n1-hour Metric\n38.7 ppb (3 year average)\nAnnual Metric\n1.5 ppb (3 year average)\nSO 2 Air Quality Management Actions\nActions for Preventing Air Quality Deterioration"},"geometry":{"type":"Point","coordinates":[-117.60711,49.046405]}},{"type":"Feature","id":"tsawwassen","properties":{"id":"tsawwassen","name":"Tsawwassen","display":"Tsawwassen · Lower Fraser Valley","air_zone":"Lower Fraser Valley","management_level":"Actions for Keeping Clean Areas Clean","details":"Station: Tsawwassen\nAir Zone: Lower Fraser Valley\n1-hour Metric\n1.2 ppb (3 year average)\nAnnual Metric\n0.1 ppb (3 year average)\nSO 2 Air Quality Management Actions\nActions for Keeping Clean Areas Clean"},"geometry":{"type":"Point","coordinates":[-123.082,49.0099]}},{"type":"Feature","id":"vancouver-clark-drive","properties":{"id":"vancouver-clark-drive","name":"Vancouver Clark Drive","display":"Vancouver Clark Drive · Lower Fraser Valley","air_zone":"Lower Fraser Valley","management_level":"Actions for Keeping Clean Areas Clean","details":"Station: Vancouver Clark Drive\nAir Zone: Lower Fraser Valley\n1-hour Metric\n3.9 ppb (3 year average)\nAnnual Metric\n0.3 ppb (3 year average)\nSO 2 Air Quality Management Actions\nActions for Keeping Clean Areas Clean"},"geometry":{"type":"Point","coordinates":[-123.077811,49.26029]}},{"type":"Feature","id":"vancouver-international-airport-2","properties":{"id":"vancouver-international-airport-2","name":"Vancouver International Airport 2","display":"Vancouver International Airport 2 · Lower Fraser Valley","air_zone":"Lower Fraser Valley","management_level":"Actions for Keeping Clean Areas Clean","details":"Station: Vancouver International Airport 2\nAir Zone: Lower Fraser Valley\n1-hour Metric\n3.1 ppb (3 year average)\nAnnual Metric\n0.3 ppb (3 year average)\nSO 2 Air Quality Management Actions\nActions for Keeping Clean Areas Clean"},"geometry":{"type":"Point","coordinates":[-123.1522,49.1864]}},{"type":"Feature","id":"vancouver-pandora-park","properties":{"id":"vancouver-pandora-park","name":"Vancouver Pandora Park","display":"Vancouver Pandora Park · Lower Fraser Valley","air_zone":"Lower Fraser Valley","management_level":"Actions for Keeping Clean Areas Clean","details":"Station: Vancouver Pandora Park\nAir Zone: Lower Fraser Valley\n1-hour Metric\nInsufficient Data\nAnnual Metric\n0.5 ppb (1 year average)\nSO 2 Air Quality Management Actions\nActions for Keeping Clean Areas Clean"},"geometry":{"type":"Point","coordinates":[-123.057608,49.282286]}},{"type":"Feature","id":"vancouver-robson-square","properties":{"id":"vancouver-robson-square","name":"Vancouver Robson Square","display":"Vancouver Robson Square · Lower Fraser Valley","air_zone":"Lower Fraser Valley","management_level":"Actions for Keeping Clean Areas Clean","details":"Station: Vancouver Robson Square\nAir Zone: Lower Fraser Valley\n1-hour Metric\nInsufficient Data\nAnnual Metric\n0.4 ppb (1 year average)\nSO 2 Air Quality Management Actions\nActions for Keeping Clean Areas Clean"},"geometry":{"type":"Point","coordinates":[-123.1219,49.2822]}},{"type":"Feature","id":"victoria-topaz","properties":{"id":"victoria-topaz","name":"Victoria Topaz","display":"Victoria Topaz · Georgia Strait","air_zone":"Georgia Strait","management_level":"Actions for Keeping Clean Areas Clean","details":"Station: Victoria Topaz\nAir Zone: Georgia Strait\n1-hour Metric\n4.3 ppb (3 year average)\nAnnual Metric\n0.3 ppb (3 year average)\nSO 2 Air Quality Management Actions\nActions for Keeping Clean Areas Clean"},"geometry":{"type":"Point","coordinates":[-123.363165,48.441942]}},{"type":"Feature","id":"warfield-haley-park","properties":{"id":"warfield-haley-park","name":"Warfield Haley Park","display":"Warfield Haley Park · Southern Interior","air_zone":"Southern Interior","management_level":"Actions for Achieving Air Zone CAAQS","details":"Station: Warfield Haley Park\nAir Zone: Southern Interior\n1-hour Metric\n149.3 ppb (3 year average)\nAnnual Metric\n4 ppb (3 year average)\nSO 2 Air Quality Management Actions\nActions for Achieving Air Zone CAAQS"},"geometry":{"type":"Point","coordinates":[-117.74374,49.097249]}}]}
