{"type":"FeatureCollection","features":[{"type":"Feature","geometry":{"type":"Polygon","coordinates":[[[-130.024476,58.480399],[-130.031796,58.480118],[-130.032535,58.478167],[-130.032349,58.476498],[-130.034838,58.474242],[-130.034708,58.473883],[-130.034239,58.474301],[-130.03364,58.473758],[-130.033558,58.470371],[-130.032093,58.469521],[-130.02981,58.468812],[-130.02778,58.466862],[-130.026583,58.466898],[-130.022334,58.465703],[-130.017519,58.466018],[-130.019691,58.471903],[-130.024476,58.480399]]]},"properties":{"id":"59490022","boundaryCode":"59490022","boundaryName":"DA 59490022","boundarySource":"census","boundaryLevel":"bcDaSimplified","boundaryDetail":"medium","DAUID":"59490022","DGUID":"2021S051259490022","PRUID":"59","CDUID":"5949","CDNAME":"Kitimat-Stikine","CDTYPE":"RD","CSDUID":"5949845","CSDNAME":"Dease Lake 9","CSDTYPE":"IRI","CTUID":null,"CTNAME":null,"parentCdId":"5949","parentCdName":"Kitimat-Stikine","parentCsdId":"5949845","parentCsdName":"Dease Lake 9","parentCtId":null,"parentCtName":null,"LANDAREA":1.0541,"areaKm2":1.0508723672958158},"id":57153},{"type":"Feature","geometry":{"type":"Polygon","coordinates":[[[-129.002266,57.998764],[-128.943211,59.00226],[-129.24431,59.0016],[-129.489512,59.00112],[-129.797782,59.000593],[-129.986229,59.000821],[-130.239949,59.001179],[-130.623427,59.001756],[-130.647094,59.001522],[-131.009807,59.002102],[-131.009982,58.939993],[-131.005997,58.74842],[-131.006494,58.707126],[-131.004511,58.615622],[-131.004236,58.067522],[-131.00078,58.012376],[-130.987532,58.012367],[-130.987476,58.015334],[-130.965565,58.015716],[-130.969569,58.013057],[-130.970408,58.012012],[-130.972981,58.010803],[-130.976561,58.009733],[-130.980332,58.009953],[-130.982104,58.009548],[-130.984967,58.007455],[-130.988921,58.006126],[-130.989737,58.005556],[-131.001393,58.005261],[-131.001695,58.000556],[-130.749324,58.000525],[-130.496853,58.000484],[-130.244382,58.000433],[-129.99293,58.0003],[-129.745256,57.999901],[-129.497587,57.999513],[-129.249924,57.999134],[-129.002266,57.998764]],[[-130.024476,58.480399],[-130.019691,58.471903],[-130.017519,58.466018],[-130.022334,58.465703],[-130.026583,58.466898],[-130.02778,58.466862],[-130.02981,58.468812],[-130.032093,58.469521],[-130.033558,58.470371],[-130.03364,58.473758],[-130.034239,58.474301],[-130.034708,58.473883],[-130.034838,58.474242],[-130.032349,58.476498],[-130.032535,58.478167],[-130.031796,58.480118],[-130.024476,58.480399]]]},"properties":{"id":"59490201","boundaryCode":"59490201","boundaryName":"DA 59490201","boundarySource":"census","boundaryLevel":"bcDaSimplified","boundaryDetail":"medium","DAUID":"59490201","DGUID":"2021S051259490201","PRUID":"59","CDUID":"5949","CDNAME":"Kitimat-Stikine","CDTYPE":"RD","CSDUID":"5949038","CSDNAME":"Kitimat-Stikine F","CSDTYPE":"RDA","CTUID":null,"CTNAME":null,"parentCdId":"5949","parentCdName":"Kitimat-Stikine","parentCsdId":"5949038","parentCsdName":"Kitimat-Stikine F","parentCtId":null,"parentCtName":null,"LANDAREA":12956.412400000001,"areaKm2":13174.2128362597},"id":57244},{"type":"Feature","geometry":{"type":"Polygon","coordinates":[[[-129.975099,57.831927],[-129.975437,57.833308],[-129.980471,57.836442],[-129.985309,57.840276],[-129.98486,57.84046],[-129.993619,57.84482],[-129.997146,57.843192],[-129.989385,57.836847],[-129.986616,57.835486],[-129.983979,57.836191],[-129.982927,57.835314],[-129.984156,57.834477],[-129.978372,57.831982],[-129.975186,57.831649],[-129.975099,57.831927]]]},"properties":{"id":"59490215","boundaryCode":"59490215","boundaryName":"DA 59490215","boundarySource":"census","boundaryLevel":"bcDaSimplified","boundaryDetail":"medium","DAUID":"59490215","DGUID":"2021S051259490215","PRUID":"59","CDUID":"5949","CDNAME":"Kitimat-Stikine","CDTYPE":"RD","CSDUID":"5949832","CSDNAME":"Iskut 6","CSDTYPE":"IRI","CTUID":null,"CTNAME":null,"parentCdId":"5949","parentCdName":"Kitimat-Stikine","parentCsdId":"5949832","parentCsdName":"Iskut 6","parentCtId":null,"parentCtName":null,"LANDAREA":0.5813,"areaKm2":0.5795805482079612},"id":57250},{"type":"Feature","geometry":{"type":"Polygon","coordinates":[[[-129.217304,59.191963],[-129.230205,59.190868],[-129.229592,59.18539],[-129.226421,59.185542],[-129.220834,59.18525],[-129.215377,59.185957],[-129.217304,59.191963]]]},"properties":{"id":"59570021","boundaryCode":"59570021","boundaryName":"DA 59570021","boundarySource":"census","boundaryLevel":"bcDaSimplified","boundaryDetail":"medium","DAUID":"59570021","DGUID":"2021S051259570021","PRUID":"59","CDUID":"5957","CDNAME":"Stikine","CDTYPE":"REG","CSDUID":"5957804","CSDNAME":"Good Hope Lake","CSDTYPE":"S-É","CTUID":null,"CTNAME":null,"parentCdId":"5957","parentCdName":"Stikine","parentCsdId":"5957804","parentCsdName":"Good Hope Lake","parentCtId":null,"parentCtName":null,"LANDAREA":0.4691,"areaKm2":0.5181419188447808},"id":57686},{"type":"Feature","geometry":{"type":"Polygon","coordinates":[[[-128.493213,59.923043],[-128.493456,59.925704],[-128.502056,59.925631],[-128.502642,59.923643],[-128.497563,59.922821],[-128.493213,59.923043]]]},"properties":{"id":"59570223","boundaryCode":"59570223","boundaryName":"DA 59570223","boundarySource":"census","boundaryLevel":"bcDaSimplified","boundaryDetail":"medium","DAUID":"59570223","DGUID":"2021S051259570223","PRUID":"59","CDUID":"5957","CDNAME":"Stikine","CDTYPE":"REG","CSDUID":"5957813","CSDNAME":"Lower Post","CSDTYPE":"S-É","CTUID":null,"CTNAME":null,"parentCdId":"5957","parentCdName":"Stikine","parentCsdId":"5957813","parentCsdName":"Lower Post","parentCtId":null,"parentCtName":null,"LANDAREA":0.1506,"areaKm2":0.1500570072042851},"id":57692},{"type":"Feature","geometry":{"type":"Polygon","coordinates":[[[-128.493213,59.923043],[-128.489776,59.923232],[-128.484432,59.924126],[-128.481119,59.924148],[-128.481989,59.928145],[-128.484381,59.932272],[-128.498837,59.937517],[-128.502307,59.939767],[-128.51098,59.939757],[-128.513268,59.937562],[-128.515344,59.936347],[-128.526475,59.931261],[-128.52767,59.930152],[-128.527666,59.92919],[-128.525356,59.928051],[-128.516207,59.927345],[-128.506518,59.924454],[-128.502642,59.923643],[-128.502056,59.925631],[-128.493456,59.925704],[-128.493213,59.923043]]]},"properties":{"id":"59570225","boundaryCode":"59570225","boundaryName":"DA 59570225","boundarySource":"census","boundaryLevel":"bcDaSimplified","boundaryDetail":"medium","DAUID":"59570225","DGUID":"2021S051259570225","PRUID":"59","CDUID":"5957","CDNAME":"Stikine","CDTYPE":"REG","CSDUID":"5957814","CSDNAME":"Liard River 3","CSDTYPE":"IRI","CTUID":null,"CTNAME":null,"parentCdId":"5957","parentCdName":"Stikine","parentCsdId":"5957814","parentCsdName":"Liard River 3","parentCtId":null,"parentCtName":null,"LANDAREA":2.8828,"areaKm2":2.8797657141472364},"id":57693},{"type":"Feature","geometry":{"type":"Polygon","coordinates":[[[-129.292951,59.297652],[-129.300653,59.293189],[-129.302178,59.293162],[-129.30131,59.28991],[-129.302916,59.285841],[-129.303958,59.285024],[-129.298814,59.281388],[-129.301702,59.280049],[-129.297138,59.277332],[-129.277516,59.290456],[-129.286174,59.293657],[-129.285548,59.294143],[-129.285156,59.29575],[-129.286008,59.296764],[-129.284744,59.296955],[-129.284573,59.297297],[-129.286651,59.297428],[-129.287319,59.296476],[-129.288389,59.296428],[-129.292951,59.297652]]]},"properties":{"id":"59570227","boundaryCode":"59570227","boundaryName":"DA 59570227","boundarySource":"census","boundaryLevel":"bcDaSimplified","boundaryDetail":"medium","DAUID":"59570227","DGUID":"2021S051259570227","PRUID":"59","CDUID":"5957","CDNAME":"Stikine","CDTYPE":"REG","CSDUID":"5957820","CSDNAME":"Dease River 1","CSDTYPE":"IRI","CTUID":null,"CTNAME":null,"parentCdId":"5957","parentCdName":"Stikine","parentCsdId":"5957820","parentCsdName":"Dease River 1","parentCtId":null,"parentCtName":null,"LANDAREA":1.4821,"areaKm2":1.7998776745313783},"id":57694}]}