{"type":"FeatureCollection","features":[{"type":"Feature","geometry":{"type":"Polygon","coordinates":[[[-129.002073,57.164394],[-129.002756,57.869435],[-129.002266,57.998764],[-129.249924,57.999134],[-129.497587,57.999513],[-129.745256,57.999901],[-129.99293,58.0003],[-130.244382,58.000433],[-130.496853,58.000484],[-130.749324,58.000525],[-131.001695,58.000556],[-131.118066,58.000187],[-131.126809,57.999796],[-131.50099,57.999886],[-131.750895,57.999893],[-132.000801,57.999901],[-132.250706,57.99991],[-132.500612,57.999918],[-132.750518,57.999928],[-133.069563,58.000057],[-132.989013,57.942978],[-132.961833,57.920702],[-132.917986,57.879494],[-132.868088,57.844592],[-132.822938,57.787572],[-132.802497,57.758308],[-132.759463,57.707531],[-132.719473,57.669101],[-132.686763,57.642971],[-132.625058,57.574913],[-132.576046,57.52568],[-132.563599,57.506831],[-132.514467,57.464529],[-132.478345,57.43786],[-132.424302,57.39225],[-132.369601,57.351429],[-132.330698,57.306317],[-132.24464,57.212017],[-132.369327,57.091427],[-132.045946,57.044048],[-132.121166,56.866906],[-131.870778,56.806254],[-131.901858,56.754365],[-131.857476,56.701778],[-131.833651,56.59878],[-131.683721,56.607333],[-131.581774,56.612376],[-131.542691,56.589594],[-131.467404,56.551078],[-131.419172,56.534511],[-131.331499,56.50583],[-131.250307,56.476369],[-131.202113,56.458331],[-131.164177,56.44729],[-131.087222,56.406358],[-131.043339,56.400936],[-131.024222,56.422398],[-131.015972,56.43593],[-131.003879,56.442206],[-130.982305,56.443739],[-130.959928,56.44731],[-130.939236,56.453984],[-130.927597,56.464653],[-130.928974,56.474635],[-130.92001,56.486297],[-130.904377,56.487606],[-130.887525,56.490407],[-130.875937,56.490213],[-130.861091,56.491914],[-130.851677,56.491421],[-130.82746,56.492214],[-130.805714,56.49361],[-130.789082,56.497248],[-130.775793,56.506873],[-130.767327,56.512038],[-130.742698,56.515631],[-130.692278,56.518311],[-130.67288,56.527377],[-130.668918,56.536111],[-130.657659,56.542886],[-130.652952,56.549243],[-130.647564,56.551479],[-130.643921,56.557111],[-130.638985,56.56105],[-130.637642,56.567829],[-130.631309,56.574027],[-130.631858,56.581407],[-130.634379,56.589672],[-130.638943,56.595741],[-130.645894,56.600108],[-130.652769,56.605757],[-130.655375,56.611172],[-130.652107,56.618225],[-130.644423,56.624707],[-130.638652,56.632252],[-130.629111,56.634359],[-130.59424,56.636188],[-130.581589,56.643239],[-130.566949,56.647374],[-130.535088,56.647086],[-130.520217,56.652161],[-130.511603,56.653429],[-130.499795,56.65756],[-130.487639,56.657369],[-130.476004,56.653539],[-130.46765,56.652985],[-130.460464,56.660108],[-130.466716,56.670688],[-130.471479,56.675587],[-130.470019,56.680053],[-130.477176,56.690446],[-130.474375,56.695424],[-130.481338,56.70386],[-130.478086,56.708933],[-130.475949,56.714438],[-130.479063,56.718251],[-130.480792,56.723218],[-130.480507,56.72614],[-130.462127,56.726438],[-130.446718,56.728411],[-130.429543,56.724027],[-130.417639,56.716382],[-130.40881,56.709597],[-130.402213,56.705709],[-130.391583,56.701095],[-130.380047,56.698464],[-130.37515,56.697051],[-130.352094,56.698337],[-130.332854,56.701755],[-130.318503,56.708616],[-130.308088,56.710935],[-130.284206,56.71314],[-130.271761,56.714744],[-130.258897,56.722118],[-130.243835,56.727515],[-130.22933,56.727476],[-130.220794,56.727902],[-130.212654,56.735659],[-130.213636,56.747757],[-130.22522,56.763328],[-130.222077,56.769194],[-130.20662,56.772934],[-130.19144,56.772592],[-130.167872,56.766225],[-130.155908,56.767314],[-130.141183,56.774583],[-130.124777,56.777108],[-130.112792,56.780223],[-130.096932,56.781369],[-130.083514,56.778793],[-130.06497,56.775966],[-130.049746,56.779434],[-130.038475,56.782892],[-130.028949,56.783204],[-130.019067,56.785049],[-130.007822,56.789892],[-130.003553,56.793516],[-129.991438,56.79425],[-129.977608,56.796792],[-129.965486,56.803667],[-129.958633,56.811363],[-129.949326,56.816864],[-129.933006,56.819463],[-129.912678,56.816329],[-129.869459,56.803866],[-129.86458,56.807236],[-129.869904,56.815179],[-129.873589,56.825906],[-129.872785,56.836213],[-129.882192,56.846981],[-129.889044,56.852495],[-129.89515,56.863566],[-129.890059,56.873843],[-129.881329,56.880739],[-129.881562,56.886859],[-129.8944,56.89946],[-129.893748,56.914447],[-129.899533,56.921374],[-129.901725,56.934994],[-129.905763,56.942339],[-129.900585,56.963048],[-129.904374,56.970876],[-129.903701,56.995655],[-129.901017,56.99898],[-129.888884,57.003336],[-129.87415,57.007182],[-129.855323,57.014332],[-129.843909,57.026959],[-129.819472,57.059556],[-129.81409,57.074287],[-129.811586,57.089273],[-129.795858,57.103478],[-129.776017,57.108947],[-129.735538,57.107361],[-129.718168,57.109112],[-129.703458,57.117791],[-129.696248,57.147679],[-129.681711,57.159698],[-129.662661,57.159877],[-129.621738,57.150337],[-129.597796,57.149978],[-129.578234,57.156143],[-129.561736,57.162496],[-129.54175,57.167179],[-129.512522,57.168267],[-129.490057,57.165408],[-129.480844,57.160417],[-129.473422,57.145493],[-129.475959,57.131035],[-129.499039,57.111472],[-129.498084,57.100684],[-129.492044,57.091754],[-129.472334,57.081081],[-129.450483,57.072353],[-129.427118,57.067753],[-129.378789,57.071464],[-129.327716,57.075875],[-129.306176,57.079445],[-129.294664,57.078858],[-129.277526,57.067213],[-129.263796,57.066893],[-129.255491,57.071932],[-129.249472,57.084647],[-129.248359,57.094182],[-129.242334,57.104111],[-129.224981,57.111743],[-129.186875,57.11679],[-129.16929,57.120993],[-129.155295,57.134579],[-129.135503,57.157403],[-129.121894,57.175147],[-129.10502,57.17951],[-129.086998,57.177811],[-129.054479,57.175837],[-129.049073,57.176554],[-129.003709,57.165723],[-129.002073,57.164394]],[[-131.166528,57.906087],[-131.16559,57.905256],[-131.178001,57.901516],[-131.180992,57.899846],[-131.184359,57.902368],[-131.176197,57.905337],[-131.174154,57.905573],[-131.169844,57.906845],[-131.16861,57.90546],[-131.166528,57.906087]],[[-129.975099,57.831927],[-129.975186,57.831649],[-129.978372,57.831982],[-129.984156,57.834477],[-129.982927,57.835314],[-129.983979,57.836191],[-129.986616,57.835486],[-129.989385,57.836847],[-129.997146,57.843192],[-129.993619,57.84482],[-129.98486,57.84046],[-129.985309,57.840276],[-129.980471,57.836442],[-129.975437,57.833308],[-129.975099,57.831927]],[[-131.156674,57.909915],[-131.15634,57.905443],[-131.163452,57.905597],[-131.163926,57.916173],[-131.157152,57.916306],[-131.156674,57.909915]]]},"properties":{"id":"59490219","boundaryCode":"59490219","boundaryName":"DA 59490219","boundarySource":"census","boundaryLevel":"bcDaSimplified","boundaryDetail":"medium","DAUID":"59490219","DGUID":"2021S051259490219","PRUID":"59","CDUID":"5949","CDNAME":"Kitimat-Stikine","CDTYPE":"RD","CSDUID":"5949041","CSDNAME":"Kitimat-Stikine D","CSDTYPE":"RDA","CTUID":null,"CTNAME":null,"parentCdId":"5949","parentCdName":"Kitimat-Stikine","parentCsdId":"5949041","parentCsdName":"Kitimat-Stikine D","parentCtId":null,"parentCtName":null,"LANDAREA":28105.9945,"areaKm2":28593.5381987054},"id":57252}]}