{"type":"FeatureCollection","features":[{"type":"Feature","geometry":{"type":"Polygon","coordinates":[[[-120.910559,58.356396],[-120.909578,58.355476],[-120.910513,58.354514],[-120.909973,58.354185],[-120.905128,58.354295],[-120.905497,58.357731],[-120.908342,58.357486],[-120.909142,58.357896],[-120.908845,58.356749],[-120.910559,58.356396]]]},"properties":{"id":"59590017","boundaryCode":"59590017","boundaryName":"DA 59590017","boundarySource":"census","boundaryLevel":"bcDaSimplified","boundaryDetail":"medium","DAUID":"59590017","DGUID":"2021S051259590017","PRUID":"59","CDUID":"5959","CDNAME":"Northern Rockies","CDTYPE":"RD","CSDUID":"5959809","CSDNAME":"Kahntah 3","CSDTYPE":"IRI","CTUID":null,"CTNAME":null,"parentCdId":"5959","parentCdName":"Northern Rockies","parentCsdId":"5959809","parentCsdName":"Kahntah 3","parentCtId":null,"parentCtName":null,"LANDAREA":0.0825,"areaKm2":0.09528347065407931},"id":57697},{"type":"Feature","geometry":{"type":"Polygon","coordinates":[[[-121.723083,58.287171],[-121.728629,58.287585],[-121.728831,58.283959],[-121.726519,58.283939],[-121.723765,58.283211],[-121.723083,58.287171]]]},"properties":{"id":"59590035","boundaryCode":"59590035","boundaryName":"DA 59590035","boundarySource":"census","boundaryLevel":"bcDaSimplified","boundaryDetail":"medium","DAUID":"59590035","DGUID":"2021S051259590035","PRUID":"59","CDUID":"5959","CDNAME":"Northern Rockies","CDTYPE":"RD","CSDUID":"5959805","CSDNAME":"Fontas 1","CSDTYPE":"IRI","CTUID":null,"CTNAME":null,"parentCdId":"5959","parentCdName":"Northern Rockies","parentCsdId":"5959805","parentCsdName":"Fontas 1","parentCtId":null,"parentCtName":null,"LANDAREA":0.1287,"areaKm2":0.12832525466330397},"id":57708},{"type":"Feature","geometry":{"type":"Polygon","coordinates":[[[-120.000041,58.000006],[-120.000019,60.000006],[-120.250019,60.000006],[-120.500019,60.000006],[-120.750019,60.000006],[-121.000019,60.000006],[-121.250019,60.000006],[-121.500019,60.000006],[-121.75002,60.000006],[-122.00002,60.000006],[-122.25002,60.000006],[-122.50002,60.000006],[-122.75002,60.000006],[-123.00002,60.000006],[-123.25002,60.000006],[-123.50002,60.000006],[-123.75002,60.000006],[-124.00002,60.000006],[-123.994616,59.613078],[-124.002956,59.608099],[-124.005483,59.60709],[-124.007453,59.566351],[-124.000055,59.550632],[-123.995066,59.549537],[-123.994566,59.548675],[-123.992661,59.523024],[-124.0047,59.516955],[-124.009324,59.513737],[-123.99828,59.50131],[-123.994575,59.493484],[-123.996919,59.494079],[-123.998321,59.49386],[-123.99855,59.493095],[-123.996871,59.492017],[-123.997526,59.491519],[-123.998876,59.491443],[-124.001032,59.492565],[-124.002166,59.493963],[-124.00401,59.494212],[-124.004768,59.493588],[-124.004356,59.492449],[-124.001431,59.490741],[-124.002601,59.490277],[-124.005464,59.490691],[-124.005462,59.479841],[-124.004575,59.476522],[-124.004649,59.474166],[-124.005461,59.472556],[-124.005454,59.432438],[-124.000201,59.432241],[-123.996708,59.432895],[-123.994585,59.433655],[-123.999033,58.747467],[-124.000792,58.674939],[-123.999922,58.49752],[-124.001072,57.999314],[-123.752048,57.99943],[-123.503022,57.999551],[-123.253995,57.999675],[-123.006457,57.999804],[-122.757719,57.997572],[-122.757776,58.000554],[-122.757393,58.001369],[-122.755577,58.00276],[-122.739842,58.000588],[-122.50637,58.000138],[-122.255182,58.000031],[-122.042389,57.99997],[-121.872518,58.000186],[-121.753312,57.999127],[-121.509086,58.000045],[-121.273842,58.001418],[-121.003129,58.000838],[-120.752119,58.000313],[-120.501128,57.999797],[-120.000041,58.000006]],[[-120.910559,58.356396],[-120.908845,58.356749],[-120.909142,58.357896],[-120.908342,58.357486],[-120.905497,58.357731],[-120.905128,58.354295],[-120.909973,58.354185],[-120.910513,58.354514],[-120.909578,58.355476],[-120.910559,58.356396]],[[-122.654752,58.789957],[-122.645595,58.791983],[-122.64277,58.792107],[-122.640638,58.792709],[-122.639231,58.793297],[-122.636187,58.796119],[-122.635058,58.798491],[-122.635401,58.799629],[-122.637043,58.800814],[-122.642548,58.803315],[-122.641498,58.805175],[-122.637816,58.807495],[-122.631884,58.806751],[-122.621401,58.806352],[-122.615791,58.807083],[-122.6084,58.810177],[-122.60519,58.812118],[-122.596411,58.816103],[-122.593336,58.818317],[-122.590087,58.819299],[-122.584466,58.819661],[-122.581342,58.82027],[-122.574758,58.822343],[-122.573829,58.825294],[-122.577972,58.829612],[-122.577991,58.83025],[-122.576392,58.830968],[-122.56862,58.831633],[-122.564014,58.831287],[-122.559197,58.828316],[-122.559153,58.82596],[-122.563566,58.822337],[-122.569566,58.81955],[-122.574795,58.817577],[-122.576036,58.815862],[-122.574443,58.811448],[-122.572092,58.807019],[-122.569291,58.805191],[-122.563491,58.804179],[-122.558085,58.804712],[-122.556041,58.806361],[-122.52322,58.806303],[-122.507984,58.805953],[-122.504514,58.8447],[-122.434163,58.846025],[-122.424261,58.84654],[-122.425494,58.816357],[-122.453659,58.815617],[-122.45454,58.749634],[-122.476936,58.749646],[-122.589843,58.750768],[-122.594048,58.748711],[-122.597384,58.748184],[-122.609949,58.747107],[-122.615047,58.744697],[-122.619804,58.740587],[-122.624245,58.737845],[-122.628879,58.736363],[-122.632842,58.740567],[-122.637253,58.742],[-122.642677,58.742635],[-122.644008,58.743875],[-122.647792,58.744317],[-122.650006,58.74408],[-122.674036,58.74415],[-122.667874,58.767606],[-122.663941,58.769717],[-122.663221,58.769804],[-122.663524,58.770228],[-122.662151,58.770484],[-122.662737,58.774567],[-122.661365,58.774721],[-122.661503,58.775235],[-122.663421,58.775292],[-122.659634,58.779846],[-122.655663,58.783599],[-122.656097,58.785244],[-122.653722,58.786002],[-122.657643,58.788944],[-122.662963,58.785886],[-122.665544,58.786544],[-122.671506,58.789516],[-122.680631,58.792983],[-122.683556,58.791882],[-122.687434,58.794511],[-122.688855,58.793819],[-122.712076,58.795364],[-122.721525,58.794736],[-122.720516,58.800756],[-122.751395,58.798509],[-122.757236,58.802551],[-122.757949,58.802425],[-122.760478,58.804399],[-122.759855,58.804861],[-122.767692,58.811693],[-122.766714,58.813064],[-122.774673,58.815211],[-122.78321,58.816388],[-122.786644,58.817218],[-122.808233,58.827545],[-122.821172,58.829178],[-122.831128,58.831431],[-122.848462,58.832481],[-122.867176,58.835524],[-122.890277,58.837657],[-122.891398,58.837518],[-122.892511,58.836958],[-122.895075,58.838037],[-122.898934,58.839018],[-122.907077,58.840773],[-122.926018,58.84421],[-122.928548,58.84491],[-122.936718,58.848194],[-122.949572,58.852252],[-122.952609,58.854137],[-122.957566,58.859374],[-122.965663,58.865112],[-122.970818,58.867398],[-122.97801,58.868972],[-122.986495,58.869915],[-122.996363,58.872158],[-123.017289,58.874154],[-123.022862,58.875037],[-123.048787,58.882224],[-123.074089,58.888396],[-123.106306,58.900833],[-123.112359,58.901696],[-123.125346,58.901386],[-123.125009,58.902694],[-123.121393,58.903129],[-123.119942,58.903632],[-123.112349,58.908093],[-123.110635,58.910194],[-123.109443,58.912817],[-123.10905,58.914157],[-123.109645,58.915754],[-123.110698,58.916664],[-123.112578,58.917519],[-123.122679,58.920281],[-123.125315,58.921874],[-123.128243,58.924603],[-123.135568,58.928017],[-123.137426,58.929526],[-123.147268,58.940333],[-123.153165,58.94526],[-123.154364,58.94677],[-123.158704,58.95749],[-123.158297,58.964821],[-123.158829,58.966368],[-123.16129,58.968071],[-123.171774,58.971116],[-123.173616,58.972233],[-123.174657,58.973443],[-123.175987,58.977838],[-123.173475,58.987508],[-123.173477,58.988831],[-123.174314,58.990312],[-123.177292,58.992255],[-123.190069,58.997238],[-123.192156,58.998665],[-123.193048,59.000084],[-123.191776,59.020359],[-123.180028,59.038327],[-123.17981,59.039615],[-123.18042,59.041188],[-123.216311,59.082325],[-123.219297,59.084214],[-123.241844,59.094689],[-123.243728,59.095884],[-123.244907,59.097598],[-123.247892,59.131207],[-123.236697,59.156414],[-123.224956,59.169462],[-123.224064,59.171142],[-123.22434,59.180801],[-123.226543,59.18493],[-123.226666,59.186141],[-123.22329,59.205167],[-123.223132,59.209647],[-123.224346,59.210829],[-123.226546,59.211803],[-123.242547,59.215653],[-123.24959,59.216991],[-123.252506,59.218124],[-123.253667,59.219658],[-123.253365,59.221108],[-123.247406,59.226305],[-123.246781,59.228429],[-123.248078,59.230142],[-123.254398,59.234902],[-123.25822,59.235839],[-123.273461,59.235456],[-123.276818,59.235772],[-123.279153,59.236396],[-123.288555,59.240048],[-123.290022,59.24105],[-123.290872,59.24242],[-123.280118,59.290655],[-123.280524,59.292727],[-123.285617,59.30365],[-123.285937,59.306223],[-123.270046,59.339315],[-123.270366,59.341083],[-123.27243,59.342941],[-123.293847,59.351962],[-123.26653,59.358908],[-123.239582,59.359201],[-123.202719,59.355381],[-123.194596,59.355461],[-123.164026,59.354246],[-123.123928,59.358468],[-123.092732,59.352278],[-123.076097,59.351876],[-123.069489,59.350161],[-123.059524,59.352869],[-123.042137,59.369093],[-123.036058,59.371081],[-123.011086,59.374377],[-122.991795,59.373912],[-122.969843,59.379694],[-122.947003,59.376979],[-122.930587,59.366528],[-122.918182,59.363483],[-122.883549,59.360931],[-122.837631,59.354464],[-122.825987,59.334196],[-122.814325,59.327965],[-122.78491,59.326392],[-122.759279,59.314235],[-122.73815,59.308105],[-122.679705,59.301489],[-122.639487,59.29415],[-122.583971,59.281002],[-122.561889,59.274655],[-122.550996,59.272218],[-122.540478,59.268586],[-122.51429,59.268763],[-122.494037,59.266782],[-122.476653,59.254628],[-122.464045,59.250828],[-122.430676,59.25064],[-122.417645,59.248657],[-122.402379,59.242838],[-122.39162,59.240761],[-122.380127,59.234261],[-122.361997,59.227333],[-122.345722,59.217595],[-122.3294,59.21459],[-122.343255,59.189767],[-122.392112,59.098445],[-122.406286,59.08039],[-122.432306,59.06128],[-122.447481,59.051979],[-122.47185,59.04147],[-122.49447,59.025105],[-122.496753,59.021137],[-122.490883,59.006374],[-122.499133,58.990899],[-122.517684,58.980363],[-122.530988,58.963222],[-122.528211,58.946467],[-122.542287,58.936847],[-122.543976,58.923643],[-122.553593,58.917695],[-122.597716,58.919898],[-122.609342,58.916846],[-122.612956,58.914267],[-122.61447,58.902458],[-122.639448,58.886008],[-122.644392,58.879079],[-122.64535,58.872139],[-122.637443,58.860653],[-122.639039,58.8545],[-122.672614,58.837211],[-122.704311,58.826298],[-122.70241,58.825898],[-122.70318,58.819776],[-122.697225,58.819248],[-122.685178,58.824113],[-122.67278,58.815692],[-122.662584,58.819609],[-122.65336,58.81231],[-122.655647,58.810473],[-122.65435,58.808257],[-122.651069,58.806875],[-122.649142,58.807049],[-122.64525,58.805912],[-122.645785,58.805404],[-122.647358,58.805897],[-122.651458,58.803142],[-122.654369,58.801931],[-122.654513,58.801269],[-122.660723,58.797475],[-122.658284,58.796793],[-122.660793,58.793025],[-122.657468,58.791024],[-122.654752,58.789957]],[[-122.687117,58.095143],[-122.686127,58.065465],[-122.705235,58.065724],[-122.703802,58.068173],[-122.707638,58.082357],[-122.709103,58.083997],[-122.710241,58.08909],[-122.707301,58.089254],[-122.707402,58.090158],[-122.705027,58.092005],[-122.705262,58.094044],[-122.687117,58.095143]],[[-121.723083,58.287171],[-121.723765,58.283211],[-121.726519,58.283939],[-121.728831,58.283959],[-121.728629,58.287585],[-121.723083,58.287171]]]},"properties":{"id":"59590039","boundaryCode":"59590039","boundaryName":"DA 59590039","boundarySource":"census","boundaryLevel":"bcDaSimplified","boundaryDetail":"medium","DAUID":"59590039","DGUID":"2021S051259590039","PRUID":"59","CDUID":"5959","CDNAME":"Northern Rockies","CDTYPE":"RD","CSDUID":"5959007","CSDNAME":"Northern Rockies","CSDTYPE":"RGM","CTUID":null,"CTNAME":null,"parentCdId":"5959","parentCdName":"Northern Rockies","parentCsdId":"5959007","parentCsdName":"Northern Rockies","parentCtId":null,"parentCtName":null,"LANDAREA":47847.251000000004,"areaKm2":48641.73999307913},"id":57710}]}