{"type":"FeatureCollection","features":[{"type":"Feature","geometry":{"type":"Polygon","coordinates":[[[-124.001072,57.999314],[-123.999922,58.49752],[-124.000792,58.674939],[-123.999033,58.747467],[-123.994585,59.433655],[-123.996708,59.432895],[-124.000201,59.432241],[-124.005454,59.432438],[-124.005461,59.472556],[-124.004649,59.474166],[-124.004575,59.476522],[-124.005462,59.479841],[-124.005464,59.490691],[-124.002601,59.490277],[-124.001431,59.490741],[-124.004356,59.492449],[-124.004768,59.493588],[-124.00401,59.494212],[-124.002166,59.493963],[-124.001032,59.492565],[-123.998876,59.491443],[-123.997526,59.491519],[-123.996871,59.492017],[-123.99855,59.493095],[-123.998321,59.49386],[-123.996919,59.494079],[-123.994575,59.493484],[-123.99828,59.50131],[-124.009324,59.513737],[-124.0047,59.516955],[-123.992661,59.523024],[-123.994566,59.548675],[-123.995066,59.549537],[-124.000055,59.550632],[-124.007453,59.566351],[-124.005483,59.60709],[-124.002956,59.608099],[-123.994616,59.613078],[-124.00002,60.000006],[-124.25002,60.000006],[-124.50002,60.000006],[-124.75002,60.000006],[-125.00002,60.000006],[-125.25002,60.000006],[-125.50002,60.000006],[-125.75002,60.000006],[-126.00002,60.000005],[-126.25002,60.000005],[-126.50002,60.000005],[-126.75002,60.000005],[-127.00002,60.000005],[-127.250021,60.000005],[-127.500021,60.000005],[-127.725021,60.000027],[-127.725675,59.998744],[-127.724622,59.996106],[-127.726425,59.995466],[-127.727946,59.994294],[-127.730492,59.993193],[-127.729015,59.958117],[-127.728628,59.895713],[-127.702639,59.896018],[-127.677558,59.893229],[-127.65552,59.880148],[-127.656308,59.864271],[-127.660656,59.85504],[-127.67266,59.850641],[-127.708957,59.848469],[-127.70939,59.848144],[-127.73586,59.842555],[-127.748012,59.842958],[-127.758968,59.842408],[-127.767506,59.837832],[-127.769208,59.828244],[-127.763374,59.823184],[-127.761936,59.81699],[-127.757535,59.811011],[-127.761662,59.799702],[-127.802746,59.785451],[-127.786822,59.772117],[-127.810607,59.759343],[-127.804518,59.746874],[-127.80005,59.731887],[-127.794095,59.727656],[-127.794556,59.72386],[-127.797972,59.720901],[-127.799603,59.714341],[-127.79973,59.711324],[-127.796958,59.708552],[-127.791315,59.707127],[-127.787097,59.704818],[-127.785699,59.701522],[-127.79787,59.695137],[-127.795884,59.692455],[-127.792171,59.691092],[-127.786805,59.68745],[-127.781938,59.681904],[-127.777756,59.675417],[-127.766639,59.671067],[-127.756957,59.669492],[-127.752631,59.666654],[-127.751342,59.655562],[-127.727686,59.62998],[-127.713189,59.626525],[-127.677487,59.612877],[-127.648492,59.606565],[-127.592693,59.597046],[-127.585828,59.587926],[-127.580513,59.579273],[-127.573037,59.569778],[-127.562764,59.561158],[-127.559562,59.560243],[-127.555383,59.557502],[-127.55225,59.556684],[-127.546823,59.557118],[-127.538142,59.544887],[-127.532698,59.534422],[-127.517995,59.531846],[-127.505035,59.531468],[-127.494009,59.530086],[-127.484865,59.523711],[-127.483959,59.514952],[-127.446196,59.488954],[-127.445169,59.479242],[-127.427734,59.455256],[-127.414657,59.447799],[-127.391723,59.425253],[-127.3697,59.40022],[-127.355897,59.391726],[-127.342666,59.378668],[-127.339683,59.370531],[-127.334898,59.360843],[-127.333143,59.346584],[-127.291596,59.304781],[-127.279726,59.282174],[-127.25056,59.258756],[-127.235881,59.253062],[-127.227411,59.242202],[-127.22307,59.217217],[-127.208267,59.208024],[-127.198368,59.196173],[-127.193149,59.182514],[-127.193601,59.159075],[-127.186976,59.148899],[-127.170957,59.140203],[-127.147628,59.13264],[-127.113224,59.120468],[-127.098599,59.12066],[-127.068093,59.133656],[-127.045931,59.13608],[-127.027654,59.132957],[-126.98876,59.118764],[-126.976289,59.111408],[-126.972168,59.103],[-126.973137,59.093142],[-126.975088,59.085532],[-126.966577,59.075047],[-126.978581,59.049817],[-126.976731,59.043655],[-126.956615,59.029789],[-126.951405,59.024693],[-126.943857,59.00042],[-126.944359,58.996169],[-126.947029,58.992748],[-126.951901,58.980491],[-126.943483,58.971777],[-126.948288,58.961639],[-126.957911,58.949488],[-126.965959,58.943972],[-126.984895,58.920929],[-126.992418,58.909341],[-127.034113,58.872222],[-127.052091,58.862735],[-127.057259,58.856658],[-127.059439,58.850607],[-127.056874,58.843696],[-127.050698,58.835128],[-127.050416,58.833909],[-127.037045,58.825044],[-127.021405,58.806634],[-127.004243,58.80432],[-126.992442,58.806141],[-126.987019,58.809468],[-126.970865,58.814212],[-126.95941,58.813726],[-126.948697,58.808979],[-126.931748,58.796838],[-126.895368,58.778136],[-126.879644,58.761225],[-126.841552,58.729385],[-126.834416,58.722115],[-126.839823,58.708057],[-126.851119,58.697683],[-126.861332,58.692823],[-126.870465,58.685124],[-126.887831,58.677967],[-126.9067,58.661172],[-126.916057,58.646627],[-126.914371,58.638809],[-126.897163,58.630792],[-126.873535,58.636746],[-126.844227,58.654817],[-126.83559,58.66312],[-126.792762,58.668409],[-126.764423,58.66908],[-126.743887,58.667267],[-126.721494,58.656117],[-126.699921,58.648875],[-126.666852,58.628017],[-126.637325,58.603659],[-126.615905,58.592603],[-126.605611,58.585159],[-126.585544,58.580416],[-126.552005,58.57914],[-126.539622,58.58226],[-126.52892,58.588802],[-126.486789,58.60505],[-126.46818,58.600226],[-126.457234,58.603275],[-126.445827,58.603304],[-126.40329,58.596902],[-126.389208,58.598557],[-126.375013,58.603407],[-126.332414,58.610044],[-126.319887,58.608437],[-126.302916,58.598357],[-126.299651,58.590296],[-126.303011,58.572255],[-126.284845,58.549324],[-126.249642,58.522077],[-126.231071,58.512511],[-126.207613,58.493429],[-126.196176,58.490703],[-126.178609,58.484277],[-126.158878,58.472263],[-126.138142,58.46507],[-126.110164,58.46086],[-126.07057,58.449422],[-126.065879,58.431836],[-126.060117,58.42049],[-126.047854,58.414665],[-126.01458,58.406555],[-126.00003,58.406809],[-125.967275,58.402283],[-125.945947,58.397616],[-125.930909,58.395293],[-125.92171,58.400668],[-125.909133,58.402209],[-125.897875,58.408722],[-125.894607,58.412295],[-125.877253,58.414266],[-125.857474,58.412663],[-125.8453,58.400562],[-125.835547,58.380999],[-125.825374,58.373057],[-125.822987,58.36941],[-125.827438,58.367253],[-125.835309,58.360935],[-125.833389,58.356174],[-125.824948,58.352602],[-125.784644,58.346019],[-125.783973,58.340614],[-125.780869,58.331514],[-125.774917,58.321622],[-125.765661,58.320367],[-125.750363,58.323566],[-125.737513,58.318007],[-125.730424,58.311242],[-125.717412,58.307281],[-125.698368,58.307123],[-125.650211,58.303918],[-125.626625,58.306699],[-125.610285,58.312904],[-125.592659,58.314604],[-125.584579,58.312739],[-125.572777,58.316621],[-125.551862,58.319559],[-125.535937,58.315469],[-125.517477,58.308663],[-125.480517,58.308659],[-125.476581,58.30936],[-125.472567,58.316172],[-125.469118,58.32739],[-125.462412,58.335235],[-125.451566,58.340231],[-125.439366,58.34114],[-125.426652,58.336289],[-125.415604,58.327197],[-125.393528,58.315647],[-125.390844,58.314944],[-125.377295,58.298394],[-125.371354,58.294727],[-125.36164,58.293211],[-125.354082,58.28979],[-125.35642,58.279473],[-125.33933,58.275977],[-125.328552,58.277776],[-125.308746,58.29154],[-125.288641,58.302899],[-125.280479,58.303645],[-125.275724,58.300612],[-125.264199,58.281961],[-125.219263,58.256077],[-125.201318,58.23927],[-125.185509,58.23861],[-125.171976,58.243472],[-125.160125,58.243842],[-125.141527,58.236315],[-125.120018,58.238621],[-125.099192,58.237237],[-125.088155,58.235338],[-125.056982,58.235393],[-125.051772,58.237424],[-125.038812,58.241559],[-125.028606,58.241409],[-125.01929,58.240069],[-125.002866,58.235506],[-124.99243,58.233088],[-124.951886,58.230841],[-124.942676,58.235362],[-124.926286,58.25322],[-124.916711,58.256109],[-124.899018,58.24371],[-124.892329,58.230599],[-124.879872,58.223443],[-124.863013,58.221334],[-124.848939,58.221359],[-124.839378,58.215562],[-124.829724,58.207067],[-124.831053,58.198737],[-124.849888,58.184887],[-124.875177,58.174414],[-124.883974,58.164322],[-124.882712,58.157514],[-124.874077,58.139544],[-124.860984,58.124896],[-124.866906,58.117876],[-124.876045,58.1039],[-124.887419,58.094051],[-124.90391,58.084824],[-124.919086,58.073977],[-124.92638,58.064897],[-124.926865,58.05344],[-124.922534,58.042266],[-124.917046,58.030433],[-124.919405,58.025425],[-124.927044,58.02366],[-124.950217,58.024785],[-124.955909,58.025745],[-124.966333,58.021924],[-124.968404,58.016528],[-124.965222,58.010569],[-124.962152,58.006851],[-124.948384,57.999876],[-124.750951,57.999724],[-124.500989,57.999587],[-124.251029,57.999451],[-124.001072,57.999314]]]},"properties":{"id":"59590013","boundaryCode":"59590013","boundaryName":"DA 59590013","boundarySource":"census","boundaryLevel":"bcDaSimplified","boundaryDetail":"medium","DAUID":"59590013","DGUID":"2021S051259590013","PRUID":"59","CDUID":"5959","CDNAME":"Northern Rockies","CDTYPE":"RD","CSDUID":"5959007","CSDNAME":"Northern Rockies","CSDTYPE":"RGM","CTUID":null,"CTNAME":null,"parentCdId":"5959","parentCdName":"Northern Rockies","parentCsdId":"5959007","parentCsdName":"Northern Rockies","parentCtId":null,"parentCtName":null,"LANDAREA":34638.476800000004,"areaKm2":35090.96329353005},"id":57696},{"type":"Feature","geometry":{"type":"Polygon","coordinates":[[[-122.690404,58.80943],[-122.694656,58.810828],[-122.698995,58.807089],[-122.699092,58.806047],[-122.700855,58.806075],[-122.700948,58.804381],[-122.708514,58.804457],[-122.708823,58.7977],[-122.712084,58.797735],[-122.712076,58.795364],[-122.688855,58.793819],[-122.687434,58.794511],[-122.683556,58.791882],[-122.680631,58.792983],[-122.671506,58.789516],[-122.665544,58.786544],[-122.662963,58.785886],[-122.657643,58.788944],[-122.654752,58.789957],[-122.657468,58.791024],[-122.660793,58.793025],[-122.658284,58.796793],[-122.660723,58.797475],[-122.662063,58.798987],[-122.664467,58.799935],[-122.682461,58.80271],[-122.68109,58.805049],[-122.689341,58.806438],[-122.693177,58.806709],[-122.695808,58.807713],[-122.693554,58.809153],[-122.690404,58.80943]]]},"properties":{"id":"59590019","boundaryCode":"59590019","boundaryName":"DA 59590019","boundarySource":"census","boundaryLevel":"bcDaSimplified","boundaryDetail":"medium","DAUID":"59590019","DGUID":"2021S051259590019","PRUID":"59","CDUID":"5959","CDNAME":"Northern Rockies","CDTYPE":"RD","CSDUID":"5959007","CSDNAME":"Northern Rockies","CSDTYPE":"RGM","CTUID":null,"CTNAME":null,"parentCdId":"5959","parentCdName":"Northern Rockies","parentCsdId":"5959007","parentCsdName":"Northern Rockies","parentCtId":null,"parentCtName":null,"LANDAREA":3.7762000000000002,"areaKm2":3.8433972837156354},"id":57698},{"type":"Feature","geometry":{"type":"Polygon","coordinates":[[[-122.660723,58.797475],[-122.654513,58.801269],[-122.654369,58.801931],[-122.651458,58.803142],[-122.647358,58.805897],[-122.645785,58.805404],[-122.64525,58.805912],[-122.649142,58.807049],[-122.651069,58.806875],[-122.65435,58.808257],[-122.655647,58.810473],[-122.65336,58.81231],[-122.662584,58.819609],[-122.67278,58.815692],[-122.683868,58.811352],[-122.685248,58.810792],[-122.683751,58.810675],[-122.684278,58.808786],[-122.678411,58.80836],[-122.676846,58.808243],[-122.676434,58.809157],[-122.672607,58.809944],[-122.671191,58.807846],[-122.671312,58.807039],[-122.672953,58.807157],[-122.673398,58.806223],[-122.677525,58.805537],[-122.677725,58.804802],[-122.67935,58.804921],[-122.68109,58.805049],[-122.682461,58.80271],[-122.664467,58.799935],[-122.662063,58.798987],[-122.660723,58.797475]]]},"properties":{"id":"59590020","boundaryCode":"59590020","boundaryName":"DA 59590020","boundarySource":"census","boundaryLevel":"bcDaSimplified","boundaryDetail":"medium","DAUID":"59590020","DGUID":"2021S051259590020","PRUID":"59","CDUID":"5959","CDNAME":"Northern Rockies","CDTYPE":"RD","CSDUID":"5959007","CSDNAME":"Northern Rockies","CSDTYPE":"RGM","CTUID":null,"CTNAME":null,"parentCdId":"5959","parentCdName":"Northern Rockies","parentCsdId":"5959007","parentCsdName":"Northern Rockies","parentCtId":null,"parentCtName":null,"LANDAREA":2.5678,"areaKm2":2.7054208839301226},"id":57699},{"type":"Feature","geometry":{"type":"Polygon","coordinates":[[[-122.678411,58.80836],[-122.67935,58.804921],[-122.677725,58.804802],[-122.677525,58.805537],[-122.673398,58.806223],[-122.672953,58.807157],[-122.671312,58.807039],[-122.671191,58.807846],[-122.672607,58.809944],[-122.676434,58.809157],[-122.676846,58.808243],[-122.678411,58.80836]]]},"properties":{"id":"59590021","boundaryCode":"59590021","boundaryName":"DA 59590021","boundarySource":"census","boundaryLevel":"bcDaSimplified","boundaryDetail":"medium","DAUID":"59590021","DGUID":"2021S051259590021","PRUID":"59","CDUID":"5959","CDNAME":"Northern Rockies","CDTYPE":"RD","CSDUID":"5959007","CSDNAME":"Northern Rockies","CSDTYPE":"RGM","CTUID":null,"CTNAME":null,"parentCdId":"5959","parentCdName":"Northern Rockies","parentCsdId":"5959007","parentCsdName":"Northern Rockies","parentCtId":null,"parentCtName":null,"LANDAREA":0.151,"areaKm2":0.15052226884770528},"id":57700},{"type":"Feature","geometry":{"type":"Polygon","coordinates":[[[-122.68109,58.805049],[-122.67935,58.804921],[-122.678411,58.80836],[-122.684278,58.808786],[-122.688548,58.80909],[-122.688273,58.809645],[-122.690404,58.80943],[-122.693554,58.809153],[-122.695808,58.807713],[-122.693177,58.806709],[-122.689341,58.806438],[-122.68109,58.805049]]]},"properties":{"id":"59590022","boundaryCode":"59590022","boundaryName":"DA 59590022","boundarySource":"census","boundaryLevel":"bcDaSimplified","boundaryDetail":"medium","DAUID":"59590022","DGUID":"2021S051259590022","PRUID":"59","CDUID":"5959","CDNAME":"Northern Rockies","CDTYPE":"RD","CSDUID":"5959007","CSDNAME":"Northern Rockies","CSDTYPE":"RGM","CTUID":null,"CTNAME":null,"parentCdId":"5959","parentCdName":"Northern Rockies","parentCsdId":"5959007","parentCsdName":"Northern Rockies","parentCtId":null,"parentCtName":null,"LANDAREA":0.3095,"areaKm2":0.30849838427557424},"id":57701},{"type":"Feature","geometry":{"type":"Polygon","coordinates":[[[-122.690404,58.80943],[-122.688273,58.809645],[-122.688548,58.80909],[-122.684278,58.808786],[-122.683751,58.810675],[-122.685248,58.810792],[-122.683868,58.811352],[-122.685192,58.812177],[-122.684017,58.81334],[-122.685696,58.81464],[-122.695257,58.811015],[-122.694656,58.810828],[-122.690404,58.80943]]]},"properties":{"id":"59590023","boundaryCode":"59590023","boundaryName":"DA 59590023","boundarySource":"census","boundaryLevel":"bcDaSimplified","boundaryDetail":"medium","DAUID":"59590023","DGUID":"2021S051259590023","PRUID":"59","CDUID":"5959","CDNAME":"Northern Rockies","CDTYPE":"RD","CSDUID":"5959007","CSDNAME":"Northern Rockies","CSDTYPE":"RGM","CTUID":null,"CTNAME":null,"parentCdId":"5959","parentCdName":"Northern Rockies","parentCsdId":"5959007","parentCsdName":"Northern Rockies","parentCtId":null,"parentCtName":null,"LANDAREA":0.2394,"areaKm2":0.23869594491370896},"id":57702},{"type":"Feature","geometry":{"type":"Polygon","coordinates":[[[-122.694656,58.810828],[-122.695257,58.811015],[-122.696732,58.811842],[-122.698285,58.811999],[-122.702257,58.813219],[-122.705809,58.811664],[-122.700901,58.807068],[-122.700855,58.806075],[-122.699092,58.806047],[-122.698995,58.807089],[-122.694656,58.810828]]]},"properties":{"id":"59590024","boundaryCode":"59590024","boundaryName":"DA 59590024","boundarySource":"census","boundaryLevel":"bcDaSimplified","boundaryDetail":"medium","DAUID":"59590024","DGUID":"2021S051259590024","PRUID":"59","CDUID":"5959","CDNAME":"Northern Rockies","CDTYPE":"RD","CSDUID":"5959007","CSDNAME":"Northern Rockies","CSDTYPE":"RGM","CTUID":null,"CTNAME":null,"parentCdId":"5959","parentCdName":"Northern Rockies","parentCsdId":"5959007","parentCsdName":"Northern Rockies","parentCtId":null,"parentCtName":null,"LANDAREA":0.2551,"areaKm2":0.2542668597938317},"id":57703},{"type":"Feature","geometry":{"type":"Polygon","coordinates":[[[-122.67278,58.815692],[-122.685178,58.824113],[-122.697225,58.819248],[-122.70318,58.819776],[-122.70241,58.825898],[-122.704311,58.826298],[-122.709953,58.811643],[-122.705809,58.811664],[-122.702257,58.813219],[-122.698285,58.811999],[-122.696732,58.811842],[-122.695257,58.811015],[-122.685696,58.81464],[-122.684017,58.81334],[-122.685192,58.812177],[-122.683868,58.811352],[-122.67278,58.815692]]]},"properties":{"id":"59590025","boundaryCode":"59590025","boundaryName":"DA 59590025","boundarySource":"census","boundaryLevel":"bcDaSimplified","boundaryDetail":"medium","DAUID":"59590025","DGUID":"2021S051259590025","PRUID":"59","CDUID":"5959","CDNAME":"Northern Rockies","CDTYPE":"RD","CSDUID":"5959007","CSDNAME":"Northern Rockies","CSDTYPE":"RGM","CTUID":null,"CTNAME":null,"parentCdId":"5959","parentCdName":"Northern Rockies","parentCsdId":"5959007","parentCsdName":"Northern Rockies","parentCtId":null,"parentCtName":null,"LANDAREA":1.8534000000000002,"areaKm2":1.8479947008074054},"id":57704},{"type":"Feature","geometry":{"type":"Polygon","coordinates":[[[-122.700855,58.806075],[-122.700901,58.807068],[-122.705809,58.811664],[-122.709953,58.811643],[-122.704311,58.826298],[-122.70433,58.82654],[-122.705977,58.82589],[-122.712243,58.817171],[-122.715004,58.817074],[-122.716271,58.814625],[-122.719295,58.814568],[-122.720154,58.812678],[-122.717584,58.811983],[-122.717567,58.809893],[-122.728377,58.809548],[-122.728619,58.807047],[-122.733256,58.806774],[-122.733537,58.808633],[-122.741381,58.808355],[-122.741281,58.80698],[-122.748686,58.806642],[-122.763531,58.815266],[-122.766714,58.813064],[-122.767692,58.811693],[-122.759855,58.804861],[-122.760478,58.804399],[-122.757949,58.802425],[-122.757236,58.802551],[-122.751395,58.798509],[-122.720516,58.800756],[-122.721525,58.794736],[-122.712076,58.795364],[-122.712084,58.797735],[-122.708823,58.7977],[-122.708514,58.804457],[-122.700948,58.804381],[-122.700855,58.806075]]]},"properties":{"id":"59590026","boundaryCode":"59590026","boundaryName":"DA 59590026","boundarySource":"census","boundaryLevel":"bcDaSimplified","boundaryDetail":"medium","DAUID":"59590026","DGUID":"2021S051259590026","PRUID":"59","CDUID":"5959","CDNAME":"Northern Rockies","CDTYPE":"RD","CSDUID":"5959007","CSDNAME":"Northern Rockies","CSDTYPE":"RGM","CTUID":null,"CTNAME":null,"parentCdId":"5959","parentCdName":"Northern Rockies","parentCsdId":"5959007","parentCsdName":"Northern Rockies","parentCtId":null,"parentCtName":null,"LANDAREA":4.41,"areaKm2":4.396348059713309},"id":57705},{"type":"Feature","geometry":{"type":"Polygon","coordinates":[[[-122.704311,58.826298],[-122.672614,58.837211],[-122.639039,58.8545],[-122.637443,58.860653],[-122.64535,58.872139],[-122.644392,58.879079],[-122.639448,58.886008],[-122.61447,58.902458],[-122.612956,58.914267],[-122.609342,58.916846],[-122.597716,58.919898],[-122.553593,58.917695],[-122.543976,58.923643],[-122.542287,58.936847],[-122.528211,58.946467],[-122.530988,58.963222],[-122.517684,58.980363],[-122.499133,58.990899],[-122.490883,59.006374],[-122.496753,59.021137],[-122.49447,59.025105],[-122.47185,59.04147],[-122.447481,59.051979],[-122.432306,59.06128],[-122.406286,59.08039],[-122.392112,59.098445],[-122.343255,59.189767],[-122.3294,59.21459],[-122.345722,59.217595],[-122.361997,59.227333],[-122.380127,59.234261],[-122.39162,59.240761],[-122.402379,59.242838],[-122.417645,59.248657],[-122.430676,59.25064],[-122.464045,59.250828],[-122.476653,59.254628],[-122.494037,59.266782],[-122.51429,59.268763],[-122.540478,59.268586],[-122.550996,59.272218],[-122.561889,59.274655],[-122.583971,59.281002],[-122.639487,59.29415],[-122.679705,59.301489],[-122.73815,59.308105],[-122.759279,59.314235],[-122.78491,59.326392],[-122.814325,59.327965],[-122.825987,59.334196],[-122.837631,59.354464],[-122.883549,59.360931],[-122.918182,59.363483],[-122.930587,59.366528],[-122.947003,59.376979],[-122.969843,59.379694],[-122.991795,59.373912],[-123.011086,59.374377],[-123.036058,59.371081],[-123.042137,59.369093],[-123.059524,59.352869],[-123.069489,59.350161],[-123.076097,59.351876],[-123.092732,59.352278],[-123.123928,59.358468],[-123.164026,59.354246],[-123.194596,59.355461],[-123.202719,59.355381],[-123.239582,59.359201],[-123.26653,59.358908],[-123.293847,59.351962],[-123.27243,59.342941],[-123.270366,59.341083],[-123.270046,59.339315],[-123.285937,59.306223],[-123.285617,59.30365],[-123.280524,59.292727],[-123.280118,59.290655],[-123.290872,59.24242],[-123.290022,59.24105],[-123.288555,59.240048],[-123.279153,59.236396],[-123.276818,59.235772],[-123.273461,59.235456],[-123.25822,59.235839],[-123.254398,59.234902],[-123.248078,59.230142],[-123.246781,59.228429],[-123.247406,59.226305],[-123.253365,59.221108],[-123.253667,59.219658],[-123.252506,59.218124],[-123.24959,59.216991],[-123.242547,59.215653],[-123.226546,59.211803],[-123.224346,59.210829],[-123.223132,59.209647],[-123.22329,59.205167],[-123.226666,59.186141],[-123.226543,59.18493],[-123.22434,59.180801],[-123.224064,59.171142],[-123.224956,59.169462],[-123.236697,59.156414],[-123.247892,59.131207],[-123.244907,59.097598],[-123.243728,59.095884],[-123.241844,59.094689],[-123.219297,59.084214],[-123.216311,59.082325],[-123.18042,59.041188],[-123.17981,59.039615],[-123.180028,59.038327],[-123.191776,59.020359],[-123.193048,59.000084],[-123.192156,58.998665],[-123.190069,58.997238],[-123.177292,58.992255],[-123.174314,58.990312],[-123.173477,58.988831],[-123.173475,58.987508],[-123.175987,58.977838],[-123.174657,58.973443],[-123.173616,58.972233],[-123.171774,58.971116],[-123.16129,58.968071],[-123.158829,58.966368],[-123.158297,58.964821],[-123.158704,58.95749],[-123.154364,58.94677],[-123.153165,58.94526],[-123.147268,58.940333],[-123.137426,58.929526],[-123.135568,58.928017],[-123.128243,58.924603],[-123.125315,58.921874],[-123.122679,58.920281],[-123.112578,58.917519],[-123.110698,58.916664],[-123.109645,58.915754],[-123.10905,58.914157],[-123.109443,58.912817],[-123.110635,58.910194],[-123.112349,58.908093],[-123.119942,58.903632],[-123.121393,58.903129],[-123.125009,58.902694],[-123.125346,58.901386],[-123.112359,58.901696],[-123.106306,58.900833],[-123.074089,58.888396],[-123.048787,58.882224],[-123.022862,58.875037],[-123.017289,58.874154],[-122.996363,58.872158],[-122.986495,58.869915],[-122.97801,58.868972],[-122.970818,58.867398],[-122.965663,58.865112],[-122.957566,58.859374],[-122.952609,58.854137],[-122.949572,58.852252],[-122.936718,58.848194],[-122.928548,58.84491],[-122.926018,58.84421],[-122.907077,58.840773],[-122.898934,58.839018],[-122.895075,58.838037],[-122.892511,58.836958],[-122.891398,58.837518],[-122.890277,58.837657],[-122.867176,58.835524],[-122.848462,58.832481],[-122.831128,58.831431],[-122.821172,58.829178],[-122.808233,58.827545],[-122.786644,58.817218],[-122.78321,58.816388],[-122.774673,58.815211],[-122.766714,58.813064],[-122.763531,58.815266],[-122.748686,58.806642],[-122.741281,58.80698],[-122.741381,58.808355],[-122.733537,58.808633],[-122.733256,58.806774],[-122.728619,58.807047],[-122.728377,58.809548],[-122.717567,58.809893],[-122.717584,58.811983],[-122.720154,58.812678],[-122.719295,58.814568],[-122.716271,58.814625],[-122.715004,58.817074],[-122.712243,58.817171],[-122.705977,58.82589],[-122.70433,58.82654],[-122.704311,58.826298]]]},"properties":{"id":"59590027","boundaryCode":"59590027","boundaryName":"DA 59590027","boundarySource":"census","boundaryLevel":"bcDaSimplified","boundaryDetail":"medium","DAUID":"59590027","DGUID":"2021S051259590027","PRUID":"59","CDUID":"5959","CDNAME":"Northern Rockies","CDTYPE":"RD","CSDUID":"5959007","CSDNAME":"Northern Rockies","CSDTYPE":"RGM","CTUID":null,"CTNAME":null,"parentCdId":"5959","parentCdName":"Northern Rockies","parentCsdId":"5959007","parentCsdName":"Northern Rockies","parentCtId":null,"parentCtName":null,"LANDAREA":2260.0172000000002,"areaKm2":2284.290485278327},"id":57706},{"type":"Feature","geometry":{"type":"Polygon","coordinates":[[[-122.687117,58.095143],[-122.705262,58.094044],[-122.705027,58.092005],[-122.707402,58.090158],[-122.707301,58.089254],[-122.710241,58.08909],[-122.709103,58.083997],[-122.707638,58.082357],[-122.703802,58.068173],[-122.705235,58.065724],[-122.686127,58.065465],[-122.687117,58.095143]]]},"properties":{"id":"59590032","boundaryCode":"59590032","boundaryName":"DA 59590032","boundarySource":"census","boundaryLevel":"bcDaSimplified","boundaryDetail":"medium","DAUID":"59590032","DGUID":"2021S051259590032","PRUID":"59","CDUID":"5959","CDNAME":"Northern Rockies","CDTYPE":"RD","CSDUID":"5959810","CSDNAME":"Prophet River 4","CSDTYPE":"IRI","CTUID":null,"CTNAME":null,"parentCdId":"5959","parentCdName":"Northern Rockies","parentCsdId":"5959810","parentCsdName":"Prophet River 4","parentCtId":null,"parentCtName":null,"LANDAREA":3.7905,"areaKm2":3.7793284734775},"id":57707},{"type":"Feature","geometry":{"type":"Polygon","coordinates":[[[-122.657643,58.788944],[-122.653722,58.786002],[-122.656097,58.785244],[-122.655663,58.783599],[-122.659634,58.779846],[-122.663421,58.775292],[-122.661503,58.775235],[-122.661365,58.774721],[-122.662737,58.774567],[-122.662151,58.770484],[-122.663524,58.770228],[-122.663221,58.769804],[-122.663941,58.769717],[-122.667874,58.767606],[-122.674036,58.74415],[-122.650006,58.74408],[-122.647792,58.744317],[-122.644008,58.743875],[-122.642677,58.742635],[-122.637253,58.742],[-122.632842,58.740567],[-122.628879,58.736363],[-122.624245,58.737845],[-122.619804,58.740587],[-122.615047,58.744697],[-122.609949,58.747107],[-122.597384,58.748184],[-122.594048,58.748711],[-122.589843,58.750768],[-122.476936,58.749646],[-122.45454,58.749634],[-122.453659,58.815617],[-122.425494,58.816357],[-122.424261,58.84654],[-122.434163,58.846025],[-122.504514,58.8447],[-122.507984,58.805953],[-122.52322,58.806303],[-122.556041,58.806361],[-122.558085,58.804712],[-122.563491,58.804179],[-122.569291,58.805191],[-122.572092,58.807019],[-122.574443,58.811448],[-122.576036,58.815862],[-122.574795,58.817577],[-122.569566,58.81955],[-122.563566,58.822337],[-122.559153,58.82596],[-122.559197,58.828316],[-122.564014,58.831287],[-122.56862,58.831633],[-122.576392,58.830968],[-122.577991,58.83025],[-122.577972,58.829612],[-122.573829,58.825294],[-122.574758,58.822343],[-122.581342,58.82027],[-122.584466,58.819661],[-122.590087,58.819299],[-122.593336,58.818317],[-122.596411,58.816103],[-122.60519,58.812118],[-122.6084,58.810177],[-122.615791,58.807083],[-122.621401,58.806352],[-122.631884,58.806751],[-122.637816,58.807495],[-122.641498,58.805175],[-122.642548,58.803315],[-122.637043,58.800814],[-122.635401,58.799629],[-122.635058,58.798491],[-122.636187,58.796119],[-122.639231,58.793297],[-122.640638,58.792709],[-122.64277,58.792107],[-122.645595,58.791983],[-122.654752,58.789957],[-122.657643,58.788944]]]},"properties":{"id":"59590038","boundaryCode":"59590038","boundaryName":"DA 59590038","boundarySource":"census","boundaryLevel":"bcDaSimplified","boundaryDetail":"medium","DAUID":"59590038","DGUID":"2021S051259590038","PRUID":"59","CDUID":"5959","CDNAME":"Northern Rockies","CDTYPE":"RD","CSDUID":"5959806","CSDNAME":"Fort Nelson 2","CSDTYPE":"IRI","CTUID":null,"CTNAME":null,"parentCdId":"5959","parentCdName":"Northern Rockies","parentCsdId":"5959806","parentCsdName":"Fort Nelson 2","parentCtId":null,"parentCtName":null,"LANDAREA":95.5757,"areaKm2":98.76148979853632},"id":57709}]}