{"type":"FeatureCollection","features":[{"type":"Feature","geometry":{"type":"Polygon","coordinates":[[[-126.022033,55.324592],[-126.035855,55.323584],[-126.034102,55.316379],[-126.021135,55.31724],[-126.022033,55.324592]]]},"properties":{"id":"59510266","boundaryCode":"59510266","boundaryName":"DA 59510266","boundarySource":"census","boundaryLevel":"bcDaSimplified","boundaryDetail":"medium","DAUID":"59510266","DGUID":"2021S051259510266","PRUID":"59","CDUID":"5951","CDNAME":"Bulkley-Nechako","CDTYPE":"RD","CSDUID":"5951811","CSDNAME":"Tacla Lake (Ferry Landing) 9","CSDTYPE":"IRI","CTUID":null,"CTNAME":null,"parentCdId":"5951","parentCdName":"Bulkley-Nechako","parentCsdId":"5951811","parentCsdName":"Tacla Lake (Ferry Landing) 9","parentCtId":null,"parentCtName":null,"LANDAREA":0.6978000000000001,"areaKm2":0.6961281292874549},"id":57365},{"type":"Feature","geometry":{"type":"Polygon","coordinates":[[[-125.956993,55.481563],[-125.956483,55.484495],[-125.972702,55.484895],[-125.974433,55.484702],[-125.975684,55.485164],[-125.976229,55.488343],[-125.983649,55.488168],[-125.983923,55.484649],[-125.983124,55.483913],[-125.979917,55.48317],[-125.977848,55.483282],[-125.978117,55.48195],[-125.976068,55.481152],[-125.973707,55.480798],[-125.969696,55.480932],[-125.962652,55.479035],[-125.960922,55.477288],[-125.957806,55.476888],[-125.956993,55.481563]]]},"properties":{"id":"59510283","boundaryCode":"59510283","boundaryName":"DA 59510283","boundarySource":"census","boundaryLevel":"bcDaSimplified","boundaryDetail":"medium","DAUID":"59510283","DGUID":"2021S051259510283","PRUID":"59","CDUID":"5951","CDNAME":"Bulkley-Nechako","CDTYPE":"RD","CSDUID":"5951848","CSDNAME":"North Tacla Lake","CSDTYPE":"IRI","CTUID":null,"CTNAME":null,"parentCdId":"5951","parentCdName":"Bulkley-Nechako","parentCsdId":"5951848","parentCsdName":"North Tacla Lake","parentCtId":null,"parentCtName":null,"LANDAREA":0.9797,"areaKm2":0.9774233771462488},"id":57377},{"type":"Feature","geometry":{"type":"Polygon","coordinates":[[[-123.102695,55.342334],[-123.103273,55.3448],[-123.102242,55.345112],[-123.100003,55.345125],[-123.100006,55.34595],[-123.09865,55.345955],[-123.098746,55.348317],[-123.111825,55.348075],[-123.111903,55.338007],[-123.104707,55.338125],[-123.104713,55.338815],[-123.10699,55.338812],[-123.107482,55.339296],[-123.106146,55.339664],[-123.106247,55.340782],[-123.107372,55.34065],[-123.108131,55.341351],[-123.106165,55.341926],[-123.104286,55.34192],[-123.104264,55.342339],[-123.102695,55.342334]]]},"properties":{"id":"59530193","boundaryCode":"59530193","boundaryName":"DA 59530193","boundarySource":"census","boundaryLevel":"bcDaSimplified","boundaryDetail":"medium","DAUID":"59530193","DGUID":"2021S051259530193","PRUID":"59","CDUID":"5953","CDNAME":"Fraser-Fort George","CDTYPE":"RD","CSDUID":"5953033","CSDNAME":"Mackenzie","CSDTYPE":"DM","CTUID":null,"CTNAME":null,"parentCdId":"5953","parentCdName":"Fraser-Fort George","parentCsdId":"5953033","parentCsdName":"Mackenzie","parentCtId":null,"parentCtName":null,"LANDAREA":0.6173000000000001,"areaKm2":0.6157977869447954},"id":57492},{"type":"Feature","geometry":{"type":"Polygon","coordinates":[[[-123.104707,55.338125],[-123.094515,55.338132],[-123.094538,55.342327],[-123.102695,55.342334],[-123.104264,55.342339],[-123.104286,55.34192],[-123.106165,55.341926],[-123.108131,55.341351],[-123.107372,55.34065],[-123.106247,55.340782],[-123.106146,55.339664],[-123.107482,55.339296],[-123.10699,55.338812],[-123.104713,55.338815],[-123.104707,55.338125]]]},"properties":{"id":"59530194","boundaryCode":"59530194","boundaryName":"DA 59530194","boundarySource":"census","boundaryLevel":"bcDaSimplified","boundaryDetail":"medium","DAUID":"59530194","DGUID":"2021S051259530194","PRUID":"59","CDUID":"5953","CDNAME":"Fraser-Fort George","CDTYPE":"RD","CSDUID":"5953033","CSDNAME":"Mackenzie","CSDTYPE":"DM","CTUID":null,"CTNAME":null,"parentCdId":"5953","parentCdName":"Fraser-Fort George","parentCsdId":"5953033","parentCsdName":"Mackenzie","parentCtId":null,"parentCtName":null,"LANDAREA":0.3492,"areaKm2":0.3483939477270003},"id":57493},{"type":"Feature","geometry":{"type":"Polygon","coordinates":[[[-123.094515,55.338132],[-123.094417,55.331945],[-123.092691,55.331946],[-123.092638,55.333191],[-123.091674,55.334197],[-123.084657,55.33716],[-123.082668,55.337837],[-123.078107,55.338539],[-123.077801,55.34421],[-123.076757,55.347383],[-123.093782,55.34694],[-123.094538,55.342327],[-123.094515,55.338132]]]},"properties":{"id":"59530195","boundaryCode":"59530195","boundaryName":"DA 59530195","boundarySource":"census","boundaryLevel":"bcDaSimplified","boundaryDetail":"medium","DAUID":"59530195","DGUID":"2021S051259530195","PRUID":"59","CDUID":"5953","CDNAME":"Fraser-Fort George","CDTYPE":"RD","CSDUID":"5953033","CSDNAME":"Mackenzie","CSDTYPE":"DM","CTUID":null,"CTNAME":null,"parentCdId":"5953","parentCdName":"Fraser-Fort George","parentCsdId":"5953033","parentCsdName":"Mackenzie","parentCtId":null,"parentCtName":null,"LANDAREA":1.2715,"areaKm2":1.2983728681479068},"id":57494},{"type":"Feature","geometry":{"type":"Polygon","coordinates":[[[-123.111903,55.338007],[-123.112314,55.321996],[-123.093852,55.322006],[-123.093733,55.328289],[-123.092362,55.328707],[-123.08889,55.328734],[-123.087364,55.328302],[-123.085666,55.329943],[-123.085599,55.330836],[-123.092646,55.330528],[-123.092691,55.331946],[-123.094417,55.331945],[-123.094515,55.338132],[-123.104707,55.338125],[-123.111903,55.338007]]]},"properties":{"id":"59530196","boundaryCode":"59530196","boundaryName":"DA 59530196","boundarySource":"census","boundaryLevel":"bcDaSimplified","boundaryDetail":"medium","DAUID":"59530196","DGUID":"2021S051259530196","PRUID":"59","CDUID":"5953","CDNAME":"Fraser-Fort George","CDTYPE":"RD","CSDUID":"5953033","CSDNAME":"Mackenzie","CSDTYPE":"DM","CTUID":null,"CTNAME":null,"parentCdId":"5953","parentCdName":"Fraser-Fort George","parentCsdId":"5953033","parentCsdName":"Mackenzie","parentCtId":null,"parentCtName":null,"LANDAREA":2.1086,"areaKm2":2.1728760782856673},"id":57495},{"type":"Feature","geometry":{"type":"Polygon","coordinates":[[[-123.092691,55.331946],[-123.092646,55.330528],[-123.085599,55.330836],[-123.084742,55.330808],[-123.08508,55.332216],[-123.0839,55.332693],[-123.084485,55.333439],[-123.084258,55.334279],[-123.082364,55.333854],[-123.081235,55.335076],[-123.081713,55.335686],[-123.083291,55.336113],[-123.084657,55.33716],[-123.091674,55.334197],[-123.092638,55.333191],[-123.092691,55.331946]]]},"properties":{"id":"59530197","boundaryCode":"59530197","boundaryName":"DA 59530197","boundarySource":"census","boundaryLevel":"bcDaSimplified","boundaryDetail":"medium","DAUID":"59530197","DGUID":"2021S051259530197","PRUID":"59","CDUID":"5953","CDNAME":"Fraser-Fort George","CDTYPE":"RD","CSDUID":"5953033","CSDNAME":"Mackenzie","CSDTYPE":"DM","CTUID":null,"CTNAME":null,"parentCdId":"5953","parentCdName":"Fraser-Fort George","parentCsdId":"5953033","parentCsdName":"Mackenzie","parentCtId":null,"parentCtName":null,"LANDAREA":0.3216,"areaKm2":0.3208810079910665},"id":57496},{"type":"Feature","geometry":{"type":"Polygon","coordinates":[[[-123.087364,55.328302],[-123.08507,55.32734],[-123.08348,55.326007],[-123.081991,55.325944],[-123.078388,55.327115],[-123.078416,55.328425],[-123.080086,55.332848],[-123.080871,55.333454],[-123.082364,55.333854],[-123.084258,55.334279],[-123.084485,55.333439],[-123.0839,55.332693],[-123.08508,55.332216],[-123.084742,55.330808],[-123.085599,55.330836],[-123.085666,55.329943],[-123.087364,55.328302]]]},"properties":{"id":"59530198","boundaryCode":"59530198","boundaryName":"DA 59530198","boundarySource":"census","boundaryLevel":"bcDaSimplified","boundaryDetail":"medium","DAUID":"59530198","DGUID":"2021S051259530198","PRUID":"59","CDUID":"5953","CDNAME":"Fraser-Fort George","CDTYPE":"RD","CSDUID":"5953033","CSDNAME":"Mackenzie","CSDTYPE":"DM","CTUID":null,"CTNAME":null,"parentCdId":"5953","parentCdName":"Fraser-Fort George","parentCsdId":"5953033","parentCsdName":"Mackenzie","parentCtId":null,"parentCtName":null,"LANDAREA":0.32530000000000003,"areaKm2":0.3245644458550571},"id":57497},{"type":"Feature","geometry":{"type":"Polygon","coordinates":[[[-125.615604,57.423883],[-125.616844,57.42637],[-125.614326,57.431175],[-125.614547,57.43272],[-125.615683,57.433918],[-125.619419,57.435846],[-125.638849,57.434967],[-125.673715,57.429728],[-125.669669,57.430081],[-125.665238,57.429931],[-125.661909,57.429435],[-125.659443,57.42841],[-125.654776,57.4257],[-125.650723,57.424241],[-125.647759,57.423654],[-125.641357,57.423219],[-125.620051,57.41872],[-125.608518,57.417276],[-125.604809,57.416256],[-125.603958,57.416605],[-125.604109,57.417733],[-125.60535,57.419779],[-125.60917,57.421151],[-125.608367,57.423097],[-125.609083,57.424141],[-125.611012,57.424038],[-125.613791,57.42313],[-125.615604,57.423883]]]},"properties":{"id":"59550114","boundaryCode":"59550114","boundaryName":"DA 59550114","boundarySource":"census","boundaryLevel":"bcDaSimplified","boundaryDetail":"medium","DAUID":"59550114","DGUID":"2021S051259550114","PRUID":"59","CDUID":"5955","CDNAME":"Peace River","CDTYPE":"RD","CSDUID":"5955807","CSDNAME":"Fort Ware 1","CSDTYPE":"IRI","CTUID":null,"CTNAME":null,"parentCdId":"5955","parentCdName":"Peace River","parentCsdId":"5955807","parentCsdName":"Fort Ware 1","parentCtId":null,"parentCtName":null,"LANDAREA":3.6167000000000002,"areaKm2":4.027338809992171},"id":57562},{"type":"Feature","geometry":{"type":"Polygon","coordinates":[[[-124.888305,56.795023],[-124.889062,56.796386],[-124.890625,56.797827],[-124.894476,56.800484],[-124.895456,56.802363],[-124.897412,56.803466],[-124.897049,56.804731],[-124.894374,56.80628],[-124.894032,56.808235],[-124.895404,56.808151],[-124.896422,56.808532],[-124.899807,56.808085],[-124.903002,56.808755],[-124.904786,56.81004],[-124.907197,56.810731],[-124.908333,56.811947],[-124.915782,56.808879],[-124.923742,56.804385],[-124.927825,56.796515],[-124.929898,56.788624],[-124.92571,56.783077],[-124.915993,56.78627],[-124.90526,56.787173],[-124.884091,56.786932],[-124.880135,56.788741],[-124.881834,56.790728],[-124.887305,56.79404],[-124.888305,56.795023]]]},"properties":{"id":"59550116","boundaryCode":"59550116","boundaryName":"DA 59550116","boundarySource":"census","boundaryLevel":"bcDaSimplified","boundaryDetail":"medium","DAUID":"59550116","DGUID":"2021S051259550116","PRUID":"59","CDUID":"5955","CDNAME":"Peace River","CDTYPE":"RD","CSDUID":"5955812","CSDNAME":"Ingenika Point","CSDTYPE":"S-É","CTUID":null,"CTNAME":null,"parentCdId":"5955","parentCdName":"Peace River","parentCsdId":"5955812","parentCsdName":"Ingenika Point","parentCtId":null,"parentCtName":null,"LANDAREA":5.5604000000000005,"areaKm2":5.638694509740447},"id":57563},{"type":"Feature","geometry":{"type":"Polygon","coordinates":[[[-122.628467,55.395429],[-122.635533,55.40456],[-122.637612,55.405677],[-122.651402,55.410809],[-122.662593,55.418525],[-122.669363,55.421834],[-122.676793,55.4266],[-122.680528,55.429416],[-122.689855,55.431558],[-122.710701,55.441241],[-122.717029,55.445101],[-122.727979,55.449579],[-122.730501,55.450196],[-122.740923,55.450615],[-122.742451,55.450898],[-122.749116,55.455061],[-122.769326,55.461059],[-122.784407,55.469528],[-122.786146,55.471798],[-122.786136,55.477194],[-122.783407,55.486748],[-122.783611,55.491121],[-122.777906,55.499316],[-122.776759,55.503871],[-122.77308,55.507638],[-122.767814,55.510639],[-122.76499,55.513185],[-122.760047,55.513265],[-122.751394,55.514956],[-122.749378,55.514978],[-122.745965,55.517181],[-122.742053,55.517387],[-122.737213,55.51712],[-122.730655,55.519262],[-122.727402,55.521293],[-122.725926,55.521676],[-122.717026,55.521503],[-122.707278,55.519092],[-122.706275,55.518599],[-122.697453,55.510674],[-122.685612,55.505242],[-122.682038,55.504616],[-122.675434,55.50193],[-122.6478,55.501065],[-122.645121,55.501409],[-122.639296,55.504302],[-122.635608,55.504678],[-122.631816,55.506348],[-122.628839,55.506618],[-122.620785,55.505114],[-122.613453,55.505914],[-122.610938,55.505788],[-122.601419,55.502478],[-122.586868,55.500816],[-122.583172,55.501412],[-122.580729,55.503151],[-122.57889,55.507288],[-122.57026,55.51156],[-122.566135,55.511738],[-122.56013,55.510708],[-122.551145,55.512559],[-122.548657,55.514911],[-122.544149,55.516105],[-122.541302,55.51861],[-122.539372,55.5197],[-122.537544,55.52002],[-122.535696,55.519908],[-122.524253,55.516764],[-122.508541,55.518666],[-122.505814,55.519855],[-122.500167,55.525905],[-122.49509,55.527781],[-122.490459,55.530925],[-122.48855,55.534646],[-122.487242,55.535777],[-122.460989,55.548737],[-122.458614,55.549533],[-122.433533,55.555252],[-122.4208,55.562642],[-122.407294,55.568894],[-122.403741,55.569882],[-122.385374,55.578393],[-122.373315,55.581902],[-122.339401,55.596773],[-122.308505,55.604696],[-122.306006,55.606085],[-122.30184,55.610812],[-122.30084,55.611379],[-122.280015,55.617209],[-122.272333,55.621367],[-122.264572,55.623112],[-122.261333,55.624865],[-122.258637,55.628182],[-122.25714,55.629241],[-122.248618,55.633193],[-122.229845,55.637618],[-122.205261,55.648038],[-122.202804,55.648749],[-122.200354,55.648769],[-122.191377,55.647887],[-122.180152,55.648455],[-122.178656,55.648259],[-122.171823,55.645639],[-122.169005,55.645013],[-122.131337,55.642388],[-122.126812,55.641287],[-122.114367,55.635985],[-122.106496,55.63447],[-122.094883,55.630314],[-122.06781,55.628373],[-122.06618,55.627785],[-122.057117,55.622823],[-122.052245,55.617518],[-122.049799,55.615717],[-122.035578,55.608655],[-122.032675,55.607985],[-122.022742,55.609267],[-122.012461,55.612535],[-122.006858,55.612797],[-122.000971,55.614326],[-121.996787,55.614336],[-121.992498,55.613807],[-121.988074,55.61366],[-121.974138,55.612089],[-121.968121,55.612698],[-121.961694,55.611804],[-121.958774,55.611719],[-121.95033,55.6128],[-121.94733,55.612886],[-121.936769,55.612097],[-121.924339,55.612194],[-121.914025,55.611214],[-121.903518,55.611196],[-121.897889,55.611674],[-121.862078,55.617111],[-121.858158,55.617332],[-121.84169,55.617294],[-121.82812,55.618061],[-121.820608,55.619774],[-121.78684,55.630826],[-121.780522,55.632186],[-121.7695,55.633673],[-121.756214,55.638197],[-121.743597,55.641259],[-121.742257,55.641972],[-121.741506,55.642923],[-121.741658,55.647352],[-121.741932,55.652126],[-121.741548,55.65392],[-121.735765,55.660881],[-121.733933,55.662441],[-121.718523,55.672462],[-121.715505,55.673853],[-121.709971,55.675578],[-121.69949,55.67829],[-121.671074,55.684453],[-121.663516,55.686825],[-121.664726,55.691165],[-121.665297,55.700832],[-121.672275,55.70716],[-121.676797,55.7109],[-121.677425,55.710918],[-121.677404,55.711742],[-121.682339,55.715907],[-121.689028,55.720081],[-121.689994,55.720122],[-121.690874,55.721169],[-121.691779,55.721145],[-121.69518,55.719849],[-121.691899,55.723082],[-121.69233,55.724674],[-121.691241,55.726656],[-121.693763,55.732427],[-121.699549,55.740598],[-121.69541,55.743901],[-121.69182,55.744354],[-121.687683,55.743742],[-121.688075,55.744685],[-121.687414,55.74536],[-121.684094,55.747005],[-121.683772,55.749446],[-121.685588,55.750427],[-121.68638,55.751505],[-121.6885,55.751464],[-121.689342,55.751153],[-121.689801,55.751674],[-121.603717,55.750161],[-121.60178,55.752545],[-121.6011,55.754487],[-121.601285,55.756354],[-121.602548,55.759713],[-121.602399,55.761217],[-121.601686,55.76219],[-121.598012,55.765019],[-121.597351,55.766536],[-121.599534,55.77167],[-121.599738,55.773262],[-121.596479,55.779117],[-121.59395,55.805217],[-121.593823,55.815884],[-121.594517,55.818051],[-121.597093,55.820065],[-121.600356,55.821751],[-121.600601,55.811137],[-121.676178,55.81123],[-121.68013,55.809714],[-121.684072,55.808971],[-121.69266,55.808784],[-121.702115,55.807458],[-121.719661,55.808729],[-121.725256,55.809763],[-121.734308,55.809919],[-121.741133,55.813816],[-121.753697,55.811796],[-121.762644,55.811442],[-121.769083,55.812285],[-121.781822,55.81177],[-121.786778,55.810625],[-121.799037,55.808532],[-121.803537,55.807429],[-121.808227,55.807115],[-121.814667,55.805866],[-121.822038,55.803581],[-121.832649,55.799414],[-121.841103,55.799697],[-121.845042,55.798625],[-121.849818,55.798022],[-121.858778,55.795345],[-121.868287,55.79166],[-121.877955,55.785841],[-121.883491,55.783646],[-121.890163,55.782329],[-121.891903,55.782065],[-121.941819,55.781351],[-121.943324,55.81094],[-121.904173,55.810586],[-121.904225,55.832374],[-121.860757,55.832399],[-121.863372,55.833193],[-121.864882,55.834248],[-121.898439,55.868977],[-121.90104,55.872943],[-121.901051,55.871671],[-121.91411,55.872006],[-121.914852,55.890154],[-121.929022,55.890095],[-121.929288,55.897751],[-121.94791,55.897485],[-122.03786,55.89927],[-122.03691,55.885847],[-122.236089,55.889987],[-122.227002,55.954446],[-122.23161,56.00563],[-122.243644,56.003738],[-122.285412,56.001729],[-122.291555,56.040692],[-122.270803,56.039],[-122.270937,56.045896],[-122.299879,56.045511],[-122.301514,56.063001],[-122.304483,56.083111],[-122.342598,56.094058],[-122.399115,56.106161],[-122.43791,56.112759],[-122.508474,56.132435],[-122.531667,56.1414],[-122.555572,56.144852],[-122.590462,56.142897],[-122.606342,56.139111],[-122.628633,56.131111],[-122.670666,56.109511],[-122.700164,56.098302],[-122.740389,56.090515],[-122.781002,56.089329],[-122.831326,56.091457],[-122.843749,56.090715],[-122.868979,56.091648],[-122.904739,56.093858],[-122.96636,56.0867],[-123.005555,56.082578],[-123.009598,56.081688],[-123.013474,56.080181],[-123.033496,56.075973],[-123.04984,56.069638],[-123.062399,56.061143],[-123.068854,56.046383],[-123.076866,56.031941],[-123.117286,56.001935],[-123.129942,55.994276],[-123.162732,55.986369],[-123.202178,55.981428],[-123.247381,55.979746],[-123.282698,55.983328],[-123.320633,55.996121],[-123.326262,56.000953],[-123.336236,56.007755],[-123.364407,56.015297],[-123.39483,56.018446],[-123.468623,56.021704],[-123.500685,56.028115],[-123.547172,56.031788],[-123.578737,56.035922],[-123.617395,56.037167],[-123.641868,56.039491],[-123.658303,56.047204],[-123.683862,56.050657],[-123.695158,56.050683],[-123.718654,56.044431],[-123.736862,56.042665],[-123.764105,56.050038],[-123.773856,56.046892],[-123.78624,56.038929],[-123.793844,56.031896],[-123.802249,56.019051],[-123.8169,56.006271],[-123.827167,55.993415],[-123.815306,55.980195],[-123.809955,55.979092],[-123.802942,55.970712],[-123.794533,55.967722],[-123.773478,55.957484],[-123.762091,55.949226],[-123.75759,55.940089],[-123.751549,55.933901],[-123.745908,55.933783],[-123.736653,55.937887],[-123.726766,55.93908],[-123.705756,55.942464],[-123.688447,55.942841],[-123.681455,55.940122],[-123.682958,55.939218],[-123.684304,55.913682],[-123.66775,55.909755],[-123.649712,55.896307],[-123.618919,55.888283],[-123.608053,55.883151],[-123.578984,55.880881],[-123.576215,55.870541],[-123.542931,55.864914],[-123.523678,55.863173],[-123.511021,55.869255],[-123.485394,55.87302],[-123.442369,55.88248],[-123.430851,55.882147],[-123.418146,55.871503],[-123.40061,55.866431],[-123.367744,55.861084],[-123.363682,55.853835],[-123.382889,55.839493],[-123.381614,55.834133],[-123.364681,55.829154],[-123.35136,55.830456],[-123.339276,55.819902],[-123.339877,55.808912],[-123.317975,55.800246],[-123.307425,55.776102],[-123.315514,55.770901],[-123.313616,55.757803],[-123.341417,55.731266],[-123.339091,55.727325],[-123.32668,55.715379],[-123.306946,55.706892],[-123.260847,55.697114],[-123.228429,55.711818],[-123.203666,55.714253],[-123.180835,55.711599],[-123.198525,55.727198],[-123.191192,55.733222],[-123.16431,55.737507],[-123.143787,55.731692],[-123.13647,55.722983],[-123.139133,55.712072],[-123.12788,55.697183],[-123.120475,55.693961],[-123.120397,55.688797],[-123.123024,55.684451],[-123.127951,55.680499],[-123.127662,55.660383],[-123.142223,55.651863],[-123.142953,55.640447],[-123.125943,55.62963],[-123.078179,55.625503],[-123.072813,55.620851],[-123.080657,55.610832],[-123.071731,55.595798],[-123.071827,55.582672],[-123.037893,55.562523],[-123.013647,55.559751],[-122.996919,55.563427],[-122.9785,55.570905],[-122.965554,55.58217],[-122.948059,55.580925],[-122.935748,55.572406],[-122.921174,55.564025],[-122.942557,55.55407],[-122.939928,55.536933],[-122.932937,55.52179],[-122.953346,55.503151],[-122.956679,55.488293],[-122.933112,55.472318],[-122.927803,55.463056],[-122.937864,55.459484],[-122.955648,55.459563],[-122.980093,55.464703],[-123.002314,55.458268],[-123.005737,55.446084],[-123.001227,55.438205],[-122.98665,55.428292],[-122.987205,55.40154],[-122.974552,55.398091],[-122.920252,55.413143],[-122.874427,55.419023],[-122.861983,55.415769],[-122.877806,55.406209],[-122.869398,55.40011],[-122.84606,55.398921],[-122.830332,55.384388],[-122.811573,55.387515],[-122.789167,55.381122],[-122.742725,55.365548],[-122.739994,55.354072],[-122.719915,55.343984],[-122.698213,55.347018],[-122.678505,55.340359],[-122.654962,55.342437],[-122.636716,55.359151],[-122.630099,55.393957],[-122.628467,55.395429]]]},"properties":{"id":"59550117","boundaryCode":"59550117","boundaryName":"DA 59550117","boundarySource":"census","boundaryLevel":"bcDaSimplified","boundaryDetail":"medium","DAUID":"59550117","DGUID":"2021S051259550117","PRUID":"59","CDUID":"5955","CDNAME":"Peace River","CDTYPE":"RD","CSDUID":"5955023","CSDNAME":"Peace River E","CSDTYPE":"RDA","CTUID":null,"CTNAME":null,"parentCdId":"5955","parentCdName":"Peace River","parentCsdId":"5955023","parentCsdName":"Peace River E","parentCtId":null,"parentCtName":null,"LANDAREA":5197.6858,"areaKm2":5357.329615531485},"id":57564},{"type":"Feature","geometry":{"type":"Polygon","coordinates":[[[-124.955697,56.924665],[-124.956078,56.925324],[-124.975181,56.923436],[-124.973687,56.918975],[-124.993784,56.917189],[-124.993392,56.89232],[-124.991671,56.892351],[-124.991382,56.891565],[-124.988435,56.890776],[-124.988771,56.890267],[-124.980692,56.890516],[-124.984224,56.888314],[-124.984267,56.881829],[-124.97999,56.881636],[-124.977205,56.881105],[-124.975394,56.879795],[-124.975167,56.878603],[-124.973496,56.877731],[-124.971759,56.878369],[-124.962243,56.885969],[-124.960895,56.88936],[-124.957293,56.892966],[-124.957281,56.899651],[-124.952848,56.908204],[-124.950391,56.910847],[-124.951448,56.912808],[-124.951589,56.91551],[-124.955697,56.924665]]]},"properties":{"id":"59550249","boundaryCode":"59550249","boundaryName":"DA 59550249","boundarySource":"census","boundaryLevel":"bcDaSimplified","boundaryDetail":"medium","DAUID":"59550249","DGUID":"2021S051259550249","PRUID":"59","CDUID":"5955","CDNAME":"Peace River","CDTYPE":"RD","CSDUID":"5955840","CSDNAME":"Finlay River 6","CSDTYPE":"IRI","CTUID":null,"CTNAME":null,"parentCdId":"5955","parentCdName":"Peace River","parentCsdId":"5955840","parentCsdName":"Finlay River 6","parentCtId":null,"parentCtName":null,"LANDAREA":9.494200000000001,"areaKm2":9.468618277844923},"id":57682},{"type":"Feature","geometry":{"type":"Polygon","coordinates":[[[-123.928396,55.554385],[-123.942268,55.57492],[-123.95348,55.602735],[-123.975074,55.60946],[-123.962014,55.624436],[-123.952203,55.634643],[-123.932956,55.648014],[-123.916457,55.656775],[-123.879084,55.670161],[-123.846159,55.682408],[-123.833803,55.693609],[-123.827339,55.700694],[-123.82093,55.703185],[-123.818002,55.716963],[-123.813229,55.722798],[-123.803277,55.72837],[-123.793149,55.731513],[-123.784328,55.73487],[-123.760415,55.731739],[-123.756822,55.735956],[-123.761796,55.74559],[-123.773039,55.749241],[-123.772618,55.750563],[-123.77711,55.750563],[-123.784335,55.752885],[-123.80591,55.757979],[-123.816017,55.766007],[-123.822278,55.774606],[-123.823005,55.784299],[-123.819148,55.79045],[-123.820824,55.79551],[-123.824191,55.800048],[-123.835829,55.805124],[-123.846739,55.806084],[-123.858031,55.806303],[-123.866575,55.810477],[-123.88027,55.82546],[-123.892563,55.844603],[-123.903839,55.855998],[-123.908914,55.865594],[-123.912675,55.874977],[-123.922461,55.883734],[-123.936774,55.894813],[-123.937625,55.900135],[-123.936218,55.904295],[-123.932743,55.909714],[-123.924854,55.914015],[-123.915544,55.916887],[-123.907451,55.91876],[-123.896641,55.918986],[-123.891556,55.920552],[-123.874692,55.926982],[-123.868727,55.934396],[-123.864808,55.946137],[-123.860038,55.958139],[-123.857138,55.972043],[-123.851456,55.977507],[-123.842288,55.982801],[-123.830609,55.983282],[-123.815306,55.980195],[-123.827167,55.993415],[-123.8169,56.006271],[-123.802249,56.019051],[-123.793844,56.031896],[-123.78624,56.038929],[-123.773856,56.046892],[-123.764105,56.050038],[-123.736862,56.042665],[-123.718654,56.044431],[-123.695158,56.050683],[-123.683862,56.050657],[-123.658303,56.047204],[-123.641868,56.039491],[-123.617395,56.037167],[-123.578737,56.035922],[-123.547172,56.031788],[-123.500685,56.028115],[-123.468623,56.021704],[-123.39483,56.018446],[-123.364407,56.015297],[-123.336236,56.007755],[-123.326262,56.000953],[-123.320633,55.996121],[-123.282698,55.983328],[-123.247381,55.979746],[-123.202178,55.981428],[-123.162732,55.986369],[-123.129942,55.994276],[-123.117286,56.001935],[-123.076866,56.031941],[-123.068854,56.046383],[-123.062399,56.061143],[-123.04984,56.069638],[-123.033496,56.075973],[-123.013474,56.080181],[-123.009598,56.081688],[-123.005555,56.082578],[-122.96636,56.0867],[-122.904739,56.093858],[-122.868979,56.091648],[-122.843749,56.090715],[-122.831326,56.091457],[-122.781002,56.089329],[-122.740389,56.090515],[-122.700164,56.098302],[-122.670666,56.109511],[-122.628633,56.131111],[-122.606342,56.139111],[-122.590462,56.142897],[-122.555572,56.144852],[-122.531667,56.1414],[-122.508474,56.132435],[-122.43791,56.112759],[-122.399115,56.106161],[-122.342598,56.094058],[-122.304483,56.083111],[-122.305653,56.096727],[-122.288013,56.095148],[-122.288749,56.114049],[-122.251477,56.115648],[-122.233423,56.139803],[-122.15636,56.144656],[-122.092037,56.142686],[-122.090962,56.142381],[-122.04202,56.142369],[-121.959246,56.141456],[-121.9582,56.1589],[-121.969845,56.30214],[-121.975343,56.377636],[-121.978053,56.497832],[-121.979995,56.509518],[-121.978695,56.514703],[-121.977697,56.523108],[-121.953381,56.523286],[-121.901563,56.522509],[-121.901599,56.521344],[-121.897615,56.519925],[-121.893047,56.517358],[-121.890274,56.516287],[-121.875173,56.514328],[-121.870859,56.514077],[-121.867661,56.514336],[-121.866521,56.514828],[-121.864792,56.516503],[-121.862987,56.516919],[-121.848929,56.514486],[-121.836904,56.514294],[-121.832606,56.515023],[-121.830277,56.515044],[-121.82311,56.513716],[-121.821858,56.51429],[-121.813297,56.521966],[-121.812394,56.523337],[-121.811882,56.527972],[-121.810514,56.529138],[-121.80171,56.529322],[-121.799295,56.52905],[-121.789197,56.525332],[-121.787269,56.523585],[-121.784766,56.522121],[-121.782576,56.52148],[-121.778701,56.520892],[-121.776836,56.521252],[-121.774214,56.524247],[-121.772592,56.525436],[-121.766009,56.527115],[-121.764676,56.527734],[-121.762295,56.530121],[-121.757643,56.5372],[-121.76053,56.540947],[-121.760008,56.544528],[-121.758352,56.545393],[-121.754712,56.545279],[-121.753261,56.545724],[-121.753544,56.547944],[-121.752563,56.550246],[-121.754731,56.553401],[-121.754115,56.556141],[-121.755073,56.55836],[-121.75623,56.56671],[-121.757848,56.573539],[-121.760645,56.576314],[-121.761738,56.578945],[-121.769569,56.58485],[-121.772184,56.585998],[-121.773417,56.587012],[-121.775289,56.589621],[-121.777647,56.59496],[-121.780342,56.598808],[-121.776441,56.618752],[-121.774564,56.621161],[-121.767216,56.626062],[-121.753352,56.639031],[-121.751259,56.640168],[-121.736107,56.64624],[-121.723447,56.65323],[-121.714081,56.655985],[-121.711486,56.657057],[-121.710021,56.658736],[-121.709737,56.66389],[-121.707508,56.667421],[-121.705232,56.668616],[-121.698642,56.670423],[-121.693401,56.673456],[-121.70974,56.701787],[-121.712674,56.704065],[-121.715412,56.704909],[-121.767952,56.715315],[-121.784867,56.717839],[-121.790206,56.719062],[-121.797835,56.721871],[-121.801273,56.725568],[-121.802509,56.726468],[-121.806819,56.728483],[-121.807223,56.729144],[-121.809117,56.730099],[-121.809928,56.729903],[-121.835075,56.739865],[-121.853748,56.746749],[-121.856048,56.748096],[-121.893123,56.792173],[-121.895392,56.793617],[-121.954083,56.823974],[-121.986995,56.85226],[-121.988559,56.85502],[-121.993227,56.870833],[-121.993049,56.872527],[-121.989957,56.875884],[-121.989621,56.878133],[-122.000403,56.891478],[-122.01857,56.904156],[-122.031669,56.912612],[-122.046445,56.91973],[-122.062462,56.93071],[-122.07996,56.93708],[-122.08154,56.937967],[-122.08397,56.940358],[-122.099869,56.959841],[-122.108232,56.971489],[-122.108971,56.972335],[-122.111194,56.973605],[-122.114012,56.974286],[-122.132726,56.97668],[-122.136035,56.977322],[-122.138676,56.978516],[-122.14959,56.986984],[-122.153342,56.988792],[-122.156493,56.989461],[-122.177487,56.990984],[-122.181273,56.990525],[-122.183125,56.989942],[-122.189418,56.986475],[-122.197805,56.984425],[-122.201211,56.983938],[-122.207122,56.984194],[-122.235247,56.988314],[-122.238869,56.988265],[-122.260214,56.984707],[-122.263073,56.983559],[-122.272412,56.977575],[-122.274689,56.977057],[-122.276978,56.97715],[-122.283191,56.9781],[-122.288229,56.979541],[-122.308358,56.991109],[-122.329084,56.998515],[-122.338728,57.003781],[-122.342106,57.004797],[-122.349829,57.005786],[-122.355163,57.005549],[-122.358529,57.004768],[-122.388164,56.99474],[-122.391975,56.994366],[-122.39736,56.995256],[-122.400395,56.996468],[-122.411124,57.002497],[-122.41265,57.003039],[-122.415208,57.003488],[-122.425071,57.004067],[-122.42677,57.004377],[-122.429735,57.005683],[-122.45511,57.035692],[-122.457499,57.037367],[-122.459058,57.037932],[-122.462686,57.03845],[-122.50141,57.038218],[-122.505023,57.038581],[-122.507292,57.03924],[-122.514789,57.044005],[-122.518012,57.045632],[-122.538685,57.053674],[-122.550357,57.057792],[-122.553178,57.059415],[-122.561079,57.065923],[-122.596189,57.086213],[-122.601424,57.087541],[-122.638091,57.092057],[-122.643882,57.093178],[-122.67811,57.107436],[-122.680719,57.109125],[-122.683017,57.111286],[-122.688654,57.120912],[-122.697958,57.159637],[-122.699622,57.163597],[-122.703647,57.169692],[-122.705661,57.171711],[-122.715038,57.177267],[-122.718071,57.179787],[-122.732256,57.196803],[-122.733133,57.199695],[-122.732141,57.202131],[-122.731088,57.203213],[-122.70545,57.225905],[-122.702103,57.227085],[-122.687493,57.230062],[-122.685141,57.231181],[-122.683843,57.235086],[-122.684198,57.237085],[-122.685306,57.237845],[-122.686827,57.238265],[-122.693862,57.238318],[-122.694509,57.237791],[-122.695153,57.238312],[-122.69811,57.238449],[-122.699475,57.238832],[-122.702764,57.24084],[-122.704696,57.241595],[-122.712743,57.242478],[-122.71498,57.242978],[-122.734956,57.251292],[-122.826051,57.284995],[-122.828745,57.286639],[-122.833063,57.290685],[-122.834132,57.292783],[-122.836751,57.301416],[-122.836957,57.304946],[-122.835692,57.306964],[-122.819953,57.324342],[-122.819397,57.327075],[-122.820503,57.328823],[-122.855168,57.356597],[-122.856748,57.358479],[-122.857113,57.360563],[-122.854068,57.37481],[-122.852291,57.396285],[-122.852886,57.399625],[-122.866508,57.42014],[-122.890178,57.43938],[-122.917131,57.480004],[-122.918103,57.481987],[-122.920844,57.493265],[-122.950724,57.568365],[-122.954961,57.575041],[-122.969424,57.588227],[-122.971967,57.591234],[-123.017402,57.66817],[-123.018213,57.671514],[-123.011862,57.692272],[-123.009898,57.695113],[-122.891897,57.784779],[-122.888527,57.788123],[-122.886819,57.79092],[-122.878049,57.813508],[-122.861448,57.8291],[-122.859153,57.832055],[-122.848392,57.864272],[-122.847383,57.866178],[-122.828734,57.8861],[-122.826117,57.888278],[-122.817725,57.893304],[-122.8161,57.894735],[-122.812978,57.899131],[-122.812166,57.901927],[-122.812311,57.908949],[-122.821779,57.93182],[-122.821408,57.933808],[-122.813268,57.947046],[-122.811483,57.948744],[-122.808945,57.950362],[-122.777561,57.967548],[-122.773799,57.969168],[-122.76431,57.972477],[-122.761604,57.973875],[-122.756995,57.979102],[-122.756513,57.980959],[-122.756789,57.984976],[-122.755927,57.986852],[-122.746972,57.996189],[-122.739842,58.000588],[-122.755577,58.00276],[-122.757393,58.001369],[-122.757776,58.000554],[-122.757719,57.997572],[-123.006457,57.999804],[-123.253995,57.999675],[-123.503022,57.999551],[-123.752048,57.99943],[-124.001072,57.999314],[-124.251029,57.999451],[-124.500989,57.999587],[-124.750951,57.999724],[-124.948384,57.999876],[-124.939169,57.993844],[-124.926236,57.989271],[-124.919008,57.986248],[-124.924237,57.984333],[-124.934297,57.984713],[-124.949419,57.983877],[-124.964313,57.982058],[-124.982368,57.98143],[-124.993755,57.983493],[-125.005263,57.987397],[-125.010138,57.990557],[-125.020448,57.996044],[-125.034483,58.001888],[-125.059944,58.009614],[-125.079748,58.014417],[-125.09472,58.019108],[-125.097291,58.018948],[-125.118485,58.020506],[-125.145359,58.02369],[-125.157515,58.022309],[-125.172263,58.023756],[-125.203926,58.022362],[-125.216852,58.019445],[-125.227621,58.015894],[-125.237965,58.011953],[-125.25085,58.005423],[-125.32957,57.994606],[-125.386599,57.98872],[-125.410082,57.982522],[-125.424996,57.979867],[-125.451051,57.971568],[-125.463554,57.960714],[-125.477013,57.954741],[-125.491621,57.948927],[-125.488995,57.941197],[-125.49601,57.93514],[-125.504237,57.935964],[-125.525932,57.929502],[-125.536579,57.925424],[-125.563553,57.918221],[-125.593847,57.914258],[-125.604008,57.928773],[-125.608708,57.933029],[-125.619991,57.937053],[-125.640022,57.929525],[-125.653463,57.922227],[-125.662575,57.910568],[-125.664243,57.902786],[-125.657041,57.894924],[-125.661387,57.890456],[-125.674713,57.888377],[-125.679844,57.884181],[-125.686361,57.875272],[-125.690826,57.871802],[-125.69962,57.868276],[-125.718867,57.865377],[-125.736168,57.862043],[-125.747377,57.865554],[-125.756286,57.874475],[-125.766423,57.889782],[-125.769089,57.902752],[-125.766791,57.908165],[-125.789669,57.922603],[-125.78517,57.931316],[-125.791878,57.93911],[-125.797757,57.943517],[-125.797375,57.966052],[-125.807419,57.973975],[-125.823264,57.975],[-125.837479,57.9794],[-125.845725,57.9802],[-125.850732,57.979413],[-125.859835,57.975262],[-125.868029,57.974255],[-125.875925,57.973861],[-125.890498,57.979447],[-125.896957,57.978202],[-125.90811,57.978086],[-125.916414,57.980688],[-125.974756,57.967038],[-125.991448,57.971426],[-126.04411,57.966944],[-126.058254,57.962481],[-126.064789,57.959115],[-126.068962,57.95233],[-126.063553,57.941808],[-126.055752,57.933086],[-126.053977,57.930217],[-126.067161,57.916343],[-126.077962,57.913674],[-126.093626,57.91535],[-126.106744,57.91783],[-126.12445,57.918859],[-126.140113,57.922373],[-126.153833,57.930928],[-126.163182,57.93866],[-126.182928,57.944565],[-126.214199,57.9435],[-126.228767,57.933746],[-126.233759,57.922254],[-126.229703,57.911701],[-126.243523,57.901467],[-126.250263,57.883499],[-126.25742,57.867212],[-126.263157,57.859683],[-126.268731,57.85571],[-126.288968,57.854524],[-126.315953,57.861921],[-126.323263,57.874036],[-126.337934,57.884841],[-126.353881,57.900235],[-126.365494,57.914392],[-126.378009,57.923264],[-126.38527,57.926198],[-126.397801,57.926405],[-126.411337,57.924461],[-126.422197,57.923627],[-126.434776,57.934527],[-126.452389,57.93841],[-126.473975,57.940052],[-126.498239,57.942457],[-126.518052,57.940952],[-126.539852,57.945606],[-126.558571,57.952319],[-126.604143,57.960213],[-126.662925,57.990828],[-126.683231,58.006118],[-126.692275,58.023197],[-126.696707,58.025839],[-126.703075,58.02711],[-126.732234,58.0183],[-126.773034,58.011075],[-126.815914,58.009309],[-126.868027,58.003366],[-126.907566,57.994438],[-126.941816,57.992476],[-126.950959,57.989452],[-126.953961,57.975683],[-126.972028,57.967639],[-126.980047,57.961229],[-126.970145,57.949069],[-126.970612,57.933125],[-126.964122,57.925109],[-126.947556,57.918699],[-126.936882,57.911304],[-126.933556,57.906009],[-126.93456,57.897787],[-126.916011,57.891463],[-126.896973,57.877424],[-126.887976,57.867325],[-126.889036,57.864494],[-126.88483,57.855298],[-126.878622,57.829837],[-126.868638,57.819895],[-126.86371,57.813055],[-126.856523,57.805105],[-126.852503,57.79691],[-126.851437,57.79171],[-126.854087,57.788455],[-126.864557,57.785379],[-126.869173,57.785333],[-126.89932,57.790186],[-126.934028,57.797349],[-126.948095,57.798384],[-126.95911,57.797087],[-126.973206,57.788247],[-126.979738,57.777962],[-126.982852,57.766633],[-126.981286,57.760815],[-126.967439,57.754886],[-126.954004,57.744136],[-126.945525,57.7165],[-126.938111,57.707127],[-126.918211,57.698726],[-126.90227,57.695711],[-126.877088,57.693274],[-126.852533,57.688172],[-126.839613,57.679445],[-126.836681,57.668225],[-126.849504,57.653793],[-126.861023,57.647842],[-126.870149,57.640122],[-126.868324,57.633376],[-126.836529,57.611142],[-126.802315,57.59272],[-126.787324,57.580846],[-126.784317,57.57606],[-126.787591,57.570783],[-126.796157,57.565866],[-126.806424,57.564588],[-126.8369,57.558752],[-126.876649,57.549056],[-126.929246,57.540347],[-126.969808,57.534148],[-126.98799,57.529963],[-127.010631,57.521137],[-127.021867,57.514671],[-127.057064,57.507278],[-127.07567,57.512356],[-127.093098,57.528139],[-127.118962,57.528698],[-127.134555,57.530558],[-127.150165,57.535904],[-127.143295,57.54609],[-127.138228,57.562519],[-127.145269,57.577551],[-127.167879,57.591617],[-127.181424,57.597666],[-127.246765,57.605474],[-127.27193,57.603192],[-127.278234,57.598788],[-127.272499,57.587688],[-127.283443,57.575605],[-127.296135,57.576717],[-127.304847,57.579926],[-127.312876,57.577679],[-127.320655,57.567095],[-127.33421,57.558353],[-127.341906,57.549053],[-127.34308,57.53144],[-127.338187,57.519365],[-127.329388,57.509302],[-127.313101,57.50399],[-127.299677,57.501146],[-127.29342,57.498207],[-127.297201,57.492042],[-127.308172,57.4885],[-127.32089,57.486469],[-127.325105,57.482254],[-127.320538,57.476511],[-127.312879,57.470337],[-127.304983,57.461935],[-127.301549,57.453574],[-127.302922,57.446677],[-127.312465,57.438993],[-127.330399,57.432962],[-127.346277,57.424258],[-127.366961,57.41904],[-127.374284,57.4182],[-127.411208,57.38298],[-127.434863,57.36627],[-127.480291,57.335698],[-127.489116,57.322667],[-127.491255,57.303448],[-127.486599,57.282575],[-127.478622,57.261777],[-127.473369,57.24164],[-127.467289,57.210037],[-127.476478,57.196083],[-127.492527,57.186393],[-127.521555,57.170687],[-127.558304,57.15999],[-127.602395,57.151651],[-127.68434,57.1426],[-127.696975,57.140906],[-127.716525,57.1326],[-127.730368,57.109971],[-127.732973,57.082074],[-127.738432,57.061664],[-127.738217,57.035533],[-127.732888,57.019637],[-127.723025,57.006102],[-127.706446,56.99077],[-127.677114,56.976783],[-127.645578,56.97678],[-127.605875,56.978512],[-127.578774,56.978554],[-127.561193,56.97718],[-127.541096,56.969002],[-127.536335,56.953976],[-127.538617,56.946316],[-127.544807,56.93136],[-127.563594,56.919599],[-127.597497,56.901289],[-127.60505,56.894448],[-127.603826,56.888785],[-127.580681,56.873746],[-127.56401,56.861661],[-127.565442,56.857878],[-127.572262,56.85376],[-127.598213,56.854299],[-127.610835,56.85328],[-127.616332,56.849968],[-127.617766,56.846475],[-127.612057,56.840688],[-127.603371,56.83399],[-127.586126,56.827953],[-127.574567,56.821542],[-127.568471,56.812895],[-127.56661,56.804021],[-127.558982,56.797667],[-127.545456,56.790087],[-127.533498,56.781351],[-127.523334,56.773055],[-127.514704,56.76106],[-127.514025,56.750097],[-127.513149,56.750096],[-127.521936,56.745477],[-127.531613,56.74345],[-127.532757,56.740675],[-127.507545,56.724538],[-127.454185,56.693176],[-127.43235,56.683283],[-127.415875,56.67682],[-127.405403,56.676466],[-127.388696,56.681158],[-127.362306,56.689968],[-127.333111,56.706042],[-127.305022,56.718035],[-127.26925,56.732773],[-127.222304,56.745908],[-127.207542,56.729891],[-127.188058,56.696545],[-127.159965,56.66273],[-127.152669,56.652859],[-127.128882,56.626402],[-127.101094,56.613541],[-127.065908,56.613183],[-127.03793,56.617978],[-126.992902,56.63223],[-126.96785,56.645191],[-126.943085,56.659487],[-126.937511,56.661553],[-126.937147,56.662441],[-126.931131,56.667874],[-126.927699,56.684601],[-126.91707,56.690743],[-126.902294,56.692482],[-126.871863,56.682952],[-126.856701,56.677336],[-126.841016,56.67903],[-126.811506,56.680328],[-126.796743,56.693815],[-126.766123,56.724546],[-126.717242,56.766348],[-126.705391,56.773066],[-126.692705,56.774956],[-126.674856,56.771765],[-126.653425,56.760609],[-126.570948,56.713601],[-126.548234,56.699479],[-126.488332,56.6647],[-126.449218,56.655001],[-126.417689,56.654784],[-126.396498,56.663131],[-126.37836,56.67124],[-126.353037,56.676247],[-126.331528,56.677375],[-126.296152,56.671221],[-126.231287,56.647306],[-126.188961,56.625326],[-126.170429,56.612166],[-126.162188,56.60043],[-126.159655,56.591605],[-126.153503,56.587809],[-126.142583,56.583782],[-126.143046,56.576683],[-126.151925,56.571305],[-126.160833,56.563175],[-126.158555,56.554534],[-126.142251,56.538947],[-126.141944,56.529506],[-126.181167,56.491784],[-126.193102,56.481052],[-126.196508,56.473538],[-126.182475,56.464903],[-126.139986,56.443817],[-126.101891,56.425444],[-126.09331,56.412666],[-126.091071,56.404037],[-126.100381,56.392623],[-126.13332,56.376361],[-126.162418,56.365913],[-126.195855,56.350361],[-126.194766,56.342387],[-126.156786,56.307533],[-126.124704,56.279844],[-126.116341,56.271928],[-126.098432,56.265746],[-126.043236,56.254319],[-126.003267,56.248968],[-126.00163,56.248959],[-125.98064,56.245635],[-125.983415,56.233366],[-125.982929,56.214344],[-125.980085,56.208669],[-125.979362,56.1979],[-125.972649,56.185704],[-125.97074,56.175566],[-125.971747,56.166347],[-125.962927,56.153586],[-125.961991,56.14691],[-125.955519,56.142933],[-125.931992,56.147107],[-125.865658,56.145209],[-125.804069,56.169721],[-125.737637,56.190581],[-125.698832,56.208526],[-125.67314,56.222144],[-125.656646,56.228591],[-125.645534,56.226017],[-125.644832,56.217449],[-125.648395,56.208522],[-125.647322,56.19697],[-125.653207,56.16917],[-125.649943,56.157302],[-125.644377,56.152917],[-125.635198,56.15127],[-125.608506,56.153294],[-125.574807,56.168997],[-125.501744,56.209697],[-125.457706,56.233359],[-125.403792,56.252954],[-125.377882,56.253092],[-125.324648,56.243997],[-125.316464,56.250116],[-125.313758,56.248714],[-125.292185,56.247062],[-125.265913,56.247991],[-125.245482,56.25057],[-125.236077,56.255287],[-125.23445,56.265337],[-125.226427,56.271912],[-125.212232,56.277856],[-125.203071,56.286253],[-125.189046,56.294748],[-125.158299,56.300467],[-125.119114,56.303601],[-125.090526,56.276653],[-125.063679,56.263074],[-125.053508,56.228956],[-125.05601,56.223101],[-125.060284,56.207902],[-125.054724,56.203539],[-125.041672,56.20311],[-125.010394,56.20789],[-124.99871,56.210394],[-124.98556,56.215204],[-124.980935,56.221893],[-124.980199,56.229416],[-124.946725,56.240082],[-124.923525,56.244378],[-124.89466,56.242239],[-124.832871,56.223543],[-124.795218,56.200009],[-124.768864,56.170325],[-124.715482,56.133806],[-124.661035,56.116122],[-124.623576,56.116155],[-124.590224,56.122061],[-124.53215,56.127019],[-124.504265,56.132454],[-124.484016,56.130009],[-124.479061,56.11921],[-124.475434,56.118882],[-124.479108,56.106978],[-124.493219,56.089185],[-124.49765,56.067258],[-124.485075,56.043002],[-124.463792,56.020983],[-124.440704,55.998932],[-124.440065,55.998933],[-124.442233,55.990538],[-124.444275,55.987373],[-124.440524,55.978474],[-124.433579,55.974572],[-124.431308,55.968987],[-124.432603,55.962488],[-124.4316,55.954823],[-124.415544,55.95379],[-124.410659,55.954906],[-124.399145,55.950554],[-124.398803,55.942054],[-124.401251,55.938552],[-124.391713,55.926862],[-124.383439,55.918353],[-124.382041,55.910886],[-124.377025,55.903312],[-124.379171,55.898973],[-124.381446,55.896058],[-124.380777,55.891508],[-124.37927,55.886124],[-124.374043,55.878985],[-124.359827,55.869706],[-124.337563,55.843511],[-124.334662,55.838761],[-124.333634,55.832162],[-124.338123,55.8255],[-124.345015,55.819757],[-124.349864,55.817175],[-124.353132,55.811527],[-124.352199,55.807625],[-124.35538,55.802633],[-124.357371,55.790884],[-124.357285,55.786715],[-124.354203,55.779926],[-124.346872,55.768711],[-124.334574,55.761268],[-124.327801,55.75376],[-124.333227,55.744702],[-124.334873,55.740406],[-124.322292,55.733752],[-124.319528,55.726622],[-124.31622,55.720921],[-124.312738,55.713252],[-124.308351,55.705869],[-124.296945,55.695646],[-124.284069,55.694258],[-124.276745,55.689885],[-124.267169,55.686619],[-124.256038,55.687402],[-124.247906,55.689333],[-124.239884,55.687251],[-124.232079,55.684263],[-124.215801,55.682475],[-124.192309,55.68316],[-124.18762,55.67919],[-124.181706,55.670999],[-124.174266,55.670616],[-124.167452,55.668989],[-124.153101,55.649113],[-124.123029,55.639725],[-124.112872,55.611526],[-124.108554,55.603048],[-124.1055,55.595848],[-124.104375,55.585739],[-124.099972,55.577918],[-124.092647,55.56882],[-124.077029,55.556368],[-124.062563,55.54732],[-124.050371,55.541322],[-124.037495,55.537629],[-124.01856,55.536043],[-124.011852,55.539395],[-124.006682,55.546229],[-124.001203,55.548569],[-123.993625,55.549896],[-123.957734,55.552138],[-123.928396,55.554385]],[[-125.615604,57.423883],[-125.613791,57.42313],[-125.611012,57.424038],[-125.609083,57.424141],[-125.608367,57.423097],[-125.60917,57.421151],[-125.60535,57.419779],[-125.604109,57.417733],[-125.603958,57.416605],[-125.604809,57.416256],[-125.608518,57.417276],[-125.620051,57.41872],[-125.641357,57.423219],[-125.647759,57.423654],[-125.650723,57.424241],[-125.654776,57.4257],[-125.659443,57.42841],[-125.661909,57.429435],[-125.665238,57.429931],[-125.669669,57.430081],[-125.673715,57.429728],[-125.638849,57.434967],[-125.619419,57.435846],[-125.615683,57.433918],[-125.614547,57.43272],[-125.614326,57.431175],[-125.616844,57.42637],[-125.615604,57.423883]],[[-124.888305,56.795023],[-124.887305,56.79404],[-124.881834,56.790728],[-124.880135,56.788741],[-124.884091,56.786932],[-124.90526,56.787173],[-124.915993,56.78627],[-124.92571,56.783077],[-124.929898,56.788624],[-124.927825,56.796515],[-124.923742,56.804385],[-124.915782,56.808879],[-124.908333,56.811947],[-124.907197,56.810731],[-124.904786,56.81004],[-124.903002,56.808755],[-124.899807,56.808085],[-124.896422,56.808532],[-124.895404,56.808151],[-124.894032,56.808235],[-124.894374,56.80628],[-124.897049,56.804731],[-124.897412,56.803466],[-124.895456,56.802363],[-124.894476,56.800484],[-124.890625,56.797827],[-124.889062,56.796386],[-124.888305,56.795023]],[[-124.955697,56.924665],[-124.951589,56.91551],[-124.951448,56.912808],[-124.950391,56.910847],[-124.952848,56.908204],[-124.957281,56.899651],[-124.957293,56.892966],[-124.960895,56.88936],[-124.962243,56.885969],[-124.971759,56.878369],[-124.973496,56.877731],[-124.975167,56.878603],[-124.975394,56.879795],[-124.977205,56.881105],[-124.97999,56.881636],[-124.984267,56.881829],[-124.984224,56.888314],[-124.980692,56.890516],[-124.988771,56.890267],[-124.988435,56.890776],[-124.991382,56.891565],[-124.991671,56.892351],[-124.993392,56.89232],[-124.993784,56.917189],[-124.973687,56.918975],[-124.975181,56.923436],[-124.956078,56.925324],[-124.955697,56.924665]],[[-125.445827,56.378721],[-125.409634,56.373214],[-125.388856,56.356424],[-125.390771,56.356016],[-125.391514,56.35437],[-125.389636,56.352096],[-125.387013,56.3508],[-125.391943,56.350782],[-125.392536,56.351251],[-125.393326,56.351305],[-125.393022,56.350532],[-125.393443,56.350339],[-125.397579,56.35149],[-125.400943,56.353762],[-125.400415,56.355919],[-125.401007,56.356844],[-125.40495,56.356471],[-125.40686,56.356711],[-125.40985,56.359745],[-125.414216,56.362213],[-125.415581,56.362006],[-125.4162,56.361581],[-125.416069,56.360532],[-125.416551,56.360199],[-125.419873,56.361257],[-125.421152,56.362032],[-125.421763,56.364024],[-125.423221,56.365821],[-125.426584,56.366752],[-125.430301,56.368927],[-125.432895,56.369234],[-125.435254,56.369126],[-125.442273,56.367739],[-125.444151,56.366964],[-125.444754,56.367015],[-125.445806,56.368028],[-125.448637,56.369267],[-125.451309,56.369744],[-125.453072,56.369206],[-125.445827,56.378721]]]},"properties":{"id":"59550251","boundaryCode":"59550251","boundaryName":"DA 59550251","boundarySource":"census","boundaryLevel":"bcDaSimplified","boundaryDetail":"medium","DAUID":"59550251","DGUID":"2021S051259550251","PRUID":"59","CDUID":"5955","CDNAME":"Peace River","CDTYPE":"RD","CSDUID":"5955040","CSDNAME":"Peace River B","CSDTYPE":"RDA","CTUID":null,"CTNAME":null,"parentCdId":"5955","parentCdName":"Peace River","parentCsdId":"5955040","parentCsdName":"Peace River B","parentCtId":null,"parentCtName":null,"LANDAREA":57062.9978,"areaKm2":58684.21688568288},"id":57683},{"type":"Feature","geometry":{"type":"Polygon","coordinates":[[[-125.445827,56.378721],[-125.453072,56.369206],[-125.451309,56.369744],[-125.448637,56.369267],[-125.445806,56.368028],[-125.444754,56.367015],[-125.444151,56.366964],[-125.442273,56.367739],[-125.435254,56.369126],[-125.432895,56.369234],[-125.430301,56.368927],[-125.426584,56.366752],[-125.423221,56.365821],[-125.421763,56.364024],[-125.421152,56.362032],[-125.419873,56.361257],[-125.416551,56.360199],[-125.416069,56.360532],[-125.4162,56.361581],[-125.415581,56.362006],[-125.414216,56.362213],[-125.40985,56.359745],[-125.40686,56.356711],[-125.40495,56.356471],[-125.401007,56.356844],[-125.400415,56.355919],[-125.400943,56.353762],[-125.397579,56.35149],[-125.393443,56.350339],[-125.393022,56.350532],[-125.393326,56.351305],[-125.392536,56.351251],[-125.391943,56.350782],[-125.387013,56.3508],[-125.389636,56.352096],[-125.391514,56.35437],[-125.390771,56.356016],[-125.388856,56.356424],[-125.409634,56.373214],[-125.445827,56.378721]]]},"properties":{"id":"59550252","boundaryCode":"59550252","boundaryName":"DA 59550252","boundarySource":"census","boundaryLevel":"bcDaSimplified","boundaryDetail":"medium","DAUID":"59550252","DGUID":"2021S051259550252","PRUID":"59","CDUID":"5955","CDNAME":"Peace River","CDTYPE":"RD","CSDUID":"5955850","CSDNAME":"Mesilinka 7","CSDTYPE":"IRI","CTUID":null,"CTNAME":null,"parentCdId":"5955","parentCdName":"Peace River","parentCsdId":"5955850","parentCsdName":"Mesilinka 7","parentCtId":null,"parentCtName":null,"LANDAREA":4.2687,"areaKm2":4.341203497719333},"id":57684}]}