{"type":"FeatureCollection","features":[{"type":"Feature","geometry":{"type":"Point","coordinates":[-126.066667,49.283333]},"properties":{"name":"Ahousaht First Nation","other_names":"Ahousat,Ahousaht"}},{"type":"Feature","geometry":{"type":"Point","coordinates":[-121.997999,49.147883]},"properties":{"name":"Aitchelitz First Nation","other_names":"Aitchelitz First Nation"}},{"type":"Feature","geometry":{"type":"Point","coordinates":[-115.96332089999996,50.4580581]},"properties":{"name":"ʔakisq̓nuk (Akisqnuk First Nation)","other_names":"Columbia Lake,Akisqnuk First Nation"}},{"type":"Feature","geometry":{"type":"Point","coordinates":[-127.691748,55.35075]},"properties":{"name":"Anspayaxw","other_names":"Kispiox Band Council,Anspa yaxw (Kispiox)"}},{"type":"Feature","geometry":{"type":"Point","coordinates":[-115.758794,49.568002]},"properties":{"name":"ʔaq̓am (St. Mary’s Indian Band)","other_names":"St. Mary's Indian Band"}},{"type":"Feature","geometry":{"type":"Point","coordinates":[-121.322376,50.72043]},"properties":{"name":"Ashcroft Indian Band","other_names":""}},{"type":"Feature","geometry":{"type":"Point","coordinates":[-124.45452421087953,54.545942111895215]},"properties":{"name":"Binche Whut'en","other_names":""}},{"type":"Feature","geometry":{"type":"Point","coordinates":[-121.139179,56.762252]},"properties":{"name":"Blueberry River First Nations","other_names":"Blueberry River Indian Band"}},{"type":"Feature","geometry":{"type":"Point","coordinates":[-123.458092,48.627842]},"properties":{"name":"BOḰEĆEN (Pauquachin)","other_names":"Pauquachin First Nation"}},{"type":"Feature","geometry":{"type":"Point","coordinates":[-121.485035,49.963092]},"properties":{"name":"Boothroyd Band","other_names":"Boothroyd Band"}},{"type":"Feature","geometry":{"type":"Point","coordinates":[-121.45235,49.877864]},"properties":{"name":"Boston Bar First Nation","other_names":"Boston Bar First Nation"}},{"type":"Feature","geometry":{"type":"Point","coordinates":[-135.0588737,60.721674]},"properties":{"name":"Champagne and Aishihik First Nations (CAFN)","other_names":""}},{"type":"Feature","geometry":{"type":"Point","coordinates":[-121.442475,49.382993]},"properties":{"name":"Chawathil First Nation","other_names":"Chawathil First Nation"}},{"type":"Feature","geometry":{"type":"Point","coordinates":[-121.753566,49.189934]},"properties":{"name":"Cheam First Nation","other_names":""}},{"type":"Feature","geometry":{"type":"Point","coordinates":[-125.771431,54.018417]},"properties":{"name":"Cheslatta Carrier Nation","other_names":""}},{"type":"Feature","geometry":{"type":"Point","coordinates":[-120.783954,50.109014]},"properties":{"name":"Coldwater Indian Band","other_names":"nc̓́əł́etkʷu (cold water),Coldwater"}},{"type":"Feature","geometry":{"type":"Point","coordinates":[-121.474551,50.435748]},"properties":{"name":"Cook’s Ferry Indian Band","other_names":"Cook's Ferry Indian Band"}},{"type":"Feature","geometry":{"type":"Point","coordinates":[-123.712194,48.772671]},"properties":{"name":"Cowichan Tribes","other_names":""}},{"type":"Feature","geometry":{"type":"Point","coordinates":[-126.939437,50.59691]},"properties":{"name":"Da’naxda’xw First Nation","other_names":"Da̱'naxda̱'xw,A̱waetla̱la̱"}},{"type":"Feature","geometry":{"type":"Point","coordinates":[-128.486391,59.923837]},"properties":{"name":"Daylu Dena Council","other_names":""}},{"type":"Feature","geometry":{"type":"Point","coordinates":[-130.00821875127068,58.443652512792426]},"properties":{"name":"Dease Lake (Tahltan Nation)","other_names":""}},{"type":"Feature","geometry":{"type":"Point","coordinates":[-129.29178539999998,59.2953873]},"properties":{"name":"Dease River First Nation","other_names":"Dease River First Nation"}},{"type":"Feature","geometry":{"type":"Point","coordinates":[-124.669873,48.809223]},"properties":{"name":"Ditidaht First Nation","other_names":",Ditidaht,Nitinat ~ Nitinaht,Ditidaht-Pacheedaht"}},{"type":"Feature","geometry":{"type":"Point","coordinates":[-120.794702,56.4926]},"properties":{"name":"Doig River First Nation","other_names":"Doig River First Nation"}},{"type":"Feature","geometry":{"type":"Point","coordinates":[-126.182678,50.977258]},"properties":{"name":"Dzawada’enuxw First Nation","other_names":"Tsawataineuk First Nation,Tsadzis'nukwa̱me',Tsawataineuk,Dzawada̱ʼenux̱w"}},{"type":"Feature","geometry":{"type":"Point","coordinates":[-126.859345,49.984998]},"properties":{"name":"Ehattesaht Chinehkint","other_names":"Ehattesaht First Nation,Ehattesaht Tribe,ʔiiḥatis"}},{"type":"Feature","geometry":{"type":"Point","coordinates":[-122.496132,52.685657]},"properties":{"name":"ʔEsdilagh","other_names":"Alexandria Indian Band,Esdilagh"}},{"type":"Feature","geometry":{"type":"Point","coordinates":[-122.2708634,51.822973]},"properties":{"name":"Esk’etemc First Nation","other_names":"Alkali Lake Indian Band,Esketemc"}},{"type":"Feature","geometry":{"type":"Point","coordinates":[-122.663214,58.775837]},"properties":{"name":"Fort Nelson First Nation","other_names":"Fort Nelson Slavey Band,Fort Nelson Indian Band"}},{"type":"Feature","geometry":{"type":"Point","coordinates":[-129.95486,54.994657]},"properties":{"name":"Gingolx Village Government","other_names":"Kincolith (Gingolx) Village Government"}},{"type":"Feature","geometry":{"type":"Point","coordinates":[-127.674802,55.256489]},"properties":{"name":"Gitanmaax","other_names":"Gitanmaax Band,Gitanmaax Band Council"}},{"type":"Feature","geometry":{"type":"Point","coordinates":[-128.06436181662235,55.26549715441192]},"properties":{"name":"Gitanyow","other_names":"Kitwancool,Gitanyow Band Council"}},{"type":"Feature","geometry":{"type":"Point","coordinates":[-129.25351,53.423919]},"properties":{"name":"Gitga’at Nation","other_names":"Hartley Bay Village Council,Hartley Bay Band,Gitga'at Nation"}},{"type":"Feature","geometry":{"type":"Point","coordinates":[-129.07833,55.20578]},"properties":{"name":"Gitlaxt’aamiks Village Government","other_names":"Gitlaxt’aamiks,Gitlakdamiks,Gitlardamiks,Kitlakdamix,New Aiyansh Village,New Aiyansh,Gitlaxt'aamiks Village Government (formerly New Aiyansh),Gitlaxt'aamiks Village Government (formerly New Aiyansh)"}},{"type":"Feature","geometry":{"type":"Point","coordinates":[-127.82947673391773,55.08767995495301]},"properties":{"name":"Gitsegukla","other_names":"Gitsegukla Band,Gitsegukla Band Council"}},{"type":"Feature","geometry":{"type":"Point","coordinates":[-128.067759,55.09952]},"properties":{"name":"Gitwangak","other_names":"Gitwangax̱,Gitwangak Band Council"}},{"type":"Feature","geometry":{"type":"Point","coordinates":[-130.433219,53.79448]},"properties":{"name":"Gitxaala Nation","other_names":"Kitkatla Band"}},{"type":"Feature","geometry":{"type":"Point","coordinates":[-127.496759,50.734148]},"properties":{"name":"Gwa’sala-’Nakwaxda’xw Nations","other_names":",Gwa'sala-'Nakwaxda'xw First Nation"}},{"type":"Feature","geometry":{"type":"Point","coordinates":[-127.376158,50.682539]},"properties":{"name":"Gwawaʼenux̱w","other_names":"Gwawaenuk Tribe"}},{"type":"Feature","geometry":{"type":"Point","coordinates":[-127.591578,55.247553]},"properties":{"name":"Hagwilget Village Council","other_names":"Hagwilget Village Council,Tse-kya,Hagwilget Village"}},{"type":"Feature","geometry":{"type":"Point","coordinates":[-128.647123,53.974585]},"properties":{"name":"Haisla Nation","other_names":"Kitamaat Village Council,Haisla"}},{"type":"Feature","geometry":{"type":"Point","coordinates":[-123.696533,48.875036]},"properties":{"name":"Halalt First Nation","other_names":"Halalt First Nation"}},{"type":"Feature","geometry":{"type":"Point","coordinates":[-121.808989,56.730259]},"properties":{"name":"Halfway River First Nation","other_names":""}},{"type":"Feature","geometry":{"type":"Point","coordinates":[-128.145551,52.160363]},"properties":{"name":"Heiltsuk Nation (Bella Bella)","other_names":"Heiltsuk Band,Heiltsuk Nation"}},{"type":"Feature","geometry":{"type":"Point","coordinates":[-126.272027,49.368206]},"properties":{"name":"Hesquiaht First Nation","other_names":"ḥiškʷi,Hesquiaht"}},{"type":"Feature","geometry":{"type":"Point","coordinates":[-125.243551,49.951572]},"properties":{"name":"Homalco First Nation","other_names":""}},{"type":"Feature","geometry":{"type":"Point","coordinates":[-124.825175,49.265582]},"properties":{"name":"Hupacasath First Nation","other_names":"Opetchesaht,Hupacasath"}},{"type":"Feature","geometry":{"type":"Point","coordinates":[-125.142608,48.833366]},"properties":{"name":"Huu-ay-aht First Nation","other_names":"Ohiaht,huʕiʔatḥ,Huu-ay-aht"}},{"type":"Feature","geometry":{"type":"Point","coordinates":[-129.983333,57.833333]},"properties":{"name":"Iskut Nation (Tahltan Nation)","other_names":"Iskut First Nation"}},{"type":"Feature","geometry":{"type":"Point","coordinates":[-121.581413,50.233253]},"properties":{"name":"Kanaka Bar Indian Band","other_names":"Kanaka Bar Indian Band"}},{"type":"Feature","geometry":{"type":"Point","coordinates":[-122.677769,49.202096]},"properties":{"name":"Katzie First Nation","other_names":"Katzie First Nation"}},{"type":"Feature","geometry":{"type":"Point","coordinates":[-127.34913,50.069314]},"properties":{"name":"Ka:’yu:’k’t’h’/Che:k:tles7et’h’ First Nation","other_names":"Kyuquot,Checleseht,Chickliset,Checlesaht,Cheklesahht,Ka:'yu:'k't'h' / Che:k:tles7et'h'"}},{"type":"Feature","geometry":{"type":"Point","coordinates":[-116.028423,50.504375]},"properties":{"name":"Kenpésq’t (Shuswap Indian Band)","other_names":"Shuswap Indian Band,Kenpesq't (Shuswap)"}},{"type":"Feature","geometry":{"type":"Point","coordinates":[-128.5200916712107,52.587568617803626]},"properties":{"name":"Kitasoo / Xai’xais (Klemtu)","other_names":"Kitasoo Band Council,Kitasoo Indian Band,Kitasoo/Xaixais Nation,Kitasoo/Xai'xais,Kitasoo/Xai'xais Nation"}},{"type":"Feature","geometry":{"type":"Point","coordinates":[-128.411968,54.607542]},"properties":{"name":"Kitselas First Nation","other_names":"Gitselasu"}},{"type":"Feature","geometry":{"type":"Point","coordinates":[-128.588081,54.517637]},"properties":{"name":"Kitsumkalum","other_names":"Kitsumkalum Band Council"}},{"type":"Feature","geometry":{"type":"Point","coordinates":[-124.916667,50.116667]},"properties":{"name":"Klahoose First Nation","other_names":""}},{"type":"Feature","geometry":{"type":"Point","coordinates":[-124.991313,49.692481]},"properties":{"name":"K’omoks First Nation","other_names":"Comox First Nation,Komox Nation,K'ómoks First Nation"}},{"type":"Feature","geometry":{"type":"Point","coordinates":[-125.63588479999996,57.4230728]},"properties":{"name":"Kwadacha Nation","other_names":"Fort Ware Indian Band,Kwadacha Natoin,Kwadacha"}},{"type":"Feature","geometry":{"type":"Point","coordinates":[-127.407601,50.694847]},"properties":{"name":"Kwakiutl Band Council","other_names":"Kwakiutl Band Council"}},{"type":"Feature","geometry":{"type":"Point","coordinates":[-122.585946,49.162674]},"properties":{"name":"Kwantlen First Nation","other_names":"Kwantlen First Nation"}},{"type":"Feature","geometry":{"type":"Point","coordinates":[-121.950135,49.171767]},"properties":{"name":"Kwaw-kwaw-apilt First Nation","other_names":"Kwaw-kwaw-apilt First Nation"}},{"type":"Feature","geometry":{"type":"Point","coordinates":[-125.254285,50.030677]},"properties":{"name":"Kwiakah First Nation","other_names":"Kwiakah First Nation"}},{"type":"Feature","geometry":{"type":"Point","coordinates":[-126.600309,50.695955]},"properties":{"name":"Kwikwasut’inuxw Haxwa’mis","other_names":"Kwicksutaineuk-ah-kwaw-ah-mish,Ak-Kwa-Mish,Kwicksutaineuk/Ak-Kwa-Mish,Ḵwikwa̱sutinux̱,Ha̱'xwa-mis,Ḵwikwa̱sutinux̱  / Ha̱'xwa-mis"}},{"type":"Feature","geometry":{"type":"Point","coordinates":[-122.80658,49.243879]},"properties":{"name":"Kwikwetlem First Nation","other_names":"Kwikwetlem First Nation"}},{"type":"Feature","geometry":{"type":"Point","coordinates":[-125.758363,54.238409]},"properties":{"name":"Lake Babine Nation","other_names":"Lake Babine Nation"}},{"type":"Feature","geometry":{"type":"Point","coordinates":[-125.246662,49.950523]},"properties":{"name":"Ławitʼsis (Tlowitsis) Nation","other_names":"Tlowitsis Tribe,Lawitsis,Ławitʼsis (Tlowitsis)"}},{"type":"Feature","geometry":{"type":"Point","coordinates":[-129.58121,55.032217]},"properties":{"name":"Laxgalts’ap Village Government","other_names":"Laxgalts'ap Village Government"}},{"type":"Feature","geometry":{"type":"Point","coordinates":[-130.431908,54.550636]},"properties":{"name":"Lax Kw’alaams Band","other_names":"Lax Kw'alaams Band"}},{"type":"Feature","geometry":{"type":"Point","coordinates":[-122.028914,49.204394]},"properties":{"name":"Leq’a:mel First Nation","other_names":"Lakahahmen First Nation,Leq'á:mel First Nation"}},{"type":"Feature","geometry":{"type":"Point","coordinates":[-122.622734,54.003664]},"properties":{"name":"Lheidli-T’enneh First Nation","other_names":"Lheidli T'enneh Band,Lheidli T'enneh First Nation"}},{"type":"Feature","geometry":{"type":"Point","coordinates":[-122.511102,52.973361]},"properties":{"name":"Lhoosk’uz Dene Nation","other_names":"Kluskus First Nation,Lhoosk'us Dene Nation,Lhoosk'uz Dene Nation"}},{"type":"Feature","geometry":{"type":"Point","coordinates":[-122.4511,52.954897]},"properties":{"name":"Lhtako Dene Nation","other_names":"Red Bluff Band"}},{"type":"Feature","geometry":{"type":"Point","coordinates":[-128.703116,60.065433]},"properties":{"name":"Liard First Nation","other_names":""}},{"type":"Feature","geometry":{"type":"Point","coordinates":[-122.721341,50.318251]},"properties":{"name":"Líl’wat Nation","other_names":"Mount Currie Band,Lil’wat7ul,Lil'wat Nation"}},{"type":"Feature","geometry":{"type":"Point","coordinates":[-121.586667,51.091389]},"properties":{"name":"Llenllenéy’ten (High Bar First Nation)","other_names":"High Bar First Nation,Llenlleney'ten (High Bar),Llenlleney'ten (High Bar First Nation)"}},{"type":"Feature","geometry":{"type":"Point","coordinates":[-120.813389,50.118515]},"properties":{"name":"Lower Nicola Indian Band","other_names":""}},{"type":"Feature","geometry":{"type":"Point","coordinates":[-119.826151,49.205055]},"properties":{"name":"Lower Similkameen Indian Band","other_names":"Lower Similkameen Indian Band"}},{"type":"Feature","geometry":{"type":"Point","coordinates":[-123.69494,48.874814]},"properties":{"name":"Lyackson First Nation","other_names":"Lyackson First Nation"}},{"type":"Feature","geometry":{"type":"Point","coordinates":[-121.577486,50.237468]},"properties":{"name":"Lytton First Nation","other_names":"Lytton First Nation"}},{"type":"Feature","geometry":{"type":"Point","coordinates":[-123.546451,48.637369]},"properties":{"name":"MÁLEXEȽ (Malahat First Nation)","other_names":"Malahat First Nation,Malahat Indian Band,MÁLEXEȽ (Malahat)"}},{"type":"Feature","geometry":{"type":"Point","coordinates":[-125.253724,50.030629]},"properties":{"name":"Mamalilikulla First Nation","other_names":"Mama̱liliḵa̱la"}},{"type":"Feature","geometry":{"type":"Point","coordinates":[-122.294187,49.110683]},"properties":{"name":"Matsqui First Nation","other_names":"Matsqui First Nation"}},{"type":"Feature","geometry":{"type":"Point","coordinates":[-123.043873,54.993075]},"properties":{"name":"McLeod Lake Indian Band","other_names":"McLeod Lake Indian Band,McLeod Lake"}},{"type":"Feature","geometry":{"type":"Point","coordinates":[-130.444669,54.337324]},"properties":{"name":"Metlakatla First Nation","other_names":"Metlakahtla,Metlakatla Band Council"}},{"type":"Feature","geometry":{"type":"Point","coordinates":[-126.049235,49.778232]},"properties":{"name":"Mowachaht/Muchalaht First Nations","other_names":"Nootka Band (Mowachaht),Mowachaht,Muchalaht,Mowachaht / Muchalaht First Nations"}},{"type":"Feature","geometry":{"type":"Point","coordinates":[-124.552796,54.061971]},"properties":{"name":"Nadleh Whut’en First Nation","other_names":"Fraser Lake Indian Band,Nadleh Whut'en"}},{"type":"Feature","geometry":{"type":"Point","coordinates":[-124.255661,54.438839]},"properties":{"name":"Nak’azdli Whut’en","other_names":"Nak'azdli First Nation,Nak'azdli Whut'en,Necoslie,Necausley,Nak'azdli Band"}},{"type":"Feature","geometry":{"type":"Point","coordinates":[-126.916397,50.58266]},"properties":{"name":"ʼNa̱mǥis First Nation","other_names":"Nimpkish"}},{"type":"Feature","geometry":{"type":"Point","coordinates":[-122.493297,52.977637]},"properties":{"name":"Nazko First Nation","other_names":"Nazko Indian Band"}},{"type":"Feature","geometry":{"type":"Point","coordinates":[-125.67,53.93]},"properties":{"name":"Nee-Tahi-Buhn Indian Band","other_names":"Nee-Tahi-Buhn Indian Band"}},{"type":"Feature","geometry":{"type":"Point","coordinates":[-121.577,50.225]},"properties":{"name":"Nicomen Indian Band","other_names":"Nicomen Indian Band"}},{"type":"Feature","geometry":{"type":"Point","coordinates":[-129.221334,55.191753]},"properties":{"name":"Nisga’a Village of Gitwinksihlkw","other_names":"Nisg̱a'a Village Of Gitwinksihlkw,Nisga'a Village of Gitwinksihlkw"}},{"type":"Feature","geometry":{"type":"Point","coordinates":[-120.793075,50.126034]},"properties":{"name":"Nooaitch Indian Band","other_names":",Nooaitch"}},{"type":"Feature","geometry":{"type":"Point","coordinates":[-122.478883,50.553902]},"properties":{"name":"N’Quatqua First Nations","other_names":"N'Quatqua First Nations,N'quatqua First Nation,Nequatque First Nation,Anderson Lake Indian Band,N'Quatqua"}},{"type":"Feature","geometry":{"type":"Point","coordinates":[-127.378224,50.030571]},"properties":{"name":"Nuchatlaht First Nation","other_names":"nuča-łʔtḥ,Oclucje"}},{"type":"Feature","geometry":{"type":"Point","coordinates":[-126.748767,52.551529]},"properties":{"name":"Nuxalk Nation","other_names":"Bella Coola Indian Band,Nuxalk Nation"}},{"type":"Feature","geometry":{"type":"Point","coordinates":[-119.345779,50.261402]},"properties":{"name":"Okanagan Indian Band","other_names":"Okanagan Indian Band"}},{"type":"Feature","geometry":{"type":"Point","coordinates":[-132.125,54.027222]},"properties":{"name":"Old Massett Village Council","other_names":"Old Massett Band,Old Masset Village Council"}},{"type":"Feature","geometry":{"type":"Point","coordinates":[-121.28,50.7259]},"properties":{"name":"Oregon Jack Creek Band","other_names":"Oregon Jack Creek Band"}},{"type":"Feature","geometry":{"type":"Point","coordinates":[-119.550249,49.173898]},"properties":{"name":"Osoyoos Indian Band","other_names":"Osoyoos Indian Band"}},{"type":"Feature","geometry":{"type":"Point","coordinates":[-124.422299,48.552966]},"properties":{"name":"Pacheedaht First Nation","other_names":",Pacheedaht First Nation"}},{"type":"Feature","geometry":{"type":"Point","coordinates":[-120.251652,50.966485]},"properties":{"name":"Pelltíq’t (Whispering Pines / Clinton)","other_names":"Whispering Pines / Clinton Indian Band,Clinton Band,Pellt'iq't (Whispering Pines/Clinton),Pellt'iq't (Whispering Pines/Clinton Band)"}},{"type":"Feature","geometry":{"type":"Point","coordinates":[-123.717128,48.922331]},"properties":{"name":"Penelakut Tribe","other_names":"Penelakut Tribe"}},{"type":"Feature","geometry":{"type":"Point","coordinates":[-119.599229,49.452805]},"properties":{"name":"Penticton Indian Band","other_names":"Pentiction Indian Band"}},{"type":"Feature","geometry":{"type":"Point","coordinates":[-121.658092,49.299746]},"properties":{"name":"Peters First Nation","other_names":"Peters Band"}},{"type":"Feature","geometry":{"type":"Point","coordinates":[-121.959983,49.134135]},"properties":{"name":"Popkum First Nation","other_names":"Popkum First Nation"}},{"type":"Feature","geometry":{"type":"Point","coordinates":[-122.713265,58.109949]},"properties":{"name":"Prophet River First Nation","other_names":""}},{"type":"Feature","geometry":{"type":"Point","coordinates":[-123.02457,49.236492]},"properties":{"name":"Qayqayt First Nation","other_names":"New Westminster First Nation"}},{"type":"Feature","geometry":{"type":"Point","coordinates":[-124.615836,49.393913]},"properties":{"name":"Qualicum First Nation","other_names":"Qualicum First Nation"}},{"type":"Feature","geometry":{"type":"Point","coordinates":[-127.582293,50.59979]},"properties":{"name":"Quatsino First Nation","other_names":"Quatsino First Nation,G̱usgimukw"}},{"type":"Feature","geometry":{"type":"Point","coordinates":[-124.010533,54.01451]},"properties":{"name":"Saik’uz First Nation","other_names":"Stoney Creek,Saik'uz First Nation"}},{"type":"Feature","geometry":{"type":"Point","coordinates":[-122.53926289370848,50.052209553691206]},"properties":{"name":"Samahquam Nation","other_names":"Samakwa Band"}},{"type":"Feature","geometry":{"type":"Point","coordinates":[-121.65212085397664,55.85266813686347]},"properties":{"name":"Saulteau First Nations","other_names":""}},{"type":"Feature","geometry":{"type":"Point","coordinates":[-123.416143,48.594972]},"properties":{"name":"SȾÁUTW̱ (Tsawout)","other_names":"Tsawout First Nation,SȾÁUTW̱ (Tsawout)"}},{"type":"Feature","geometry":{"type":"Point","coordinates":[-123.603283,48.341991]},"properties":{"name":"Scia’new (Beecher Bay)","other_names":"Beecher Bay First Nations,Scia'new (Beecher Bay)"}},{"type":"Feature","geometry":{"type":"Point","coordinates":[-121.73030801533025,49.25526162639659]},"properties":{"name":"Seabird Island Band","other_names":"Seabird Island Band,Seabird Island Indian Band"}},{"type":"Feature","geometry":{"type":"Point","coordinates":[-121.934096,50.674308]},"properties":{"name":"Sekw’el’was (Cayoose Creek Band)","other_names":"Cayoose Creek Band,Sekw’el’wás (Cayoose Creek)"}},{"type":"Feature","geometry":{"type":"Point","coordinates":[-122.77069,49.010614]},"properties":{"name":"SEMYOME (Semiahmoo)","other_names":"Semiahmoo First Nation"}},{"type":"Feature","geometry":{"type":"Point","coordinates":[-119.704671,50.829225]},"properties":{"name":"Sexqeltqín (Adams Lake Indian Band)","other_names":"Adams Lake Indian Band,Sexqeltqín (Adams Lake)"}},{"type":"Feature","geometry":{"type":"Point","coordinates":[-120.779685,50.10926]},"properties":{"name":"Shackan Indian Band","other_names":",Shackan"}},{"type":"Feature","geometry":{"type":"Point","coordinates":[-123.756889,49.474004]},"properties":{"name":"shíshálh Nation","other_names":"Sechelt Indian Nation,Sechelt Indian Band"}},{"type":"Feature","geometry":{"type":"Point","coordinates":[-121.990644,49.177721]},"properties":{"name":"Shxwhá:y Village","other_names":"Skway First Nation"}},{"type":"Feature","geometry":{"type":"Point","coordinates":[-121.606668,49.342992]},"properties":{"name":"Shxw’owhamel First Nation","other_names":"Shxw'owhamel First Nation"}},{"type":"Feature","geometry":{"type":"Point","coordinates":[-127.674549,55.312394]},"properties":{"name":"Sik-e-Dakh","other_names":"Glen Vowell Band,Sik-adox,Sik-e-dakh,Sik-edakh (Glen Vowell)"}},{"type":"Feature","geometry":{"type":"Point","coordinates":[-120.139405,51.186928]},"properties":{"name":"Simpcw First Nation","other_names":"North Thompson Indian Band,Simpcw"}},{"type":"Feature","geometry":{"type":"Point","coordinates":[-121.581692,50.233375]},"properties":{"name":"Siska Indian Band","other_names":"Siska Indian Band"}},{"type":"Feature","geometry":{"type":"Point","coordinates":[-122.409089,49.937605]},"properties":{"name":"Skatin Nations","other_names":"Skatin Nations Council,Skookumchuck"}},{"type":"Feature","geometry":{"type":"Point","coordinates":[-119.716902,50.773478]},"properties":{"name":"Sk’atsin (Neskonlith Indian Band)","other_names":"Neskonlith Indian Band,Neskonlith"}},{"type":"Feature","geometry":{"type":"Point","coordinates":[-120.847624,50.751563]},"properties":{"name":"Skeetchestn First Nation","other_names":"Skeetchestn Indian Band,Skeetchestn"}},{"type":"Feature","geometry":{"type":"Point","coordinates":[-132.011618,53.248159]},"properties":{"name":"Skidegate Band Council","other_names":"Skidegate Band Council"}},{"type":"Feature","geometry":{"type":"Point","coordinates":[-125.766667,54.016667]},"properties":{"name":"Skin Tyee Nation","other_names":"Skin Tyee Nation"}},{"type":"Feature","geometry":{"type":"Point","coordinates":[-122.003911,49.120906]},"properties":{"name":"Skowkale First Nation","other_names":"Skowkale First Nation"}},{"type":"Feature","geometry":{"type":"Point","coordinates":[-121.572379,50.187677]},"properties":{"name":"Skuppah Indian Band","other_names":"Skuppah Indian Band"}},{"type":"Feature","geometry":{"type":"Point","coordinates":[-121.972313,49.177881]},"properties":{"name":"Skwah First Nation","other_names":"Skwah First Nation"}},{"type":"Feature","geometry":{"type":"Point","coordinates":[-119.694672,50.817125]},"properties":{"name":"Skwlax (Little Shuswap Lake)","other_names":"Little Shuswap Indian Band,Squilax,Skwlax (Little Shuswap),Skwlax (Little Shuswap Lake Indian Band)"}},{"type":"Feature","geometry":{"type":"Point","coordinates":[-124.086704,49.246277]},"properties":{"name":"Snaw-naw-as First Nation","other_names":"Nanoose First Nation,Snaw-Naw-As First Nation"}},{"type":"Feature","geometry":{"type":"Point","coordinates":[-123.929869,49.15158]},"properties":{"name":"Snuneymuxw First Nation","other_names":"Snuneymuxw First Nation"}},{"type":"Feature","geometry":{"type":"Point","coordinates":[-123.426264,48.44728]},"properties":{"name":"Songhees Nation","other_names":"Songhees First Nation,Songish,Lekwungen"}},{"type":"Feature","geometry":{"type":"Point","coordinates":[-121.964248,49.079689]},"properties":{"name":"Soowahlie Indian Band","other_names":"Soowahlie Indian Band"}},{"type":"Feature","geometry":{"type":"Point","coordinates":[-119.138466,50.551313]},"properties":{"name":"Splatsin First Nation","other_names":"Spallumcheen Indian Band,Splats'in"}},{"type":"Feature","geometry":{"type":"Point","coordinates":[-121.41257012077227,49.66139986365309]},"properties":{"name":"Spuzzum First Nation","other_names":"Spuzzum First Nation"}},{"type":"Feature","geometry":{"type":"Point","coordinates":[-121.42608,49.56221]},"properties":{"name":"Sq’ewá:lxw (Skawahlook First Nation)","other_names":"Sq’ewá:lxw (Skawahlook First Nation)"}},{"type":"Feature","geometry":{"type":"Point","coordinates":[-122.027044,49.264792]},"properties":{"name":"Sq'éwlets (Scowlitz First Nation)","other_names":"Sq'éwlets (Scowlitz First Nation)"}},{"type":"Feature","geometry":{"type":"Point","coordinates":[-123.078383,49.311924]},"properties":{"name":"Squamish Nation","other_names":"Squamish Band"}},{"type":"Feature","geometry":{"type":"Point","coordinates":[-121.980951,49.158324]},"properties":{"name":"Squiala First Nation","other_names":"Squiala First Nation"}},{"type":"Feature","geometry":{"type":"Point","coordinates":[-124.849555,54.05623]},"properties":{"name":"Stellat’en First Nation","other_names":"Stellat'en,Stellat'en First Nation"}},{"type":"Feature","geometry":{"type":"Point","coordinates":[-121.792563,49.247409]},"properties":{"name":"Sts'ailes (Chehalis Indian Band)","other_names":"Sts'ailes,Chehalis Indian Band"}},{"type":"Feature","geometry":{"type":"Point","coordinates":[-122.234758,51.638908]},"properties":{"name":"Stswécem’c Xget’tem","other_names":"Canoe Creek Band,Canoe Creek,Stswécem’c"}},{"type":"Feature","geometry":{"type":"Point","coordinates":[-121.322,50.7753]},"properties":{"name":"St’uxwtéws (Bonaparte First Nation)","other_names":"Bonaparte Indian Band,St'uxwtéws (Bonaparte)"}},{"type":"Feature","geometry":{"type":"Point","coordinates":[-123.854656,49.016593]},"properties":{"name":"Stz’uminus First Nation","other_names":"Chemainus First Nation,Stz'uminus First Nation"}},{"type":"Feature","geometry":{"type":"Point","coordinates":[-122.195856,49.055468]},"properties":{"name":"Sumas First Nation","other_names":"Sumas First Nation"}},{"type":"Feature","geometry":{"type":"Point","coordinates":[-123.426903,48.441255]},"properties":{"name":"SXIMEȽEȽ (Esquimalt)","other_names":"Esquimalt Nation"}},{"type":"Feature","geometry":{"type":"Point","coordinates":[-122.73253,53.913367]},"properties":{"name":"Takla First Nation","other_names":"Takla Lake First Nation, North Takla Lake Indian Band,Fort Connolly Indian Band,Sustutenne"}},{"type":"Feature","geometry":{"type":"Point","coordinates":[-133.689524,59.578028]},"properties":{"name":"Taku River Tlingit First Nation","other_names":"Taku River Tlingit First Nation"}},{"type":"Feature","geometry":{"type":"Point","coordinates":[-131.1762898920487,57.90393806785692]},"properties":{"name":"Telegraph Creek (Tahltan Nation)","other_names":"Tahltan Band"}},{"type":"Feature","geometry":{"type":"Point","coordinates":[-121.954304,52.089713]},"properties":{"name":"T’exélc (Williams Lake First Nation)","other_names":"Williams Lake Band,T'exelcemc (Williams Lake),T'exelc (Williams Lake Indian Band)"}},{"type":"Feature","geometry":{"type":"Point","coordinates":[-121.942234,50.678105]},"properties":{"name":"T’it’q’et","other_names":"T'it'q'et,Tl'itl'ikt,Lillooet Indian Band,T’ít’q’et First Nation"}},{"type":"Feature","geometry":{"type":"Point","coordinates":[-120.299102,50.682532]},"properties":{"name":"Tk’emlúps (Kamloops Indian Band)","other_names":"Kamloops Indian Band,Tk’umlups Indian Band,Tk'emlups (Kamloops)"}},{"type":"Feature","geometry":{"type":"Point","coordinates":[-124.607755,49.897946]},"properties":{"name":"Tla'amin Nation","other_names":"Sliammon First Nation, Kla Ah Men"}},{"type":"Feature","geometry":{"type":"Point","coordinates":[-125.91211,49.173333]},"properties":{"name":"Tla-o-qui-aht First Nation","other_names":"Clayoquot First Nation"}},{"type":"Feature","geometry":{"type":"Point","coordinates":[-127.934156,50.915548]},"properties":{"name":"Tlatlasikwala First Nation","other_names":"Tlatlasikwala First Nation,T̕łat̕łasiḵ̕wala,Tlatlasikwala"}},{"type":"Feature","geometry":{"type":"Point","coordinates":[-124.723674,54.655855]},"properties":{"name":"Tl’azt’en Nation","other_names":"Stuart Trembleur,Tl’azt’en Nation"}},{"type":"Feature","geometry":{"type":"Point","coordinates":[-122.50915,51.958737]},"properties":{"name":"Tl’esqox","other_names":"Toosey Indian Band"}},{"type":"Feature","geometry":{"type":"Point","coordinates":[-123.277992,52.082986]},"properties":{"name":"Tl’etinqox","other_names":"Tl'etinqox-T'in Government Office"}},{"type":"Feature","geometry":{"type":"Point","coordinates":[-125.557106,48.945081]},"properties":{"name":"Toquaht Nation","other_names":"Toquart,Toquaht First Nation"}},{"type":"Feature","geometry":{"type":"Point","coordinates":[-122.062334,50.741062]},"properties":{"name":"Tsal’alh (Seton Lake Band)","other_names":"Seton Lake Band,Chalath,Tsal'álh (Seton Lake),Tsal’alh (Seton Lake Band))"}},{"type":"Feature","geometry":{"type":"Point","coordinates":[-123.098162,49.03802]},"properties":{"name":"Tsawwassen First Nation","other_names":"Tsawwassen First Nation"}},{"type":"Feature","geometry":{"type":"Point","coordinates":[-122.742437,53.90748]},"properties":{"name":"Tsay Keh Dene Nation","other_names":"Ingenika Indian Band,Tsay Keh Dene"}},{"type":"Feature","geometry":{"type":"Point","coordinates":[-124.849213,49.265408]},"properties":{"name":"Tseshaht First Nation","other_names":"Sheshaht"}},{"type":"Feature","geometry":{"type":"Point","coordinates":[-124.064853,52.112068]},"properties":{"name":"Tsi Deldel","other_names":"Alexis Creek Indian Band,Tsi Del Del"}},{"type":"Feature","geometry":{"type":"Point","coordinates":[-125.767365,54.234083]},"properties":{"name":"Ts’il Kaz Koh Nation","other_names":"Burns Lake Band,Ts'il Kaz Koh (Burns Lake)"}},{"type":"Feature","geometry":{"type":"Point","coordinates":[-121.828755,50.882798]},"properties":{"name":"Ts’kw’aylaxw First Nation","other_names":"Tsk’wáylacw,Pavilion,Ts'kw'aylaxw First Nation (Pavillion),Ts'kw'aylaxw"}},{"type":"Feature","geometry":{"type":"Point","coordinates":[-122.989415,49.3113]},"properties":{"name":"Tsleil-Waututh Nation","other_names":"Burrard Indian Band"}},{"type":"Feature","geometry":{"type":"Point","coordinates":[-123.70788,48.386336]},"properties":{"name":"T’Sou-ke Nation","other_names":"T'Sou-ke Nation"}},{"type":"Feature","geometry":{"type":"Point","coordinates":[-121.600328,51.672786]},"properties":{"name":"Tsq’éscen First Nation","other_names":"Formerly 'Canim Lake Band',Tsq'escenemc (Canim Lake),Tsq'escenemc (Canim Lake Band)"}},{"type":"Feature","geometry":{"type":"Point","coordinates":[-124.054167,48.825833]},"properties":{"name":"Ts'uubaa-asatx Nation","other_names":"Ts'uubaa-asatx Nation"}},{"type":"Feature","geometry":{"type":"Point","coordinates":[-121.957355,49.11139]},"properties":{"name":"Tzeachten First Nation","other_names":"Tzeachten First Nation"}},{"type":"Feature","geometry":{"type":"Point","coordinates":[-124.81144105767055,49.23523380577505]},"properties":{"name":"Uchucklesaht Tribe","other_names":"Uchucklesit"}},{"type":"Feature","geometry":{"type":"Point","coordinates":[-125.316667,52.466667]},"properties":{"name":"Ulkatcho First Nation","other_names":"Ulkatcho First Nation,Ulkatchos,Ulkatcho people,Ulkatchot'en"}},{"type":"Feature","geometry":{"type":"Point","coordinates":[-121.443619,49.379979]},"properties":{"name":"Union Bar First Nation","other_names":"Union Bar Band"}},{"type":"Feature","geometry":{"type":"Point","coordinates":[-120.282641,50.143035]},"properties":{"name":"Upper Nicola Band","other_names":"Upper Nicola Band"}},{"type":"Feature","geometry":{"type":"Point","coordinates":[-119.824477,49.205307]},"properties":{"name":"Upper Similkameen Indian Band","other_names":"Upper Similkameen Indian Band"}},{"type":"Feature","geometry":{"type":"Point","coordinates":[-125.209929,50.041855]},"properties":{"name":"Wei Wai Kai First Nation","other_names":"Cape Mudge,We Wai Kai First Nation"}},{"type":"Feature","geometry":{"type":"Point","coordinates":[-125.247016,50.039943]},"properties":{"name":"Wei Wai Kum First Nation","other_names":"Campbell River First Nation"}},{"type":"Feature","geometry":{"type":"Point","coordinates":[-119.532736,49.883744]},"properties":{"name":"Westbank First Nation","other_names":"Westbank First Nation"}},{"type":"Feature","geometry":{"type":"Point","coordinates":[-121.733333,55.833333]},"properties":{"name":"West Moberly First Nations","other_names":"West Moberly First Nations"}},{"type":"Feature","geometry":{"type":"Point","coordinates":[-127.168554,54.782355]},"properties":{"name":"Wet’suwet’en Nation","other_names":"Broman Lake Indian Band,Wet'suwet'en First Nation"}},{"type":"Feature","geometry":{"type":"Point","coordinates":[-127.269792,54.893185]},"properties":{"name":"Witset First Nation","other_names":"Moricetown Band Office"}},{"type":"Feature","geometry":{"type":"Point","coordinates":[-123.404747,48.575229]},"properties":{"name":"W̱JOȽEȽP (Tsartlip)","other_names":"Tsartlip First Nation"}},{"type":"Feature","geometry":{"type":"Point","coordinates":[-123.452918,48.665304]},"properties":{"name":"W̱SIḴEM  (Tseycum)","other_names":"Tseycum First Nation,W̱SIḴEM (Tseycum)"}},{"type":"Feature","geometry":{"type":"Point","coordinates":[-127.224862,51.680376]},"properties":{"name":"Wuikinuxv Nation (Rivers Inlet)","other_names":"Oweekeno Nation,Wuikinuxv Nation"}},{"type":"Feature","geometry":{"type":"Point","coordinates":[-122.123529,52.268393]},"properties":{"name":"Xatśūll (Soda Creek)","other_names":"Soda Creek Indian Band,Hat'sull,Xats'ull (Soda Creek)"}},{"type":"Feature","geometry":{"type":"Point","coordinates":[-121.864321,50.734703]},"properties":{"name":"Xaxli’p","other_names":"Xaxli'p Band,Fountain Indian Band,Xaxli'p First Nation"}},{"type":"Feature","geometry":{"type":"Point","coordinates":[-122.081111,49.174372]},"properties":{"name":"Xa’xtsa (Douglas First Nation)","other_names":"Douglas First Nation,Xa'xtsa Nation"}},{"type":"Feature","geometry":{"type":"Point","coordinates":[-123.842341,51.48353]},"properties":{"name":"Xeni Gwet’in","other_names":"Nemiah Valley Indian Band,Xeni Gwet'in"}},{"type":"Feature","geometry":{"type":"Point","coordinates":[-123.197439,49.226703]},"properties":{"name":"xʷməθkʷəy̓əm (Musqueam)","other_names":"Musqueam"}},{"type":"Feature","geometry":{"type":"Point","coordinates":[-121.964765,50.770176]},"properties":{"name":"Xwísten (Bridge River Indian Band)","other_names":"Bridge River Indian Band,Nxwísten"}},{"type":"Feature","geometry":{"type":"Point","coordinates":[-122.010926,49.079808]},"properties":{"name":"Yakweakwioose Band","other_names":"Yakweakwioose Band"}},{"type":"Feature","geometry":{"type":"Point","coordinates":[-121.4401511,49.37800029999999]},"properties":{"name":"Yale First Nation","other_names":"Yale First Nation"}},{"type":"Feature","geometry":{"type":"Point","coordinates":[-116.498333,49.036944]},"properties":{"name":"Yaqan Nukiy (Lower Kootenay Band)","other_names":"Lower Kootenay Band, yaqan nuʔkiy (Lower Kootenay)"}},{"type":"Feature","geometry":{"type":"Point","coordinates":[-115.083811,49.099084]},"properties":{"name":"Yaq̓it ʔa·knuqⱡi ‘it (Tobacco Plains)","other_names":"Tobacco Plains Indian Band"}},{"type":"Feature","geometry":{"type":"Point","coordinates":[-122.757295,53.920497]},"properties":{"name":"Yekooche First Nation","other_names":"Portage Reserve"}},{"type":"Feature","geometry":{"type":"Point","coordinates":[-123.080383,51.806382]},"properties":{"name":"Yunesit’in","other_names":"Stone First Nation,Stone Band,Yunesit'in"}},{"type":"Feature","geometry":{"type":"Point","coordinates":[-125.535375,48.944172]},"properties":{"name":"Yuułuʔiłʔatḥ Government (Ucluelet First Nation)","other_names":"yu-łuʔiłʔatḥ,Yu-cluth-aht"}}]}