{"type":"FeatureCollection","name":"major_watersheds","metadata":{"source":"BC Freshwater Atlas / BC Geographic Warehouse","sourceLayer":"WHSE_BASEMAPPING.BC_MAJOR_WATERSHEDS","bbox":[-125,52.5,-120,55.5],"clippedTo":"Prince George regional viewport","generatedAt":"2026-05-09T01:18:55.840Z"},"features":[{"type":"Feature","id":"WHSE_BASEMAPPING.BC_MAJOR_WATERSHEDS.154","properties":{"sourceLayer":"WHSE_BASEMAPPING.BC_MAJOR_WATERSHEDS","boundaryCode":"WA2","boundaryName":"Stuart River","OBJECTID":154,"MAJOR_WATERSHED_CODE":"WA2","MAJOR_WATERSHED_SYSTEM":"Stuart River","FEATURE_AREA_SQM":15604204835.8477},"geometry":{"type":"Polygon","coordinates":[[[-125,54.50193466655906],[-124.93410791,54.51361209],[-124.93739597,54.52549241],[-124.89990634,54.53631964],[-124.79529493,54.53521486],[-124.70342124,54.48765727],[-124.72234779,54.462027],[-124.8200513,54.43266859],[-124.78093279,54.40351974],[-124.80573164,54.38458087],[-124.81395744,54.36311591],[-124.76750716,54.34669971],[-124.78346374,54.33932095],[-124.76025272,54.32700975],[-124.68899409,54.32885306],[-124.66436707,54.30790385],[-124.62666045,54.29448077],[-124.57022883,54.29036556],[-124.53838407,54.27059843],[-124.53468403,54.25310856],[-124.5888276,54.23353343],[-124.58486954,54.22320889],[-124.54221632,54.22031791],[-124.46700172,54.23435247],[-124.44802701,54.22024408],[-124.42651243,54.22304556],[-124.38401069,54.18512126],[-124.35800838,54.20080053],[-124.33881194,54.19053557],[-124.25289521,54.18921252],[-124.16392554,54.17640225],[-124.07528112,54.13977207],[-123.99472108,54.1237393],[-123.73621322,54.10441883],[-123.6955688,54.06105892],[-123.67422634,54.05903509],[-123.65337415,54.04241168],[-123.69599562,54.03115444],[-123.70255417,54.02038728],[-123.64972952,54.00960913],[-123.61477549,54.01858379],[-123.54481146,53.98942667],[-123.53217434,53.99615029],[-123.55334699,54.01895069],[-123.53847774,54.02923224],[-123.41726073,54.02164556],[-123.39388443,54.00918519],[-123.29831256,54.01369123],[-123.28142484,53.99642156],[-123.19734762,53.99023088],[-123.18060889,53.98031802],[-123.14619123,54.00065675],[-123.10101552,54.00225289],[-123.05391662,54.02486781],[-123.12805605,54.04556202],[-123.12394854,54.06265453],[-123.15488967,54.06811036],[-123.22091979,54.10420918],[-123.22203475,54.11584481],[-123.2107362,54.12187686],[-123.2225736,54.13723341],[-123.26558364,54.15609219],[-123.24559413,54.16927909],[-123.2498201,54.17359647],[-123.31413895,54.16178351],[-123.32758901,54.17978396],[-123.36601342,54.16813691],[-123.40028828,54.18881266],[-123.37446922,54.20386862],[-123.38370556,54.23338265],[-123.47857576,54.24625043],[-123.57495226,54.2749358],[-123.57816737,54.2870516],[-123.55386002,54.29336479],[-123.55433841,54.31131539],[-123.59742566,54.32097674],[-123.73589663,54.32380701],[-123.76647798,54.33631155],[-123.82155365,54.33957927],[-123.8574201,54.37079598],[-123.88980351,54.37423533],[-123.92223906,54.36548448],[-123.92969621,54.38718355],[-123.96274271,54.4068063],[-123.99489743,54.40332378],[-124.02489408,54.41697132],[-124.01722858,54.43275106],[-123.9664701,54.43900552],[-123.95537297,54.45967535],[-123.89417039,54.47668575],[-123.88563885,54.4935725],[-123.83992772,54.51636754],[-123.84541678,54.52517308],[-123.82449768,54.53927493],[-123.83157499,54.55032204],[-123.81495738,54.57676351],[-123.78245078,54.59511861],[-123.81208826,54.60501214],[-123.78074964,54.61544099],[-123.78437094,54.63295552],[-123.76719232,54.64052157],[-123.77994691,54.64367503],[-123.78019169,54.65639033],[-123.79999609,54.67327816],[-123.79229606,54.68977094],[-123.82586768,54.69590547],[-123.85758017,54.68430229],[-123.86462614,54.70164698],[-123.88811949,54.71797858],[-123.86529377,54.73770344],[-123.91646358,54.73403361],[-123.95031652,54.77269727],[-123.93287016,54.80222473],[-123.91500635,54.80767646],[-123.92633155,54.81340081],[-123.92750827,54.83205804],[-123.90031405,54.85026345],[-123.89786661,54.86175432],[-123.9755777,54.8577753],[-124.01190889,54.86513935],[-124.01712767,54.87428067],[-123.99879662,54.8924121],[-124.02878782,54.90080698],[-124.05462184,54.92068095],[-124.05379271,54.95074536],[-124.01379061,54.95832407],[-124.00976261,54.98102643],[-123.98021105,54.99123946],[-123.97980903,55.01236245],[-124.0032845,55.03430501],[-124.05148535,55.01841442],[-124.07564065,55.01982497],[-124.18195579,54.98232875],[-124.19507422,54.98511291],[-124.20032856,55.00159676],[-124.21709151,55.01139778],[-124.25814028,55.01062886],[-124.36050177,55.03422054],[-124.41165363,55.02025605],[-124.43222134,55.00546962],[-124.45831939,55.00717279],[-124.47093367,55.02569185],[-124.50699438,55.03654276],[-124.51266392,55.04856544],[-124.53082911,55.05480018],[-124.58147604,55.03705827],[-124.6016102,55.01514841],[-124.64364958,55.04051751],[-124.72764946,55.01150994],[-124.75825175,55.04996195],[-124.86923142,55.05893207],[-124.89014855,55.06930486],[-124.93039617,55.04198231],[-124.99607297,55.05467516],[-125,54.50193466655906]]]}},{"type":"Feature","id":"WHSE_BASEMAPPING.BC_MAJOR_WATERSHEDS.157","properties":{"sourceLayer":"WHSE_BASEMAPPING.BC_MAJOR_WATERSHEDS","boundaryCode":"WA2","boundaryName":"Babine River","OBJECTID":157,"MAJOR_WATERSHED_CODE":"WA2","MAJOR_WATERSHED_SYSTEM":"Babine River","FEATURE_AREA_SQM":10476576692.7769},"geometry":{"type":"Polygon","coordinates":[[[-125,54.273668536819194],[-124.9886986,54.27777492],[-124.99963486,54.28365644],[-125,54.30545050002434],[-124.95135797,54.31929412],[-124.90579512,54.31897268],[-124.88367927,54.30379467],[-124.82877609,54.29102633],[-124.85782047,54.26736063],[-124.92262858,54.24072821],[-124.87260532,54.21128589],[-124.84732874,54.20800084],[-124.81925202,54.21395425],[-124.78783605,54.23915143],[-124.73550121,54.25198871],[-124.60799186,54.23210735],[-124.57014491,54.23577931],[-124.53336062,54.25786672],[-124.57022883,54.29036556],[-124.63303728,54.2951216],[-124.68590373,54.32678566],[-124.75736853,54.32623382],[-124.78122841,54.33624754],[-124.76804161,54.34513983],[-124.77316966,54.34913421],[-124.82019164,54.36468625],[-124.78151746,54.40541511],[-124.81815692,54.42975945],[-124.72135414,54.46227422],[-124.70331676,54.48270551],[-124.79433496,54.53519421],[-124.90211558,54.53604828],[-124.93541199,54.52837594],[-124.93850048,54.51253589],[-124.99667981,54.50303783],[-125,54.273668536819194]]]}},{"type":"Feature","id":"WHSE_BASEMAPPING.BC_MAJOR_WATERSHEDS.142","properties":{"sourceLayer":"WHSE_BASEMAPPING.BC_MAJOR_WATERSHEDS","boundaryCode":"WA2","boundaryName":"Peace River","OBJECTID":142,"MAJOR_WATERSHED_CODE":"WA2","MAJOR_WATERSHED_SYSTEM":"Peace River","FEATURE_AREA_SQM":41578814951.4243},"geometry":{"type":"Polygon","coordinates":[[[-124.48628725272455,55.5],[-124.44182819,55.49234563],[-124.44816626,55.48203057],[-124.43977392,55.4593075],[-124.4163765,55.44116214],[-124.41135552,55.42060002],[-124.37619818,55.41001462],[-124.39292202,55.39141569],[-124.37654235,55.37656714],[-124.3811353,55.37222794],[-124.31860883,55.36534318],[-124.31142668,55.35012411],[-124.28817164,55.34031628],[-124.28152705,55.32292395],[-124.26149265,55.31655492],[-124.21740939,55.32939424],[-124.18746728,55.35184548],[-124.11465108,55.33490023],[-124.04603371,55.36619939],[-123.97947334,55.36875118],[-123.94414271,55.38379308],[-123.87991046,55.38154905],[-123.87060629,55.38979798],[-123.87528769,55.4016985],[-123.92751674,55.42616941],[-123.9240913,55.43620572],[-123.95155142,55.45465519],[-123.88915127,55.46724655],[-123.8972752,55.48858373],[-123.87583811,55.48698634],[-123.80972912,55.44483814],[-123.78488957,55.44601545],[-123.77646973,55.43572645],[-123.78276667,55.41220106],[-123.74044044,55.41005183],[-123.72006969,55.41853906],[-123.74140908,55.43166659],[-123.70333218,55.47353243],[-123.57986221,55.48336249],[-123.5943164,55.49672737],[-123.51605115,55.49733379],[-123.50805646,55.4884627],[-123.51665058,55.46207968],[-123.50970526,55.45018489],[-123.56808043,55.4229165],[-123.55915487,55.4098197],[-123.57369223,55.3952492],[-123.53149684,55.36170129],[-123.54234649,55.35300044],[-123.54028324,55.32748932],[-123.49053216,55.32443682],[-123.49059543,55.31103864],[-123.45065202,55.28765818],[-123.45696273,55.26985144],[-123.45028381,55.25859786],[-123.41867205,55.23689223],[-123.42212953,55.21773596],[-123.39304177,55.17450166],[-123.41638772,55.15524688],[-123.4118065,55.13415422],[-123.42098648,55.12660994],[-123.39659799,55.10656246],[-123.42555738,55.08506354],[-123.42343199,55.05377135],[-123.47688112,55.01974908],[-123.5135748,55.01927556],[-123.54869846,54.97788343],[-123.55212398,54.96059037],[-123.58586869,54.94592014],[-123.62718839,54.95932868],[-123.65009129,54.93008228],[-123.66746565,54.92293374],[-123.65530201,54.91765255],[-123.66711821,54.8957993],[-123.65641787,54.88758999],[-123.67729633,54.83673628],[-123.6793855,54.80634814],[-123.6923153,54.79093424],[-123.68149579,54.78319498],[-123.68757689,54.76492649],[-123.67721672,54.75729616],[-123.64952578,54.77002068],[-123.61805356,54.74668804],[-123.54133732,54.72437615],[-123.49583022,54.72866466],[-123.48720084,54.72070195],[-123.49248279,54.70477378],[-123.45449671,54.70258075],[-123.38597935,54.67223492],[-123.29986564,54.67813605],[-123.28089777,54.63565537],[-123.29058635,54.6211812],[-123.22114124,54.63423865],[-123.11258527,54.58578101],[-123.04431404,54.59315959],[-123.02637575,54.60181885],[-123.01399918,54.64974441],[-122.97886779,54.66003349],[-122.97909616,54.65345853],[-122.95669618,54.65330509],[-122.90715786,54.61406273],[-122.91828073,54.60079221],[-122.89389411,54.5813347],[-122.89090592,54.56939715],[-122.90481477,54.55614824],[-122.88719522,54.53372756],[-122.89631879,54.51125925],[-122.8851606,54.50500306],[-122.9022547,54.47940361],[-122.89503999,54.46419188],[-122.93076092,54.44153412],[-122.92623196,54.41498735],[-122.93949512,54.39391557],[-122.93869701,54.35936335],[-122.91830161,54.33947495],[-122.85754071,54.3290652],[-122.78650858,54.38545564],[-122.762541,54.39011103],[-122.74913314,54.37721835],[-122.72253662,54.37788815],[-122.71677049,54.35759912],[-122.7849145,54.34165681],[-122.78969305,54.33731104],[-122.76815483,54.32644634],[-122.7674334,54.31432858],[-122.78526828,54.31310442],[-122.82641747,54.28475707],[-122.76654592,54.26795509],[-122.75196975,54.24624363],[-122.67733766,54.23559187],[-122.64995331,54.25123775],[-122.64961542,54.26332253],[-122.61491561,54.27535933],[-122.59108415,54.27117652],[-122.58289056,54.28379782],[-122.49606182,54.27881195],[-122.51484718,54.30242834],[-122.51436564,54.32185557],[-122.48786436,54.31699292],[-122.45112927,54.33202546],[-122.44138781,54.32490264],[-122.4113431,54.34682544],[-122.3653203,54.34702209],[-122.37832562,54.3598686],[-122.40898364,54.36625143],[-122.41084729,54.37725226],[-122.32005471,54.40665536],[-122.29997964,54.42405875],[-122.32180037,54.43720772],[-122.31416351,54.44755873],[-122.28057079,54.45774696],[-122.24870409,54.45193718],[-122.24036384,54.4672295],[-122.22057408,54.47223591],[-122.22654728,54.49152925],[-122.21432062,54.49825435],[-122.22447398,54.50758618],[-122.19728137,54.53529592],[-122.26009156,54.56536373],[-122.29166931,54.59743985],[-122.36068654,54.59221566],[-122.37829976,54.5761759],[-122.52284279,54.63163547],[-122.57501649,54.60614469],[-122.58512741,54.61858132],[-122.60534242,54.61637592],[-122.61605784,54.63129287],[-122.63525875,54.6349111],[-122.63978223,54.63928303],[-122.60346574,54.65490555],[-122.62111834,54.67090483],[-122.60535596,54.68043555],[-122.5796205,54.72620943],[-122.5987238,54.74089501],[-122.61620212,54.77720474],[-122.58674358,54.78364143],[-122.62584091,54.81016301],[-122.65837964,54.8108877],[-122.68510094,54.79070328],[-122.69349995,54.79941554],[-122.74331456,54.79587361],[-122.8147438,54.84233874],[-122.83887992,54.84400036],[-122.83731029,54.8693674],[-122.81382162,54.89831917],[-122.84700727,54.93377798],[-122.87860824,54.94081389],[-122.88860882,54.96172551],[-122.88386707,54.98317681],[-122.90061642,54.99108187],[-122.8860213,55.00140318],[-122.89723833,55.02996744],[-122.91727146,55.03076482],[-122.91998572,55.0428796],[-122.93925968,55.04588378],[-122.9490152,55.06125495],[-122.9928531,55.07367486],[-123.00634383,55.13430064],[-123.07656577,55.12865637],[-123.08515618,55.14845175],[-123.07231994,55.17004435],[-123.02472029,55.16798799],[-122.99673898,55.18664139],[-122.90485778,55.15956535],[-122.88131947,55.17904436],[-122.86885758,55.17284843],[-122.8379211,55.20891838],[-122.78022464,55.22530441],[-122.78255738,55.25512364],[-122.74657498,55.26723056],[-122.74897518,55.28510842],[-122.73087838,55.2947119],[-122.73111121,55.31295832],[-122.74085652,55.32077026],[-122.72286781,55.32812709],[-122.7276637,55.34014273],[-122.75228627,55.3475245],[-122.7589794,55.36503392],[-122.8117692,55.38517402],[-122.85665513,55.37905224],[-122.85045124,55.39599167],[-122.88080352,55.4007884],[-122.87423884,55.41079244],[-122.88487653,55.41891464],[-122.98352204,55.39847554],[-122.99436726,55.40323038],[-122.9844886,55.42116506],[-123.00674115,55.44420988],[-122.99926109,55.46228061],[-122.93276602,55.46325918],[-122.96558146,55.49923372],[-120.34496781186573,55.5],[-120.32111049,55.47808363],[-120.32061281,55.46226948],[-120.2495352,55.4446014],[-120.23973465,55.40290357],[-120.16994107,55.39591571],[-120.17116551,55.36980078],[-120.14792972,55.36091951],[-120.11276655,55.37112564],[-120.07954266,55.36435819],[-120.03420065,55.3770117],[-120.02704747,55.40000476],[-120.03733481,55.41597769],[-120.00627466,55.42181077],[-120.001417,55.43872792],[-120.00141178,55.49995959],[-124.48628725272455,55.5]]]}},{"type":"Feature","id":"WHSE_BASEMAPPING.BC_MAJOR_WATERSHEDS.152","properties":{"sourceLayer":"WHSE_BASEMAPPING.BC_MAJOR_WATERSHEDS","boundaryCode":"WA2","boundaryName":"Pine River","OBJECTID":152,"MAJOR_WATERSHED_CODE":"WA2","MAJOR_WATERSHED_SYSTEM":"Pine River","FEATURE_AREA_SQM":13504179735.0781},"geometry":{"type":"Polygon","coordinates":[[[-122.96672845264476,55.5],[-122.93276602,55.46325918],[-122.99834046,55.46308013],[-123.00508498,55.44504563],[-122.98365213,55.42285421],[-122.9894608,55.39969814],[-122.8823097,55.41806824],[-122.8704905,55.41346627],[-122.87783853,55.40056975],[-122.84900797,55.39523563],[-122.85172589,55.37760873],[-122.81458504,55.38558327],[-122.75717931,55.36476074],[-122.75267702,55.35229677],[-122.7276637,55.34014273],[-122.70688287,55.34572032],[-122.67981326,55.3358304],[-122.65426468,55.34637336],[-122.64175441,55.39248476],[-122.59716228,55.40821523],[-122.48511563,55.31433178],[-122.43053367,55.31495183],[-122.33607982,55.2431868],[-122.3283302,55.22542403],[-122.26042606,55.20768373],[-122.24874354,55.19391648],[-122.28343777,55.18635216],[-122.29402746,55.17052639],[-122.26076606,55.1305098],[-122.19460791,55.13831918],[-122.18195181,55.13097413],[-122.16519253,55.09686154],[-122.10936816,55.10062791],[-122.07068502,55.06742938],[-122.0381513,55.05714588],[-122.01032458,55.02836067],[-121.9774611,55.02539355],[-121.94973959,55.00868751],[-121.91766925,54.96853922],[-121.8780667,54.95352281],[-121.85029093,54.92941083],[-121.87275903,54.90398619],[-121.8430447,54.89996438],[-121.87530381,54.88221444],[-121.87422635,54.86971375],[-121.809164,54.85618785],[-121.79609825,54.83550662],[-121.74054369,54.86800182],[-121.74583038,54.87929855],[-121.7310623,54.88685993],[-121.70038935,54.87969682],[-121.64169396,54.84276797],[-121.55707822,54.81761724],[-121.54802636,54.80228059],[-121.52559579,54.79299874],[-121.52833609,54.76840279],[-121.48544184,54.75096288],[-121.49377164,54.7420651],[-121.47704176,54.72525811],[-121.49408431,54.69205972],[-121.5187069,54.68496648],[-121.52628198,54.65140096],[-121.49547369,54.63080297],[-121.49702326,54.61688958],[-121.48655175,54.60875363],[-121.45343315,54.60925776],[-121.4560443,54.59710181],[-121.44199044,54.57365665],[-121.39587931,54.56163256],[-121.39804833,54.53251493],[-121.36594309,54.53886706],[-121.31919935,54.51426831],[-121.28772748,54.51288216],[-121.26943189,54.51928186],[-121.26536501,54.53745264],[-121.24760297,54.54729917],[-121.22800504,54.54166565],[-121.20440699,54.55119648],[-121.14293629,54.55236301],[-121.12204852,54.54047572],[-121.13764235,54.51317578],[-121.12322962,54.5017486],[-121.12959362,54.48457094],[-121.09212466,54.45902805],[-121.07203669,54.45676327],[-121.06406469,54.46746711],[-121.04218227,54.45282206],[-121.01046067,54.46517095],[-120.95859482,54.46323163],[-120.93228876,54.45018205],[-120.8784178,54.46123434],[-120.87724346,54.48982676],[-120.82910153,54.49367707],[-120.85655488,54.520187],[-120.84240691,54.55646105],[-120.89964539,54.60145104],[-120.94175488,54.61943181],[-120.89915719,54.62752254],[-120.82738441,54.60807139],[-120.7911918,54.60920906],[-120.77071024,54.63172037],[-120.7769595,54.65247321],[-120.74799826,54.67058678],[-120.7664219,54.68277444],[-120.74303561,54.68811643],[-120.72548215,54.71432821],[-120.69587663,54.71929371],[-120.7541232,54.75739343],[-120.64091813,54.76006721],[-120.62152303,54.77614315],[-120.61839564,54.80490964],[-120.60042096,54.81376914],[-120.61966873,54.85030138],[-120.64388707,54.8557349],[-120.6257332,54.898659],[-120.66082913,54.91749758],[-120.64176194,54.93032453],[-120.59587311,54.93906183],[-120.59547254,54.96242484],[-120.72068413,55.01918394],[-120.77992069,55.01859074],[-120.87436429,55.08771789],[-120.87055214,55.11568545],[-120.84235671,55.13471128],[-120.84282397,55.1478327],[-120.85357388,55.15376734],[-120.84305082,55.16920234],[-120.86062483,55.17370046],[-120.83321451,55.21837235],[-120.83607209,55.23301139],[-120.79276785,55.24364179],[-120.78281755,55.26528479],[-120.81734823,55.28683254],[-120.82376885,55.31575451],[-120.85812981,55.33336723],[-120.86242115,55.34406594],[-120.84250078,55.36947583],[-120.79540798,55.36342228],[-120.77920347,55.41303065],[-120.7428961,55.44324962],[-120.7700386,55.48034793],[-120.76966074,55.49867627],[-122.96672845264476,55.5]]]}},{"type":"Feature","id":"WHSE_BASEMAPPING.BC_MAJOR_WATERSHEDS.160","properties":{"sourceLayer":"WHSE_BASEMAPPING.BC_MAJOR_WATERSHEDS","boundaryCode":"WA2","boundaryName":"Nation River","OBJECTID":160,"MAJOR_WATERSHED_CODE":"WA2","MAJOR_WATERSHED_SYSTEM":"Nation River","FEATURE_AREA_SQM":6908566096.5067},"geometry":{"type":"Polygon","coordinates":[[[-125,55.5],[-125,55.05474864006154],[-124.98632185,55.04915404],[-124.92429748,55.04310436],[-124.8839936,55.06935938],[-124.86943074,55.05895964],[-124.75433325,55.04919128],[-124.74869788,55.0291269],[-124.72323931,55.01173895],[-124.64647593,55.04043865],[-124.61799822,55.01925025],[-124.59575325,55.01705005],[-124.58202211,55.03686291],[-124.5322688,55.05480492],[-124.46703963,55.02359508],[-124.45916161,55.00728409],[-124.42726387,55.00542802],[-124.41447735,55.02007493],[-124.36437954,55.03520597],[-124.2561072,55.01037621],[-124.21525574,55.01111929],[-124.1994941,55.00093156],[-124.20344783,54.9928576],[-124.18063067,54.98196425],[-124.01077548,55.0347067],[-123.98444676,55.01951368],[-123.92171749,55.01813628],[-123.85004673,55.04890282],[-123.81255957,55.03530109],[-123.81923513,55.00029796],[-123.78598333,54.99299551],[-123.76268711,54.96615236],[-123.73278322,54.95755211],[-123.72763236,54.94723391],[-123.7087382,54.94769631],[-123.71203875,54.93582847],[-123.69671895,54.92519573],[-123.6705172,54.92265631],[-123.65277282,54.92850413],[-123.62983939,54.95885628],[-123.58380476,54.9453812],[-123.55109388,54.96221374],[-123.54751394,54.97936253],[-123.51713125,55.01672605],[-123.47668223,55.01985708],[-123.42192358,55.05083772],[-123.4202731,55.08809244],[-123.39589025,55.10419215],[-123.42262038,55.12497759],[-123.41138473,55.13233122],[-123.41638772,55.15524688],[-123.39304177,55.17450166],[-123.4217386,55.21547215],[-123.41524047,55.23402855],[-123.4558424,55.26492165],[-123.45401383,55.29033219],[-123.49411971,55.3139355],[-123.49437663,55.32516736],[-123.53908462,55.32741414],[-123.54214438,55.35165296],[-123.53306218,55.36621432],[-123.57469008,55.39305221],[-123.557181,55.40621678],[-123.57015935,55.42028224],[-123.56495245,55.42569839],[-123.50990011,55.44906037],[-123.51609094,55.46892073],[-123.50480318,55.48547441],[-123.51484859,55.49596416],[-123.59689898393574,55.5],[-123.57665595,55.48832043],[-123.71536405,55.46988585],[-123.71306767,55.46070671],[-123.74408106,55.43556794],[-123.71865535,55.42410984],[-123.72066853,55.41789789],[-123.74320408,55.40959419],[-123.78220103,55.41140451],[-123.77702395,55.43487806],[-123.78488957,55.44601545],[-123.81492991,55.4476348],[-123.82821762,55.46245349],[-123.89623378,55.48888779],[-123.89202871,55.46579711],[-123.94333276,55.45940956],[-123.95062931,55.45130152],[-123.92810459,55.43991333],[-123.92017945,55.42293534],[-123.87322289,55.39980809],[-123.87765772,55.38094503],[-123.94270019,55.38383992],[-123.97117576,55.37161127],[-124.04438225,55.36649282],[-124.07489215,55.34653437],[-124.11799923,55.33474351],[-124.18901551,55.35178617],[-124.22059112,55.32797891],[-124.26614513,55.31673168],[-124.28445491,55.3249335],[-124.28329072,55.33825535],[-124.31313205,55.35045632],[-124.32006833,55.36599234],[-124.38053739,55.36926079],[-124.39366656,55.39110154],[-124.37597703,55.40873254],[-124.41473223,55.42446587],[-124.41610702,55.44011365],[-124.43977392,55.4593075],[-124.44787928,55.49376601],[-125,55.5]]]}},{"type":"Feature","id":"WHSE_BASEMAPPING.BC_MAJOR_WATERSHEDS.153","properties":{"sourceLayer":"WHSE_BASEMAPPING.BC_MAJOR_WATERSHEDS","boundaryCode":"WA2","boundaryName":"Kiskatinaw River","OBJECTID":153,"MAJOR_WATERSHED_CODE":"WA2","MAJOR_WATERSHED_SYSTEM":"Kiskatinaw River","FEATURE_AREA_SQM":4097880975.9297},"geometry":{"type":"Polygon","coordinates":[[[-120.77068771280773,55.5],[-120.74692539,55.43864094],[-120.78233945,55.41054426],[-120.79421625,55.36447969],[-120.84250078,55.36947583],[-120.8616555,55.34776544],[-120.85954798,55.33543218],[-120.81875266,55.31289605],[-120.82031402,55.28984281],[-120.78185533,55.27004026],[-120.79291664,55.24304279],[-120.83861087,55.23063877],[-120.83276716,55.21905663],[-120.85943442,55.17596298],[-120.84698903,55.17334398],[-120.85860039,55.1562999],[-120.84606184,55.15228555],[-120.84220463,55.1340526],[-120.86777794,55.12008641],[-120.87514917,55.10444137],[-120.86932693,55.07770644],[-120.85337252,55.06664963],[-120.77843498,55.01816757],[-120.72301379,55.01973144],[-120.59703284,54.96368698],[-120.5436058,54.99250373],[-120.44934311,55.01355218],[-120.25340979,55.00011591],[-120.17888159,55.00747621],[-120.12018518,55.07022623],[-120.11373253,55.08939214],[-120.1204877,55.10600223],[-120.10111522,55.13035471],[-120.12238363,55.14322807],[-120.14479235,55.13268773],[-120.17274088,55.14783902],[-120.14596034,55.1645561],[-120.18770674,55.17986549],[-120.16717753,55.19089704],[-120.18746698,55.21481212],[-120.17847979,55.2318647],[-120.19469414,55.26576303],[-120.16699543,55.2920209],[-120.09330288,55.30680747],[-120.07414806,55.30298867],[-120.05535257,55.3238985],[-120.08533006,55.33408458],[-120.09492874,55.34928023],[-120.13301301,55.34601582],[-120.1442319,55.36031996],[-120.16292273,55.36366759],[-120.17720886,55.37665649],[-120.16545162,55.38478944],[-120.16994107,55.39591571],[-120.23893663,55.40261505],[-120.2511911,55.44531356],[-120.32257046,55.46281568],[-120.32407068,55.47954151],[-120.34643527,55.49552579],[-120.77068771280773,55.5]]]}},{"type":"Feature","id":"WHSE_BASEMAPPING.BC_MAJOR_WATERSHEDS.150","properties":{"sourceLayer":"WHSE_BASEMAPPING.BC_MAJOR_WATERSHEDS","boundaryCode":"WA2","boundaryName":"Omineca River","OBJECTID":150,"MAJOR_WATERSHED_CODE":"WA2","MAJOR_WATERSHED_SYSTEM":"Omineca River","FEATURE_AREA_SQM":7949714746.4293},"geometry":{"type":"Polygon","coordinates":[]}},{"type":"Feature","id":"WHSE_BASEMAPPING.BC_MAJOR_WATERSHEDS.178","properties":{"sourceLayer":"WHSE_BASEMAPPING.BC_MAJOR_WATERSHEDS","boundaryCode":"WA2","boundaryName":"North Coast Rivers","OBJECTID":178,"MAJOR_WATERSHED_CODE":"WA2","MAJOR_WATERSHED_SYSTEM":"North Coast Rivers","FEATURE_AREA_SQM":44736204430.0276},"geometry":{"type":"Polygon","coordinates":[[[-125,52.5],[-124.86943793469868,52.5],[-124.87638098,52.51211131],[-124.86777204,52.52507476],[-124.82822459,52.53511094],[-124.82484364,52.54220476],[-124.86077788,52.56274397],[-124.85891961,52.58226753],[-124.87552945,52.59780805],[-124.87410168,52.6184659],[-124.89002413,52.63321589],[-124.86758868,52.63622832],[-124.85721655,52.65047272],[-124.83665157,52.65700205],[-124.84143321,52.67430791],[-124.83216777,52.68088],[-124.83294639,52.7003742],[-124.85217148,52.70521811],[-124.87214661,52.69731181],[-124.89542709,52.70802779],[-124.94164628,52.69586992],[-124.96138626,52.72214247],[-124.99460351,52.72773824],[-125,52.5]]]}},{"type":"Feature","id":"WHSE_BASEMAPPING.BC_MAJOR_WATERSHEDS.193","properties":{"sourceLayer":"WHSE_BASEMAPPING.BC_MAJOR_WATERSHEDS","boundaryCode":"WA2","boundaryName":"West Road River","OBJECTID":193,"MAJOR_WATERSHED_CODE":"WA2","MAJOR_WATERSHED_SYSTEM":"West Road River","FEATURE_AREA_SQM":12432101516.1115},"geometry":{"type":"Polygon","coordinates":[[[-124.18848551,53.43113624],[-124.21585771,53.43378605],[-124.27634594,53.47820878],[-124.28883053,53.47385426],[-124.28348245,53.45836134],[-124.31858231,53.44613998],[-124.37176817,53.44878005],[-124.39867991,53.46719621],[-124.39136173,53.4798144],[-124.41081013,53.4949828],[-124.40752963,53.50602689],[-124.45933251,53.50934949],[-124.50628847,53.5322612],[-124.53874808,53.53062806],[-124.51111729,53.49389451],[-124.48119518,53.48429643],[-124.49091041,53.4520877],[-124.51681151,53.44775889],[-124.4996013,53.40102812],[-124.60658786,53.38384044],[-124.57149793,53.36393433],[-124.49071778,53.34526015],[-124.48270598,53.30818922],[-124.50151886,53.29053871],[-124.53429574,53.28281256],[-124.47991169,53.28235889],[-124.46445645,53.27212616],[-124.45876842,53.24785518],[-124.52447955,53.20488476],[-124.48483658,53.19657979],[-124.48675388,53.17853286],[-124.47371442,53.1699847],[-124.47234589,53.15290947],[-124.50017173,53.13625601],[-124.56457376,53.12745783],[-124.60502636,53.12768808],[-124.61348516,53.13834671],[-124.68077772,53.13461703],[-124.80891569,53.16356222],[-124.83580972,53.14944354],[-124.8563237,53.15997393],[-124.88997354,53.15123864],[-124.89708209,53.12508199],[-124.87785864,53.11527268],[-124.91077534,53.11268049],[-124.90620523,53.08475005],[-124.91731758,53.07402757],[-124.96079461,53.06703908],[-124.96782981,53.05850312],[-124.99461916,53.0662875],[-125,52.7295119537674],[-124.96222679,52.72288798],[-124.945887,52.69661095],[-124.89256847,52.70816835],[-124.86219736,52.70024241],[-124.83182426,52.71799137],[-124.87058693,52.77672785],[-124.76134173,52.80780471],[-124.74663594,52.82006433],[-124.7115036,52.81097298],[-124.61659094,52.84915097],[-124.59987226,52.83616533],[-124.60885147,52.82158794],[-124.59539806,52.79781411],[-124.57245324,52.77873556],[-124.54156144,52.77233566],[-124.54011695,52.76026684],[-124.49950179,52.76324507],[-124.40307825,52.74016788],[-124.37851605,52.72359527],[-124.25800704,52.75017572],[-124.23075039,52.71978234],[-124.15496509,52.72966098],[-124.13140724,52.71909064],[-124.10799724,52.69029561],[-124.05097699,52.68786916],[-124.00788817,52.67158881],[-123.99496197,52.64905107],[-123.99819088,52.62952389],[-123.9817419,52.60646413],[-123.9848328,52.56264597],[-123.99495437,52.55632652],[-123.93211204,52.50501449],[-123.08529305463341,52.5],[-123.11110783,52.50997466],[-123.11311122,52.51918827],[-123.09044921,52.53539818],[-123.07965091,52.58744167],[-123.10112089,52.59906824],[-123.11904703,52.59211934],[-123.18010201,52.60602146],[-123.17499287,52.63014289],[-123.21787212,52.64779456],[-123.21650172,52.66269907],[-123.22510898,52.66891269],[-123.22923741,52.70676202],[-123.20631167,52.72300083],[-123.22704358,52.74229541],[-123.21716945,52.75708041],[-123.25891748,52.75910471],[-123.26961423,52.79344449],[-123.25785281,52.80752561],[-123.31227497,52.8117597],[-123.31433151,52.82452444],[-123.30780862,52.83680997],[-123.2390902,52.85853472],[-123.25018644,52.89450146],[-123.23657598,52.89978384],[-123.1837094,52.97876554],[-123.19076564,53.00286903],[-123.21994656,53.01617625],[-123.21850804,53.02849515],[-123.20964038,53.03643903],[-123.17834322,53.03588515],[-123.18226525,53.05444213],[-123.1191176,53.04239137],[-123.08420978,53.05542815],[-123.06438994,53.04968341],[-123.02579195,53.05703068],[-122.99534066,53.0833371],[-122.97505961,53.06650627],[-122.96793221,53.03469489],[-122.9500569,53.02506497],[-122.95068514,53.00905958],[-122.93572989,53.00939007],[-122.92347188,53.01563521],[-122.93126326,53.02475961],[-122.92517942,53.04439009],[-122.90306437,53.05716188],[-122.90622413,53.07554814],[-122.87185887,53.09584586],[-122.88126933,53.11897657],[-122.85731333,53.14008381],[-122.86159328,53.17185253],[-122.8938592,53.20579264],[-122.89969049,53.22311081],[-122.89287083,53.24768112],[-122.91480267,53.26857997],[-122.89732855,53.2983045],[-122.87761473,53.2952879],[-122.87584923,53.30611743],[-122.89782279,53.31866895],[-122.91074034,53.3566325],[-122.95369186,53.37596527],[-122.94698531,53.39361487],[-122.95386362,53.45060013],[-122.93800725,53.46046682],[-122.92998505,53.44924433],[-122.91447011,53.45919811],[-122.90792777,53.48190741],[-122.9490276,53.49769394],[-122.99579569,53.50302903],[-123.01188126,53.49623545],[-123.0226072,53.48651767],[-123.04528967,53.41272869],[-123.06323142,53.39269969],[-123.10245876,53.39155309],[-123.06790809,53.35502653],[-123.11261489,53.31745586],[-123.18682209,53.33161755],[-123.19265649,53.34322577],[-123.18450036,53.35675825],[-123.21505526,53.37148451],[-123.26099472,53.35128772],[-123.34217407,53.35586769],[-123.37807459,53.33656654],[-123.46221816,53.35560592],[-123.49353151,53.38568476],[-123.49126455,53.40487224],[-123.5193653,53.4202683],[-123.61812558,53.41197707],[-123.65659612,53.4262576],[-123.68647515,53.41810252],[-123.72456855,53.42766084],[-123.74410767,53.41840358],[-123.78792721,53.4452415],[-123.80550951,53.46865224],[-123.85920383,53.46215033],[-123.90040417,53.47431276],[-123.95067234,53.47159041],[-123.99922975,53.46043002],[-124.01484722,53.43986168],[-124.04218982,53.42824502],[-124.09097251,53.43192477],[-124.10516394,53.41950593],[-124.14236222,53.43692836],[-124.18848551,53.43113624]]]}},{"type":"Feature","id":"WHSE_BASEMAPPING.BC_MAJOR_WATERSHEDS.173","properties":{"sourceLayer":"WHSE_BASEMAPPING.BC_MAJOR_WATERSHEDS","boundaryCode":"WA2","boundaryName":"Nechako River","OBJECTID":173,"MAJOR_WATERSHED_CODE":"WA2","MAJOR_WATERSHED_SYSTEM":"Nechako River","FEATURE_AREA_SQM":31630118319.297},"geometry":{"type":"Polygon","coordinates":[[[-125,53.06667998260986],[-124.966587,53.05895617],[-124.9663051,53.06531133],[-124.92052442,53.07174852],[-124.90502537,53.08792493],[-124.91077534,53.11268049],[-124.87785864,53.11527268],[-124.89622679,53.12334723],[-124.89694906,53.14198485],[-124.86264604,53.16016316],[-124.83016307,53.14947021],[-124.81062198,53.16552466],[-124.68077772,53.13461703],[-124.61348516,53.13834671],[-124.6077123,53.13010893],[-124.56457376,53.12745783],[-124.50152819,53.13581709],[-124.4746718,53.15065051],[-124.47371442,53.1699847],[-124.484305,53.17425653],[-124.49163287,53.20264061],[-124.52544356,53.20354474],[-124.46335014,53.24537923],[-124.46351539,53.27031262],[-124.47758082,53.28122748],[-124.53149876,53.28234321],[-124.49913937,53.29201415],[-124.48004423,53.31030163],[-124.48947498,53.34291419],[-124.57503193,53.3649975],[-124.60679435,53.38488715],[-124.4984616,53.40296905],[-124.51933958,53.44620765],[-124.48585099,53.45561583],[-124.49115587,53.45959975],[-124.48001543,53.48209199],[-124.51111729,53.49389451],[-124.53835561,53.5243673],[-124.53332239,53.53355535],[-124.50080533,53.5310121],[-124.46028516,53.50928838],[-124.40920776,53.50656526],[-124.40749134,53.49309197],[-124.39083637,53.48332516],[-124.39746485,53.46475622],[-124.36393472,53.44779539],[-124.31705004,53.44624049],[-124.28141438,53.45830521],[-124.29116728,53.47289384],[-124.27186368,53.47687041],[-124.25158567,53.45598944],[-124.2161742,53.44304356],[-124.21371383,53.43319082],[-124.14477103,53.43701745],[-124.10382511,53.41988245],[-124.08735619,53.43247248],[-124.04218982,53.42824502],[-124.01484722,53.43986168],[-123.99922975,53.46043002],[-123.95067234,53.47159041],[-123.90525917,53.47445979],[-123.82968728,53.46224365],[-123.80550951,53.46865224],[-123.78680916,53.44425518],[-123.74296915,53.41860393],[-123.7221662,53.42740141],[-123.6890421,53.41823643],[-123.65659612,53.4262576],[-123.62095757,53.41208357],[-123.51438773,53.41997954],[-123.49213377,53.4058529],[-123.49398772,53.38713874],[-123.46221816,53.35560592],[-123.37807459,53.33656654],[-123.33726194,53.35658288],[-123.25838266,53.35174826],[-123.22074432,53.37219275],[-123.18337523,53.35502069],[-123.18990774,53.34711351],[-123.18223573,53.33173702],[-123.10610537,53.31424371],[-123.06790809,53.35502653],[-123.10389944,53.38976845],[-123.06323142,53.39269969],[-123.04714282,53.41118645],[-123.01633413,53.49493645],[-122.98964504,53.50428166],[-122.90510886,53.48167168],[-122.8843989,53.49618349],[-122.88155976,53.51350618],[-122.92625099,53.56124137],[-122.92763818,53.58593064],[-122.95705534,53.60243882],[-122.9477973,53.62540096],[-122.93153049,53.63936984],[-122.8811412,53.64762744],[-122.87267909,53.66278263],[-122.84760187,53.66174217],[-122.83176866,53.64226119],[-122.78530672,53.68583445],[-122.80473123,53.69211343],[-122.80651799,53.7041159],[-122.7542894,53.72813028],[-122.77925787,53.76896335],[-122.77120641,53.77799065],[-122.77558672,53.78951362],[-122.79994067,53.78926403],[-122.80566463,53.8107968],[-122.84412784,53.83425112],[-122.85762283,53.86740339],[-122.84726519,53.89019403],[-122.82787302,53.89782994],[-122.75579466,53.91964628],[-122.70924469,53.92030683],[-122.72452992,53.9479185],[-122.7170475,53.98692214],[-122.73188375,53.99715824],[-122.72297314,54.01930973],[-122.73085243,54.02869902],[-122.7781261,54.03156043],[-122.835727,54.01623745],[-122.90146606,54.04752764],[-122.91326371,54.01673602],[-122.97162176,54.01157067],[-123.05169289,54.02477938],[-123.09881442,54.01076958],[-123.10542025,54.00062448],[-123.14560915,54.0009703],[-123.17828318,53.98027264],[-123.19381978,53.989431],[-123.28025926,53.99605458],[-123.3030553,54.01437612],[-123.32789963,54.00611601],[-123.39199867,54.00938938],[-123.46897865,54.02875034],[-123.53905672,54.02934433],[-123.55385896,54.02197956],[-123.53267756,53.9966279],[-123.54377483,53.98875391],[-123.61883462,54.01893281],[-123.65137324,54.00970049],[-123.69733789,54.01747028],[-123.70289328,54.02110417],[-123.69473503,54.03183133],[-123.66060718,54.0363348],[-123.65563734,54.04521226],[-123.69851622,54.06423022],[-123.73374047,54.10399159],[-123.99472108,54.1237393],[-124.07387982,54.13937672],[-124.1688849,54.17766867],[-124.25564118,54.18950073],[-124.33622166,54.19042111],[-124.35533398,54.1996945],[-124.38783311,54.18490549],[-124.4283131,54.22325819],[-124.4491221,54.22020542],[-124.46700172,54.23435247],[-124.55623393,54.22090487],[-124.6825282,54.2489618],[-124.69978776,54.24260791],[-124.73658047,54.25154125],[-124.79056633,54.23849595],[-124.82599092,54.21091416],[-124.86809606,54.21029524],[-124.92377578,54.23950183],[-124.85645022,54.26799684],[-124.82922626,54.28765143],[-124.83411866,54.29196752],[-124.91238454,54.31966062],[-125,54.30545050002434],[-125,54.284056169158696],[-124.98874296,54.27871163],[-124.99990173,54.2736949],[-125,53.06667998260986]]]}},{"type":"Feature","id":"WHSE_BASEMAPPING.BC_MAJOR_WATERSHEDS.213","properties":{"sourceLayer":"WHSE_BASEMAPPING.BC_MAJOR_WATERSHEDS","boundaryCode":"WA2","boundaryName":"Chilcotin River","OBJECTID":213,"MAJOR_WATERSHED_CODE":"WA2","MAJOR_WATERSHED_SYSTEM":"Chilcotin River","FEATURE_AREA_SQM":19573839158.0101},"geometry":{"type":"Polygon","coordinates":[[[-124.6782994,52.82734214],[-124.71649303,52.80962831],[-124.72982085,52.81907325],[-124.75697512,52.81609061],[-124.87134274,52.77321077],[-124.83271269,52.71954701],[-124.84669528,52.70790648],[-124.83534802,52.70298508],[-124.82941742,52.68369171],[-124.84328241,52.67120397],[-124.83516941,52.66084598],[-124.88823517,52.62940966],[-124.85855209,52.58135148],[-124.85998616,52.56103909],[-124.8515177,52.55037233],[-124.82539804,52.54509578],[-124.83194168,52.53435681],[-124.86777204,52.52507476],[-124.87638098,52.51211131],[-124.87043393,52.50027871],[-123.92915426974993,52.5],[-123.99340148,52.55155623],[-123.98181993,52.56536792],[-123.98120918,52.58842016],[-123.98798127,52.62371492],[-123.99819088,52.62952389],[-123.99436247,52.65093954],[-124.00411765,52.6698405],[-124.03186512,52.68280055],[-124.11402818,52.69215818],[-124.14553717,52.72751375],[-124.22053322,52.717627],[-124.23416232,52.72186855],[-124.25567575,52.75017804],[-124.38547774,52.72495593],[-124.40096175,52.73955499],[-124.43129009,52.74758527],[-124.50694448,52.76478272],[-124.54324315,52.76211375],[-124.59875129,52.80065469],[-124.60811562,52.82420087],[-124.59707041,52.83207726],[-124.61659094,52.84915097],[-124.6782994,52.82734214]]]}},{"type":"Feature","id":"WHSE_BASEMAPPING.BC_MAJOR_WATERSHEDS.166","properties":{"sourceLayer":"WHSE_BASEMAPPING.BC_MAJOR_WATERSHEDS","boundaryCode":"WA2","boundaryName":"Fraser River","OBJECTID":166,"MAJOR_WATERSHED_CODE":"WA2","MAJOR_WATERSHED_SYSTEM":"Fraser River","FEATURE_AREA_SQM":70489015819.9213},"geometry":{"type":"Polygon","coordinates":[[[-123.98444676,55.01951368],[-123.98373574,54.98757202],[-124.01408567,54.97805662],[-124.01762007,54.95590638],[-124.0536427,54.95089423],[-124.0522925,54.91645453],[-124.00039344,54.89621328],[-124.0187548,54.87083847],[-124.00803323,54.86325304],[-123.89736852,54.85964524],[-123.92699972,54.83602097],[-123.92502273,54.81733795],[-123.91420501,54.80976348],[-123.93287016,54.80222473],[-123.9463605,54.76796079],[-123.91850134,54.73586959],[-123.86556265,54.73862791],[-123.88642881,54.72056102],[-123.8785834,54.70368578],[-123.86530585,54.70311636],[-123.86015725,54.68361899],[-123.82277659,54.6959538],[-123.79565764,54.69093489],[-123.79741409,54.66864502],[-123.76996083,54.6421797],[-123.7886529,54.62790028],[-123.7785729,54.61606149],[-123.81343038,54.60745612],[-123.78439869,54.58996527],[-123.81384664,54.57849598],[-123.83276684,54.55522465],[-123.82562385,54.53842665],[-123.84305346,54.52860013],[-123.83992772,54.51636754],[-123.88500439,54.4936041],[-123.89797767,54.47524665],[-123.95537297,54.45967535],[-123.9664701,54.43900552],[-124.01683631,54.43287128],[-124.02511517,54.41775576],[-123.9889767,54.40223089],[-123.96318319,54.40680245],[-123.92994619,54.3878152],[-123.92223906,54.36548448],[-123.8588875,54.37111028],[-123.81559554,54.33827985],[-123.76979474,54.33676114],[-123.73940558,54.32371704],[-123.60108606,54.32140136],[-123.55180515,54.31020214],[-123.55595529,54.29165152],[-123.57470668,54.28956891],[-123.57100684,54.27347649],[-123.50874819,54.26225497],[-123.48076598,54.2466483],[-123.38404609,54.23338158],[-123.37368349,54.20612665],[-123.40443449,54.19232907],[-123.37111307,54.16875807],[-123.32272835,54.17967116],[-123.31044779,54.1616137],[-123.25054795,54.17374298],[-123.24966729,54.16504866],[-123.26665335,54.15826429],[-123.20830857,54.12319449],[-123.22300399,54.10606994],[-123.15353758,54.0677109],[-123.12646515,54.06368729],[-123.13308526,54.04793665],[-123.12563456,54.04510542],[-122.97921699,54.01207028],[-122.9077071,54.01825418],[-122.90846705,54.04252205],[-122.89817846,54.04932782],[-122.88893836,54.03489544],[-122.85742958,54.03141191],[-122.83616032,54.01597693],[-122.77188203,54.03173067],[-122.73269071,54.02981387],[-122.72050864,54.01574024],[-122.73024757,54.00026728],[-122.71683554,53.98769057],[-122.72452992,53.9479185],[-122.70949813,53.92188067],[-122.76181934,53.91837713],[-122.83321709,53.89655232],[-122.84953522,53.88783737],[-122.85576964,53.87065005],[-122.84412784,53.83425112],[-122.80566463,53.8107968],[-122.8000848,53.7892959],[-122.77657881,53.79034698],[-122.77100344,53.77844882],[-122.77925787,53.76896335],[-122.75486787,53.73095811],[-122.80819991,53.70271596],[-122.80222871,53.69071574],[-122.78174957,53.68749096],[-122.80471685,53.6751971],[-122.82754553,53.64369387],[-122.85063181,53.66331482],[-122.87402318,53.66229467],[-122.87773932,53.65040125],[-122.93301336,53.63756405],[-122.94866539,53.62634081],[-122.95734543,53.60301016],[-122.92051636,53.57922461],[-122.92620463,53.56161523],[-122.90531225,53.54666096],[-122.90405573,53.52780125],[-122.88180266,53.51502123],[-122.8843989,53.49618349],[-122.90021883,53.49264711],[-122.91283644,53.45996986],[-122.92868869,53.44900123],[-122.93523214,53.46021831],[-122.9560648,53.44581025],[-122.94698531,53.39361487],[-122.95612306,53.37057289],[-122.93550658,53.37286852],[-122.91255246,53.35912861],[-122.89689252,53.31806096],[-122.87758991,53.31127459],[-122.88474965,53.29519617],[-122.89671012,53.2989107],[-122.90609211,53.28891844],[-122.91707041,53.26430248],[-122.89246762,53.24644483],[-122.89464488,53.20698012],[-122.8609502,53.17467903],[-122.85786062,53.13849346],[-122.87957079,53.12359498],[-122.86844728,53.09939317],[-122.90234745,53.07999034],[-122.90685043,53.05436874],[-122.93186862,53.03365961],[-122.92516363,53.01217114],[-122.94012381,53.00888401],[-122.95395474,53.01143429],[-122.94898883,53.02377506],[-122.96793221,53.03469489],[-122.97404667,53.06512668],[-122.99358139,53.08138191],[-123.03158442,53.05519492],[-123.08326148,53.05553705],[-123.11801248,53.04214458],[-123.1819695,53.05582555],[-123.17869182,53.03724979],[-123.20964038,53.03643903],[-123.2221947,53.01754291],[-123.19471185,53.00313628],[-123.18291906,52.97953556],[-123.23425959,52.90110592],[-123.25134042,52.89215272],[-123.23882829,52.85634172],[-123.30436504,52.83821685],[-123.31290623,52.827869],[-123.30580458,52.81015846],[-123.25692047,52.80640981],[-123.26986682,52.78946574],[-123.25608457,52.75873784],[-123.21523864,52.75581598],[-123.224176,52.74459844],[-123.20655513,52.71793881],[-123.23122671,52.70405677],[-123.22700667,52.67372339],[-123.21237147,52.64561202],[-123.17578976,52.63131354],[-123.18010201,52.60602146],[-123.12221246,52.59261921],[-123.102546,52.59920177],[-123.07734935,52.58600428],[-123.09252787,52.53149574],[-123.1100439,52.52134852],[-123.11110783,52.50997466],[-123.09949442,52.50282896],[-122.20348282775731,52.5],[-122.23328925,52.51845825],[-122.22209947,52.55665386],[-122.20563931,52.56563967],[-122.2152228,52.58342948],[-122.2521558,52.60710601],[-122.23016384,52.6167566],[-122.23563007,52.66226189],[-122.25304208,52.68801843],[-122.28966485,52.71587408],[-122.26730375,52.74452493],[-122.29764341,52.78041233],[-122.29094209,52.79289073],[-122.30718032,52.81548369],[-122.30746578,52.84952116],[-122.35363284,52.90051074],[-122.43979931,52.91757151],[-122.46265796,52.95286392],[-122.49509117,52.96499335],[-122.48694066,52.97934242],[-122.51144468,53.00228448],[-122.49087044,53.01629381],[-122.4902878,53.03505254],[-122.47718856,53.05068663],[-122.46895308,53.11378482],[-122.3984271,53.08616531],[-122.32846392,53.04065832],[-122.27011799,53.02010208],[-122.25750314,53.00496951],[-122.18266593,52.99115521],[-122.17753863,52.95842902],[-122.14855102,52.93569526],[-122.12789096,52.93462525],[-122.11896607,52.90405461],[-122.06913804,52.85775845],[-122.08541341,52.84005783],[-122.08160333,52.80351504],[-122.04275055,52.77910425],[-122.04334539,52.74801193],[-122.02050482,52.73670354],[-121.99596319,52.70680178],[-121.98373822,52.71045175],[-121.98142179,52.73150006],[-121.93749257,52.73099473],[-121.90313287,52.74627224],[-121.85162519,52.73858364],[-121.86799027,52.75998154],[-121.85680756,52.76615414],[-121.72543499,52.73682808],[-121.70106576,52.72352607],[-121.67150828,52.74594064],[-121.63314747,52.73364009],[-121.57735432,52.73473576],[-121.60238722,52.74982713],[-121.60390195,52.77106745],[-121.6202954,52.78526198],[-121.59394064,52.80801298],[-121.62882516,52.82297188],[-121.61635058,52.83673118],[-121.61541653,52.85784853],[-121.53215612,52.87087534],[-121.49126362,52.85978989],[-121.47752279,52.84477359],[-121.46239864,52.86647369],[-121.4287562,52.87782483],[-121.41675733,52.91154625],[-121.37917812,52.930667],[-121.38824152,52.94785052],[-121.37620032,52.96252544],[-121.39606006,53.01081025],[-121.35892921,53.0268371],[-121.29840335,53.03562311],[-121.25972732,53.02420248],[-121.23154611,53.05058322],[-121.22976843,53.09117251],[-121.20972874,53.10008256],[-121.18067016,53.10222371],[-121.164242,53.09320404],[-121.10536458,53.11867741],[-120.91881651,53.12626936],[-120.93187743,53.17853372],[-120.99140348,53.19353733],[-120.98338626,53.20574196],[-120.99618422,53.23025464],[-121.06691812,53.22953564],[-121.10793285,53.249766],[-121.18129881,53.23849677],[-121.19576365,53.25164959],[-121.19512497,53.27511302],[-121.21536535,53.30043101],[-121.154998,53.33240144],[-121.15305747,53.35724549],[-121.11954854,53.36283927],[-121.11358452,53.39301303],[-121.08477368,53.3885448],[-121.04454759,53.39778593],[-121.04909817,53.41001081],[-121.01960295,53.42785023],[-121.00671756,53.4237247],[-120.99832441,53.39870068],[-121.00981102,53.32620965],[-120.97962301,53.30561322],[-120.979119,53.27705274],[-120.93958524,53.27944556],[-120.93160292,53.28890328],[-120.94213143,53.29660203],[-120.91829487,53.30536254],[-120.86345883,53.2847747],[-120.81440446,53.28478353],[-120.79237937,53.25768476],[-120.77181221,53.25202439],[-120.71284658,53.26296268],[-120.59705655,53.18848125],[-120.5500846,53.18690949],[-120.53798326,53.17314656],[-120.47199592,53.15678151],[-120.45442492,53.13161233],[-120.46437999,53.12158556],[-120.42076442,53.10734504],[-120.42046354,53.08130731],[-120.39600663,53.06950502],[-120.48030315,53.06354067],[-120.48271556,53.01513253],[-120.44743382,53.00589874],[-120.43452452,52.98580257],[-120.43802627,52.97340992],[-120.42208277,52.95853826],[-120.37501453,52.96256884],[-120.3390774,52.92669543],[-120.30462154,52.92076451],[-120.26717901,52.92815406],[-120.2281214,52.91866117],[-120.20327709,52.93279159],[-120.17455818,52.92032957],[-120.1604843,52.89619262],[-120.11348249,52.86507078],[-120.09741827,52.84256694],[-120.04554877,52.8213393],[-120.02219148,52.76978197],[-120,52.74676226817341],[-120,53.80169778784237],[-120.03060841,53.80643334],[-120.05037631,53.79285402],[-120.09582565,53.79538961],[-120.12423784,53.7787793],[-120.17436922,53.77999447],[-120.23990704,53.75983461],[-120.2578884,53.77465655],[-120.30187885,53.78665587],[-120.39217373,53.77896282],[-120.40598197,53.79191719],[-120.47349576,53.79792216],[-120.50421896,53.81849839],[-120.56450715,53.81792207],[-120.57339426,53.82599166],[-120.56135634,53.83956158],[-120.57525731,53.86012631],[-120.59918152,53.87049711],[-120.62476232,53.86849804],[-120.64604218,53.89398688],[-120.66489302,53.90089669],[-120.70915947,53.89578926],[-120.76414589,53.90416176],[-120.78199845,53.88149633],[-120.86120637,53.93008666],[-120.93719602,53.89265197],[-120.95067585,53.8914629],[-120.97107656,53.91320502],[-121.00712569,53.90329577],[-121.0174184,53.91154334],[-120.99501049,53.93092218],[-120.99759757,53.95467906],[-121.06321792,53.98125842],[-121.10214202,54.01007104],[-121.17062277,54.01676059],[-121.1917271,54.02998816],[-121.23529806,54.03335013],[-121.28787266,54.06226907],[-121.32836835,54.06445225],[-121.39856018,54.11135894],[-121.48207028,54.11953296],[-121.49407136,54.14254619],[-121.51881477,54.15072739],[-121.56829765,54.13859891],[-121.64252485,54.1374484],[-121.62313795,54.09191766],[-121.60800934,54.07947853],[-121.62983759,54.06781472],[-121.64115187,54.07213662],[-121.64814717,54.1080396],[-121.66806111,54.11001773],[-121.74536867,54.1510636],[-121.7779081,54.15619808],[-121.81668182,54.14560119],[-121.90065764,54.17829086],[-122.0295477,54.18018135],[-122.03340768,54.20276802],[-121.97071758,54.24470358],[-121.9804304,54.26807984],[-122.01109466,54.2689173],[-122.00749681,54.28980175],[-122.0465624,54.29694945],[-122.05768703,54.31945255],[-122.14481691,54.33923853],[-122.15674314,54.35939313],[-122.18902353,54.38175019],[-122.19717009,54.3733484],[-122.22146168,54.3750795],[-122.23884959,54.39190699],[-122.28215396,54.39922874],[-122.30826163,54.41486636],[-122.32977033,54.40718598],[-122.33544282,54.39546207],[-122.35468347,54.3987225],[-122.41283647,54.37513153],[-122.40697445,54.36474061],[-122.37832562,54.3598686],[-122.3650073,54.34739682],[-122.41655447,54.34604545],[-122.44008574,54.32722045],[-122.45112927,54.33202546],[-122.48484882,54.31779837],[-122.5096267,54.32369875],[-122.51435871,54.3000025],[-122.4964226,54.28172648],[-122.5009597,54.27654174],[-122.58177104,54.2837058],[-122.58977171,54.27109205],[-122.61481937,54.27535832],[-122.6495169,54.26377613],[-122.64995331,54.25123775],[-122.67865161,54.23459411],[-122.75547114,54.24739049],[-122.7621656,54.26823757],[-122.77438493,54.26469704],[-122.8238838,54.28321281],[-122.78526828,54.31310442],[-122.7674334,54.31432858],[-122.77161362,54.32916145],[-122.7902309,54.33370815],[-122.78257347,54.34373842],[-122.737321,54.34652406],[-122.71452505,54.3587673],[-122.71883129,54.37597506],[-122.75010884,54.37750391],[-122.76200202,54.39079794],[-122.78553225,54.38645565],[-122.83791628,54.34759067],[-122.84126663,54.33344467],[-122.85992868,54.32812521],[-122.91308528,54.33945434],[-122.93791164,54.3576011],[-122.93913829,54.38911573],[-122.92426332,54.4259375],[-122.93177998,54.43861394],[-122.89503873,54.46336571],[-122.90373953,54.47829902],[-122.88505344,54.50394215],[-122.89631879,54.51125925],[-122.88660351,54.53309823],[-122.90548153,54.55371812],[-122.89250866,54.57962488],[-122.91746509,54.59696283],[-122.90841813,54.61213965],[-122.95620501,54.65321893],[-122.98387109,54.65933274],[-123.02000554,54.64959904],[-123.01266788,54.64260362],[-123.0296206,54.59998877],[-123.11169909,54.58552587],[-123.21916937,54.63384205],[-123.25685782,54.63242815],[-123.28708862,54.62010646],[-123.29262133,54.62337895],[-123.28104751,54.63591532],[-123.30503113,54.67703587],[-123.38572936,54.67197971],[-123.45405105,54.70258272],[-123.49167872,54.70354942],[-123.48720084,54.72070195],[-123.49583022,54.72866466],[-123.57511208,54.73158622],[-123.6222263,54.74863547],[-123.64616826,54.76931449],[-123.67913313,54.7584987],[-123.68771041,54.76686286],[-123.68852522,54.79436672],[-123.67911933,54.8023331],[-123.65462935,54.91629861],[-123.69803126,54.92585322],[-123.70878963,54.93353306],[-123.70714464,54.94542258],[-123.75977258,54.9631642],[-123.78911344,54.99386934],[-123.8166755,54.99889049],[-123.81406818,55.03710684],[-123.8397467,55.0474017],[-123.88404671,55.03943983],[-123.91786091,55.01795834],[-123.98444676,55.01951368]]]}},{"type":"Feature","id":"WHSE_BASEMAPPING.BC_MAJOR_WATERSHEDS.163","properties":{"sourceLayer":"WHSE_BASEMAPPING.BC_MAJOR_WATERSHEDS","boundaryCode":"WA2","boundaryName":"Parsnip River","OBJECTID":163,"MAJOR_WATERSHED_CODE":"WA2","MAJOR_WATERSHED_SYSTEM":"Parsnip River","FEATURE_AREA_SQM":5612479863.7656},"geometry":{"type":"Polygon","coordinates":[[[-122.7276637,55.34014273],[-122.72286781,55.32812709],[-122.74049239,55.32174949],[-122.73087838,55.2947119],[-122.74841328,55.28636612],[-122.74565461,55.2679206],[-122.78255738,55.25512364],[-122.78497276,55.22137595],[-122.79964257,55.21249605],[-122.8342703,55.21128599],[-122.85247,55.1984233],[-122.85642226,55.18172275],[-122.88386455,55.17834598],[-122.9000296,55.16066674],[-123.00178184,55.18630918],[-123.02141761,55.16886044],[-123.07238514,55.17074525],[-123.08490474,55.14610679],[-123.06774602,55.12497728],[-123.00814725,55.13705987],[-122.99399512,55.07426858],[-122.95160645,55.06188475],[-122.92014574,55.04294299],[-122.91727146,55.03076482],[-122.90007617,55.0316952],[-122.88674657,54.99727857],[-122.89973789,54.99287795],[-122.88304442,54.98566467],[-122.88963544,54.96006439],[-122.88190787,54.94560726],[-122.84561047,54.93180759],[-122.81374386,54.90179773],[-122.83731029,54.8693674],[-122.83992646,54.84548442],[-122.81543653,54.84296869],[-122.72713441,54.7916319],[-122.69700029,54.80006218],[-122.68771246,54.79133074],[-122.66079158,54.80960896],[-122.62820709,54.81010674],[-122.58925745,54.78806224],[-122.5916208,54.77743887],[-122.61723583,54.77614792],[-122.5796205,54.72620943],[-122.60535596,54.68043555],[-122.62195618,54.67262414],[-122.60037272,54.65840078],[-122.63659481,54.64143002],[-122.63525875,54.6349111],[-122.61674637,54.63151928],[-122.60588472,54.61662862],[-122.57565772,54.61491775],[-122.57428171,54.60594476],[-122.55156516,54.61412109],[-122.54714549,54.62621078],[-122.52284279,54.63163547],[-122.38124841,54.576937],[-122.35256256,54.59424021],[-122.28861001,54.59462669],[-122.26339483,54.57703204],[-122.26323668,54.56664178],[-122.19856559,54.53785692],[-122.22203877,54.50970001],[-122.21293933,54.50009673],[-122.22248693,54.49264522],[-122.19304596,54.47244164],[-122.14505825,54.4865589],[-122.10821577,54.46032464],[-122.09078251,54.48880974],[-122.07414251,54.47519264],[-122.07340138,54.4454117],[-122.0231016,54.43809016],[-121.98784745,54.44956805],[-121.8831393,54.39850087],[-121.86305344,54.4045402],[-121.87616052,54.41862083],[-121.87776308,54.44289426],[-121.86238993,54.4538329],[-121.76676244,54.41944618],[-121.71784874,54.40904063],[-121.69169547,54.41287267],[-121.6626046,54.38864489],[-121.63301018,54.40986746],[-121.58057407,54.40757667],[-121.58791388,54.4314732],[-121.57962084,54.43921356],[-121.5126492,54.42906425],[-121.4741907,54.41208601],[-121.46132015,54.44063157],[-121.44835693,54.44234458],[-121.42131803,54.46983123],[-121.41390168,54.4933596],[-121.44255855,54.51789298],[-121.41339076,54.54088316],[-121.39898624,54.54188831],[-121.39271629,54.55737916],[-121.44449686,54.57462305],[-121.44193033,54.58505574],[-121.45751466,54.60997928],[-121.48473117,54.60827245],[-121.49533924,54.61523762],[-121.49473521,54.6305514],[-121.52550497,54.64959859],[-121.52132555,54.6819427],[-121.4918825,54.69366875],[-121.48178395,54.70926852],[-121.4823837,54.72841264],[-121.49381699,54.74163811],[-121.48269614,54.74835742],[-121.5291669,54.76972002],[-121.52568942,54.7943116],[-121.54532692,54.80007681],[-121.55560378,54.81679093],[-121.64169396,54.84276797],[-121.65161317,54.85547334],[-121.72587338,54.88435232],[-121.74459623,54.88112272],[-121.73985134,54.86945426],[-121.79609825,54.83550662],[-121.809164,54.85618785],[-121.87363089,54.86885813],[-121.87269108,54.88395544],[-121.84046938,54.8979403],[-121.87215464,54.90096535],[-121.86937473,54.91266732],[-121.84884686,54.92567172],[-121.87464304,54.95121667],[-121.92308479,54.97243861],[-121.94760295,55.00706068],[-122.01397878,55.02894835],[-122.03946091,55.05753321],[-122.06825007,55.06598159],[-122.11243139,55.10055127],[-122.1368473,55.09315098],[-122.1729573,55.09851561],[-122.17773982,55.12257933],[-122.19257214,55.13784743],[-122.26663248,55.13271051],[-122.29402746,55.17052639],[-122.2775138,55.18917566],[-122.24786704,55.19205093],[-122.26335178,55.21020847],[-122.33441553,55.22800876],[-122.32837487,55.23169587],[-122.33969831,55.24645991],[-122.42967944,55.31411221],[-122.48265644,55.31332396],[-122.59408215,55.4069104],[-122.60653443,55.41028518],[-122.6422586,55.39584706],[-122.64909938,55.35547934],[-122.6638213,55.33997444],[-122.7276637,55.34014273]]]}},{"type":"Feature","id":"WHSE_BASEMAPPING.BC_MAJOR_WATERSHEDS.194","properties":{"sourceLayer":"WHSE_BASEMAPPING.BC_MAJOR_WATERSHEDS","boundaryCode":"WA2","boundaryName":"Quesnel River","OBJECTID":194,"MAJOR_WATERSHED_CODE":"WA2","MAJOR_WATERSHED_SYSTEM":"Quesnel River","FEATURE_AREA_SQM":11986033788.0643},"geometry":{"type":"Polygon","coordinates":[[[-121.17638054,53.2364122],[-121.10493255,53.24855437],[-121.06691812,53.22953564],[-120.99309239,53.22973922],[-120.98454666,53.21142114],[-120.99074435,53.19240701],[-120.93462827,53.18209217],[-120.91522201,53.1358122],[-120.92849943,53.12255415],[-120.96530622,53.1288623],[-121.04452946,53.1153848],[-121.10178309,53.11956888],[-121.1684033,53.09299828],[-121.21232219,53.09991491],[-121.2299511,53.08986712],[-121.23138508,53.05189793],[-121.25972732,53.02420248],[-121.29840335,53.03562311],[-121.38642563,53.01682916],[-121.39786401,53.00378589],[-121.3808979,52.98567742],[-121.38398085,52.97190524],[-121.37474997,52.96062234],[-121.3874565,52.9458754],[-121.37785319,52.93222184],[-121.41675733,52.91154625],[-121.4287562,52.87782483],[-121.46004079,52.86798939],[-121.48157463,52.84469559],[-121.49312282,52.860681],[-121.52653215,52.87059885],[-121.61252019,52.8587721],[-121.61454804,52.83989233],[-121.63037798,52.82628071],[-121.59550645,52.81084067],[-121.62124935,52.78764204],[-121.60177004,52.75394219],[-121.57606446,52.74074831],[-121.58515478,52.73305744],[-121.6780901,52.74535357],[-121.67514436,52.73769574],[-121.69947555,52.72269516],[-121.72543499,52.73682808],[-121.86127255,52.76724039],[-121.8672632,52.76470834],[-121.84726155,52.74118997],[-121.90720498,52.74572598],[-121.9326825,52.73203383],[-121.98386985,52.73180018],[-121.98643211,52.7087931],[-122.00046039,52.70731149],[-122.02050482,52.73670354],[-122.04826532,52.75229909],[-122.03877894,52.77472955],[-122.07815581,52.8006382],[-122.08568529,52.83717859],[-122.0714094,52.85488613],[-122.11896607,52.90405461],[-122.12965079,52.91996457],[-122.12553843,52.93285377],[-122.15201776,52.93659202],[-122.17927288,52.95988804],[-122.18913824,52.99056136],[-122.25431811,53.00371817],[-122.27636366,53.02257057],[-122.32811854,53.03991547],[-122.46046244,53.11442147],[-122.47391245,53.1134068],[-122.47051955,53.0928534],[-122.4803848,53.07450913],[-122.47437965,53.05551085],[-122.49033411,53.03849466],[-122.48966684,53.01986197],[-122.51144468,53.00228448],[-122.48677045,52.98237208],[-122.49509117,52.96499335],[-122.46265796,52.95286392],[-122.43979931,52.91757151],[-122.35049279,52.89881714],[-122.31030625,52.85254934],[-122.30746439,52.81972541],[-122.2902451,52.79063888],[-122.29563072,52.77656581],[-122.26829448,52.74796476],[-122.28966485,52.71587408],[-122.23601186,52.66397228],[-122.23887477,52.63999987],[-122.22954156,52.61561861],[-122.25111362,52.60470828],[-122.21937007,52.58774103],[-122.20987364,52.56979458],[-122.23148687,52.54624873],[-122.22383726,52.53063938],[-122.23321798,52.515899],[-122.20597533,52.50172606],[-120.4770746,52.50127943],[-120.45129307,52.50521539],[-120.43440377,52.52374455],[-120.39817859,52.53485674],[-120.3683302,52.52434533],[-120.35786861,52.52939977],[-120.32177797,52.57367089],[-120.28334201,52.5930953],[-120.2852555,52.61144636],[-120.23749368,52.62228925],[-120.23487358,52.63506952],[-120.29167854,52.65503161],[-120.2637789,52.68007403],[-120.29284454,52.704968],[-120.27362279,52.71124539],[-120.29746952,52.7284898],[-120.27739166,52.7461308],[-120.29747199,52.75440407],[-120.29350489,52.77122886],[-120.32419188,52.7799459],[-120.31492106,52.80476844],[-120.29868167,52.81429199],[-120.3250348,52.82039635],[-120.33173124,52.83706168],[-120.30571315,52.85783843],[-120.27365484,52.86598025],[-120.25767634,52.85414208],[-120.24421849,52.85663306],[-120.21354506,52.87623628],[-120.16885793,52.85673327],[-120.140379,52.88141618],[-120.15790562,52.89176513],[-120.17300334,52.91826904],[-120.20093803,52.93176488],[-120.2281214,52.91866117],[-120.26664622,52.92859742],[-120.31885239,52.92302371],[-120.33590162,52.92610728],[-120.37675706,52.96268873],[-120.41926572,52.95690399],[-120.43770509,52.9710068],[-120.43452452,52.98580257],[-120.44817702,53.00734436],[-120.48654458,53.01326587],[-120.47857427,53.02449944],[-120.48028412,53.06011925],[-120.45594474,53.06899465],[-120.3985413,53.06654806],[-120.41753539,53.07694099],[-120.42577592,53.11016469],[-120.46561465,53.11819097],[-120.45502385,53.12882124],[-120.4703982,53.15557952],[-120.53798326,53.17314656],[-120.5500846,53.18690949],[-120.59555312,53.18784396],[-120.71763164,53.2652793],[-120.76956155,53.25086282],[-120.79447724,53.25905427],[-120.80992359,53.28423803],[-120.86565563,53.28554666],[-120.91387306,53.30567616],[-120.93953219,53.2981613],[-120.93431079,53.28223883],[-120.97698459,53.27702575],[-120.97789354,53.30235197],[-121.0141566,53.32724868],[-120.99811759,53.38163423],[-121.00353145,53.4197832],[-121.01511861,53.42760511],[-121.05001423,53.4085694],[-121.04931411,53.39684358],[-121.08255275,53.38858094],[-121.11156055,53.39453673],[-121.11954854,53.36283927],[-121.15305747,53.35724549],[-121.1544135,53.33387557],[-121.21443499,53.3013569],[-121.19512497,53.27511302],[-121.19800116,53.25566607],[-121.17638054,53.2364122]]]}},{"type":"Feature","id":"WHSE_BASEMAPPING.BC_MAJOR_WATERSHEDS.171","properties":{"sourceLayer":"WHSE_BASEMAPPING.BC_MAJOR_WATERSHEDS","boundaryCode":"WA2","boundaryName":"McGregor River","OBJECTID":171,"MAJOR_WATERSHED_CODE":"WA2","MAJOR_WATERSHED_SYSTEM":"McGregor River","FEATURE_AREA_SQM":5532054602.8826},"geometry":{"type":"Polygon","coordinates":[[[-121.39865168,54.54203283],[-121.43912381,54.52427464],[-121.44216983,54.5122608],[-121.41691566,54.49602805],[-121.41682395,54.47858532],[-121.44786866,54.44266189],[-121.4607388,54.44109135],[-121.4741907,54.41208601],[-121.5126492,54.42906425],[-121.58176414,54.44041104],[-121.58782113,54.43084261],[-121.58155145,54.40735515],[-121.62857067,54.41054534],[-121.66137659,54.39024039],[-121.6902776,54.4125241],[-121.76344311,54.418697],[-121.85868149,54.45334812],[-121.87760881,54.43927131],[-121.87683848,54.41982275],[-121.86183217,54.40633513],[-121.8872364,54.39884113],[-121.93945401,54.42010131],[-121.94976017,54.43769495],[-121.98598449,54.44908503],[-122.02198022,54.4382611],[-122.07183801,54.44466261],[-122.0767219,54.47968116],[-122.09293354,54.49003939],[-122.10616341,54.46212212],[-122.14926167,54.48847136],[-122.18752346,54.47176017],[-122.2018964,54.48306968],[-122.22171036,54.48252465],[-122.24806916,54.45284847],[-122.28526287,54.45705551],[-122.32093725,54.44141607],[-122.30301784,54.42845373],[-122.30464567,54.41375765],[-122.2844486,54.40020371],[-122.24290111,54.39265214],[-122.21551078,54.37394485],[-122.18916912,54.38180521],[-122.15674314,54.35939313],[-122.14520595,54.33955592],[-122.05768703,54.31945255],[-122.04320491,54.29611338],[-122.00492381,54.28814628],[-122.01366422,54.27071784],[-121.9759901,54.26491314],[-121.97119938,54.24391249],[-122.03520917,54.20113878],[-122.03450086,54.18227954],[-121.94240684,54.17352922],[-121.89731621,54.17857605],[-121.81488734,54.1454859],[-121.78251627,54.15524677],[-121.74997642,54.15228451],[-121.66806111,54.11001773],[-121.64882764,54.10846971],[-121.64187598,54.07236471],[-121.62983759,54.06781472],[-121.60840579,54.07816658],[-121.64427165,54.13578831],[-121.57029038,54.13825777],[-121.52089669,54.15198328],[-121.49109677,54.14037784],[-121.48265796,54.12004308],[-121.3999628,54.11195718],[-121.32788137,54.06436439],[-121.28845158,54.06227314],[-121.23399346,54.03272503],[-121.1908119,54.02941679],[-121.16995204,54.01672701],[-121.09964049,54.0088131],[-121.08858527,53.99443088],[-120.99492706,53.95228827],[-120.99688693,53.92784671],[-121.01782977,53.91426465],[-121.00591994,53.90300545],[-120.97233558,53.91212523],[-120.95159816,53.89200411],[-120.93216656,53.89367594],[-120.86348678,53.93025753],[-120.7852856,53.88155695],[-120.7588737,53.90390637],[-120.70915947,53.89578926],[-120.65898914,53.89983272],[-120.62891409,53.86878248],[-120.6033866,53.87153408],[-120.57362422,53.85858717],[-120.56102868,53.83694334],[-120.57385165,53.8222384],[-120.55373405,53.81402149],[-120.50353962,53.8184392],[-120.47316764,53.7980368],[-120.40598197,53.79191719],[-120.38594098,53.77826947],[-120.30187885,53.78665587],[-120.25410462,53.77318965],[-120.24222574,53.76008146],[-120.17556897,53.77950543],[-120.12495458,53.77848623],[-120.09818191,53.79495203],[-120.04224352,53.79794518],[-120.04891186,53.84056013],[-120.0199268,53.85119061],[-120.01558702,53.8634015],[-120.05093375,53.88127041],[-120.07057983,53.9053862],[-120.05693123,53.92322952],[-120.07822514,53.97950171],[-120.10399632,53.98369178],[-120.12787565,53.97317421],[-120.15991997,53.94178292],[-120.21281524,53.93989813],[-120.21978719,53.9494873],[-120.21278293,53.9747344],[-120.26251136,53.98166838],[-120.25572959,54.01684894],[-120.23374157,54.04226132],[-120.20473533,54.0301624],[-120.1798786,54.04529362],[-120.16751896,54.07431432],[-120.17811603,54.09108995],[-120.19062119,54.0933017],[-120.18336503,54.11457584],[-120.26600739,54.11231475],[-120.28246379,54.12051407],[-120.32951375,54.10479662],[-120.39565213,54.12165234],[-120.4319381,54.11177919],[-120.46531639,54.13243643],[-120.53086725,54.13472203],[-120.58666317,54.17876356],[-120.56806952,54.21181971],[-120.58550219,54.22828933],[-120.58311474,54.25477074],[-120.59828926,54.28370825],[-120.62873805,54.29240156],[-120.63370418,54.28149588],[-120.65102515,54.28814532],[-120.67948897,54.28288914],[-120.72838593,54.29772261],[-120.68927871,54.32078939],[-120.69776952,54.34878316],[-120.67277469,54.35087479],[-120.66435166,54.36255175],[-120.69618922,54.39448382],[-120.73346051,54.40948319],[-120.77776342,54.39745159],[-120.8034208,54.42867901],[-120.80056676,54.46643167],[-120.81934395,54.47172547],[-120.81386629,54.48396009],[-120.8235695,54.49242303],[-120.87421437,54.49060008],[-120.87690657,54.46212976],[-120.93228876,54.45018205],[-120.95160621,54.46234082],[-121.00801798,54.46637107],[-121.04574612,54.45375609],[-121.06258369,54.46702101],[-121.07564438,54.45627696],[-121.12885184,54.48254549],[-121.12299381,54.49842323],[-121.13886255,54.50922597],[-121.12371818,54.53754521],[-121.126412,54.54907427],[-121.24833658,54.54718401],[-121.26658574,54.53671538],[-121.26957794,54.51830432],[-121.28869609,54.51311144],[-121.31948845,54.51255551],[-121.32182238,54.52269073],[-121.36525675,54.5389297],[-121.39667537,54.53266299],[-121.39865168,54.54203283]]]}},{"type":"Feature","id":"WHSE_BASEMAPPING.BC_MAJOR_WATERSHEDS.207","properties":{"sourceLayer":"WHSE_BASEMAPPING.BC_MAJOR_WATERSHEDS","boundaryCode":"WA2","boundaryName":"North Thompson River","OBJECTID":207,"MAJOR_WATERSHED_CODE":"WA2","MAJOR_WATERSHED_SYSTEM":"North Thompson River","FEATURE_AREA_SQM":20751666848.5475},"geometry":{"type":"Polygon","coordinates":[[[-120,52.5],[-120,52.74676226817341],[-120.02219148,52.76978197],[-120.04378171,52.81869098],[-120.09400758,52.83970019],[-120.13007971,52.8747556],[-120.17532257,52.85837466],[-120.21242451,52.87696524],[-120.24168967,52.85639871],[-120.27365484,52.86598025],[-120.31213224,52.85801057],[-120.33442289,52.83392092],[-120.32307543,52.81947117],[-120.30113103,52.81525607],[-120.31821349,52.8070823],[-120.32601813,52.78111599],[-120.29350489,52.77122886],[-120.29747199,52.75440407],[-120.27888946,52.74798169],[-120.29730854,52.72929091],[-120.27033376,52.71395416],[-120.28693729,52.70540842],[-120.26256901,52.68233033],[-120.2658586,52.67054439],[-120.28901525,52.65635122],[-120.23487358,52.63506952],[-120.23749368,52.62228925],[-120.285113,52.6129585],[-120.28522299,52.58991033],[-120.29771536,52.59110882],[-120.30787964,52.57522108],[-120.32481773,52.57037156],[-120.36614646,52.52549274],[-120.40325364,52.53392937],[-120.43855893,52.5210695],[-120.45055745,52.50645358],[-120.49611838,52.50024082],[-120,52.5]]]}},{"type":"Feature","id":"WHSE_BASEMAPPING.BC_MAJOR_WATERSHEDS.161","properties":{"sourceLayer":"WHSE_BASEMAPPING.BC_MAJOR_WATERSHEDS","boundaryCode":"WA2","boundaryName":"Smoky River","OBJECTID":161,"MAJOR_WATERSHED_CODE":"WA2","MAJOR_WATERSHED_SYSTEM":"Smoky River","FEATURE_AREA_SQM":5087742780.5002},"geometry":{"type":"Polygon","coordinates":[[[-120.00141725,55.42271592],[-120.03496338,55.42036984],[-120.02697894,55.39270321],[-120.03635577,55.37587746],[-120.14543137,55.36112131],[-120.13396141,55.34636162],[-120.08963553,55.34773469],[-120.08179318,55.3315724],[-120.05669712,55.3247853],[-120.07414806,55.30298867],[-120.09330288,55.30680747],[-120.16829179,55.2917367],[-120.19145006,55.26901384],[-120.17947259,55.22982913],[-120.18731464,55.21295664],[-120.16917176,55.19532123],[-120.18800906,55.18088753],[-120.14461967,55.16715029],[-120.17210206,55.15203159],[-120.14708073,55.13329023],[-120.12238363,55.14322807],[-120.10081663,55.13175976],[-120.11999226,55.10708779],[-120.11899115,55.07128532],[-120.16323879,55.01642626],[-120.24931498,55.000113],[-120.44884742,55.01364112],[-120.54775795,54.99004314],[-120.59108492,54.96462152],[-120.59223056,54.94129444],[-120.65821215,54.91757292],[-120.62023397,54.89400772],[-120.64421981,54.86580954],[-120.6439757,54.85319732],[-120.61913486,54.84984118],[-120.5992279,54.81738592],[-120.61600729,54.80946025],[-120.62262362,54.77817353],[-120.64091813,54.76006721],[-120.7541232,54.75739343],[-120.69570606,54.72197814],[-120.72843212,54.71364195],[-120.74406677,54.68788888],[-120.76219854,54.68591457],[-120.76018095,54.67689336],[-120.74770153,54.67563735],[-120.77848018,54.65156222],[-120.77076038,54.63431867],[-120.78413468,54.61340912],[-120.82645309,54.6080994],[-120.90838368,54.62799292],[-120.94082685,54.62040504],[-120.90003936,54.60176835],[-120.84412506,54.55774619],[-120.8556208,54.51855662],[-120.81509373,54.48712824],[-120.81640601,54.46966708],[-120.79876046,54.46786385],[-120.80479386,54.43249703],[-120.78407185,54.40282232],[-120.75865293,54.39712574],[-120.73506838,54.40908217],[-120.69852421,54.39701913],[-120.67316337,54.37637766],[-120.66468866,54.35453088],[-120.70166041,54.34586436],[-120.6976091,54.33004598],[-120.68577607,54.32492919],[-120.72599789,54.29647347],[-120.68230317,54.28263282],[-120.65511394,54.28915084],[-120.6368171,54.28171878],[-120.62289502,54.29080308],[-120.59925716,54.28439208],[-120.58369361,54.25708399],[-120.58699065,54.23334451],[-120.56801594,54.21153931],[-120.5865242,54.17779867],[-120.53580499,54.13743384],[-120.51145126,54.12880564],[-120.46259952,54.13204302],[-120.43000116,54.11221404],[-120.40031385,54.12157902],[-120.32519401,54.10423825],[-120.27886982,54.11860974],[-120.23316252,54.11111574],[-120.18754497,54.11828355],[-120.18039758,54.10832934],[-120.18998668,54.0920463],[-120.17753718,54.09080584],[-120.1681831,54.06717328],[-120.18103883,54.04489388],[-120.2061849,54.02970611],[-120.23567218,54.04070957],[-120.26148162,54.00456282],[-120.25904867,53.97928302],[-120.21278293,53.9747344],[-120.21969648,53.94960206],[-120.21281524,53.93989813],[-120.1572042,53.94219057],[-120.12647204,53.9740296],[-120.10326327,53.98369637],[-120.07739272,53.97884768],[-120.05506817,53.91938505],[-120.06729114,53.91454454],[-120.0683826,53.90273821],[-120.01546418,53.8594651],[-120.043479,53.8459873],[-120.05101704,53.82858064],[-120.04003111,53.80658994],[-120.00965951,53.79728938],[-120.00132954,53.8280415],[-120.00141725,55.42271592]]]}}]}
