{"type":"FeatureCollection","features":[{"type":"Feature","geometry":{"type":"Polygon","coordinates":[[[-131.166528,57.906087],[-131.16861,57.90546],[-131.169844,57.906845],[-131.184359,57.902368],[-131.180992,57.899846],[-131.16559,57.905256],[-131.166528,57.906087]]]},"properties":{"id":"59490097","boundaryCode":"59490097","boundaryName":"DA 59490097","boundarySource":"census","boundaryLevel":"bcDaSimplified","boundaryDetail":"overview","DAUID":"59490097","DGUID":"2021S051259490097","PRUID":"59","CDUID":"5949","CDNAME":"Kitimat-Stikine","CDTYPE":"RD","CSDUID":"5949843","CSDNAME":"Guhthe Tah 12","CSDTYPE":"IRI","CTUID":null,"CTNAME":null,"parentCdId":"5949","parentCdName":"Kitimat-Stikine","parentCsdId":"5949843","parentCsdName":"Guhthe Tah 12","parentCtId":null,"parentCtName":null,"LANDAREA":0.31010000000000004,"areaKm2":0.3091975118829341},"id":57154},{"type":"Feature","geometry":{"type":"Polygon","coordinates":[[[-131.156674,57.909915],[-131.157152,57.916306],[-131.163926,57.916173],[-131.163452,57.905597],[-131.15634,57.905443],[-131.156674,57.909915]]]},"properties":{"id":"59490218","boundaryCode":"59490218","boundaryName":"DA 59490218","boundarySource":"census","boundaryLevel":"bcDaSimplified","boundaryDetail":"overview","DAUID":"59490218","DGUID":"2021S051259490218","PRUID":"59","CDUID":"5949","CDNAME":"Kitimat-Stikine","CDTYPE":"RD","CSDUID":"5949847","CSDNAME":"Telegraph Creek","CSDTYPE":"IRI","CTUID":null,"CTNAME":null,"parentCdId":"5949","parentCdName":"Kitimat-Stikine","parentCsdId":"5949847","parentCsdName":"Telegraph Creek","parentCtId":null,"parentCtName":null,"LANDAREA":0.4914,"areaKm2":0.48992645578299376},"id":57251},{"type":"Feature","geometry":{"type":"Polygon","coordinates":[[[-131.00078,58.012376],[-131.007534,58.012403],[-131.008093,58.00533],[-131.001393,58.005261],[-130.989737,58.005556],[-130.982104,58.009548],[-130.972981,58.010803],[-130.965565,58.015716],[-130.987476,58.015334],[-130.987532,58.012367],[-131.00078,58.012376]]]},"properties":{"id":"59490220","boundaryCode":"59490220","boundaryName":"DA 59490220","boundarySource":"census","boundaryLevel":"bcDaSimplified","boundaryDetail":"overview","DAUID":"59490220","DGUID":"2021S051259490220","PRUID":"59","CDUID":"5949","CDNAME":"Kitimat-Stikine","CDTYPE":"RD","CSDUID":"5949846","CSDNAME":"Tahltan 1","CSDTYPE":"IRI","CTUID":null,"CTNAME":null,"parentCdId":"5949","parentCdName":"Kitimat-Stikine","parentCsdId":"5949846","parentCsdName":"Tahltan 1","parentCtId":null,"parentCtName":null,"LANDAREA":1.5452000000000001,"areaKm2":1.6429081703260409},"id":57253},{"type":"Feature","geometry":{"type":"Polygon","coordinates":[[[-133.677964,59.516246],[-133.680583,59.518374],[-133.678704,59.510398],[-133.682278,59.50801],[-133.665366,59.489291],[-133.64609,59.477184],[-133.624051,59.47721],[-133.624361,59.484376],[-133.60969,59.483763],[-133.610528,59.491423],[-133.616254,59.491363],[-133.616521,59.49418],[-133.638841,59.495429],[-133.63849,59.499272],[-133.647444,59.501628],[-133.646876,59.502574],[-133.642945,59.501015],[-133.638252,59.501876],[-133.638266,59.512604],[-133.649937,59.513382],[-133.650373,59.507001],[-133.65274,59.506612],[-133.664051,59.5083],[-133.671641,59.514332],[-133.679157,59.514642],[-133.677964,59.516246]]]},"properties":{"id":"59570209","boundaryCode":"59570209","boundaryName":"DA 59570209","boundarySource":"census","boundaryLevel":"bcDaSimplified","boundaryDetail":"overview","DAUID":"59570209","DGUID":"2021S051259570209","PRUID":"59","CDUID":"5957","CDNAME":"Stikine","CDTYPE":"REG","CSDUID":"5957803","CSDNAME":"Five Mile Point 3","CSDTYPE":"IRI","CTUID":null,"CTNAME":null,"parentCdId":"5957","parentCdName":"Stikine","parentCsdId":"5957803","parentCsdName":"Five Mile Point 3","parentCtId":null,"parentCtName":null,"LANDAREA":7.859800000000001,"areaKm2":8.720652048873834},"id":57687},{"type":"Feature","geometry":{"type":"Polygon","coordinates":[[[-133.263479,59.786204],[-133.804662,59.901409],[-133.803472,59.890049],[-133.808172,59.882139],[-133.807657,59.872597],[-133.799459,59.858111],[-133.804886,59.845031],[-133.800725,59.839253],[-133.800374,59.829445],[-133.793839,59.811786],[-133.798233,59.801976],[-133.797575,59.785332],[-133.799719,59.779938],[-133.785163,59.766136],[-133.714312,59.516465],[-133.592608,59.372344],[-133.590147,59.373185],[-133.589259,59.370663],[-133.578674,59.366848],[-133.579663,59.364892],[-133.574023,59.364952],[-133.569446,59.362843],[-133.56591,59.358406],[-133.567435,59.355355],[-133.56381,59.355682],[-133.565814,59.352576],[-133.558826,59.348624],[-133.549269,59.347289],[-133.549251,59.342972],[-133.524451,59.338932],[-133.523323,59.336918],[-133.516857,59.337594],[-133.506976,59.335031],[-133.504955,59.336246],[-133.504085,59.333281],[-133.499561,59.333252],[-133.498842,59.334744],[-133.489699,59.327947],[-133.484595,59.328576],[-133.483513,59.32582],[-133.474787,59.327633],[-133.468603,59.325378],[-133.460371,59.325215],[-133.456468,59.332784],[-133.443708,59.338304],[-133.448502,59.342877],[-133.447017,59.347587],[-133.439412,59.352576],[-133.416533,59.360833],[-133.410282,59.365481],[-133.412245,59.36558],[-133.409808,59.370761],[-133.38603,59.393241],[-133.382392,59.399613],[-133.386035,59.406756],[-133.396133,59.411237],[-133.397942,59.418183],[-133.386688,59.438011],[-133.376194,59.46736],[-133.363259,59.47761],[-133.263479,59.786204]],[[-133.677964,59.516246],[-133.679157,59.514642],[-133.671641,59.514332],[-133.664051,59.5083],[-133.65274,59.506612],[-133.650373,59.507001],[-133.649937,59.513382],[-133.638266,59.512604],[-133.638252,59.501876],[-133.642945,59.501015],[-133.646876,59.502574],[-133.647444,59.501628],[-133.63849,59.499272],[-133.638841,59.495429],[-133.616521,59.49418],[-133.616254,59.491363],[-133.610528,59.491423],[-133.60969,59.483763],[-133.624361,59.484376],[-133.624051,59.47721],[-133.64609,59.477184],[-133.665366,59.489291],[-133.682278,59.50801],[-133.678704,59.510398],[-133.680583,59.518374],[-133.677964,59.516246]],[[-133.701557,59.56574],[-133.703979,59.565765],[-133.710543,59.572483],[-133.724492,59.579668],[-133.727328,59.584268],[-133.709035,59.587047],[-133.706708,59.578853],[-133.701202,59.579725],[-133.700662,59.577969],[-133.692443,59.57693],[-133.678246,59.579493],[-133.66963,59.570064],[-133.676744,59.567015],[-133.672201,59.565024],[-133.670208,59.566241],[-133.665141,59.563607],[-133.672143,59.561351],[-133.677479,59.565043],[-133.682811,59.5649],[-133.681657,59.567323],[-133.691451,59.567915],[-133.690557,59.566503],[-133.701557,59.56574]]]},"properties":{"id":"59570210","boundaryCode":"59570210","boundaryName":"DA 59570210","boundarySource":"census","boundaryLevel":"bcDaSimplified","boundaryDetail":"overview","DAUID":"59570210","DGUID":"2021S051259570210","PRUID":"59","CDUID":"5957","CDNAME":"Stikine","CDTYPE":"REG","CSDUID":"5957022","CSDNAME":"Stikine Region","CSDTYPE":"RDA","CTUID":null,"CTNAME":null,"parentCdId":"5957","parentCdName":"Stikine","parentCsdId":"5957022","parentCsdName":"Stikine Region","parentCtId":null,"parentCtName":null,"LANDAREA":1146.3319000000001,"areaKm2":1214.2206899210187},"id":57688},{"type":"Feature","geometry":{"type":"Polygon","coordinates":[[[-133.703792,59.567372],[-133.704625,59.567751],[-133.704226,59.567121],[-133.703792,59.567372]]]},"properties":{"id":"59570217","boundaryCode":"59570217","boundaryName":"DA 59570217","boundarySource":"census","boundaryLevel":"bcDaSimplified","boundaryDetail":"overview","DAUID":"59570217","DGUID":"2021S051259570217","PRUID":"59","CDUID":"5957","CDNAME":"Stikine","CDTYPE":"REG","CSDUID":"5957802","CSDNAME":"Unnamed 10","CSDTYPE":"IRI","CTUID":null,"CTNAME":null,"parentCdId":"5957","parentCdName":"Stikine","parentCsdId":"5957802","parentCsdName":"Unnamed 10","parentCtId":null,"parentCtName":null,"LANDAREA":0.0024000000000000002,"areaKm2":0.002416932104603748},"id":57689},{"type":"Feature","geometry":{"type":"Polygon","coordinates":[[[-133.701888,59.569586],[-133.703304,59.567205],[-133.700801,59.567448],[-133.701888,59.569586]]]},"properties":{"id":"59570218","boundaryCode":"59570218","boundaryName":"DA 59570218","boundarySource":"census","boundaryLevel":"bcDaSimplified","boundaryDetail":"overview","DAUID":"59570218","DGUID":"2021S051259570218","PRUID":"59","CDUID":"5957","CDNAME":"Stikine","CDTYPE":"REG","CSDUID":"5957802","CSDNAME":"Unnamed 10","CSDTYPE":"IRI","CTUID":null,"CTNAME":null,"parentCdId":"5957","parentCdName":"Stikine","parentCsdId":"5957802","parentCsdName":"Unnamed 10","parentCtId":null,"parentCtName":null,"LANDAREA":0.024200000000000003,"areaKm2":0.02645915359776734},"id":57690},{"type":"Feature","geometry":{"type":"Polygon","coordinates":[[[-133.701557,59.56574],[-133.690557,59.566503],[-133.691451,59.567915],[-133.681657,59.567323],[-133.682811,59.5649],[-133.677479,59.565043],[-133.672143,59.561351],[-133.665141,59.563607],[-133.670208,59.566241],[-133.672201,59.565024],[-133.676744,59.567015],[-133.66963,59.570064],[-133.678246,59.579493],[-133.692443,59.57693],[-133.700662,59.577969],[-133.701202,59.579725],[-133.706708,59.578853],[-133.709035,59.587047],[-133.727328,59.584268],[-133.724492,59.579668],[-133.710543,59.572483],[-133.703979,59.565765],[-133.701557,59.56574]],[[-133.703792,59.567372],[-133.704226,59.567121],[-133.704625,59.567751],[-133.703792,59.567372]],[[-133.701888,59.569586],[-133.700801,59.567448],[-133.703304,59.567205],[-133.701888,59.569586]]]},"properties":{"id":"59570219","boundaryCode":"59570219","boundaryName":"DA 59570219","boundarySource":"census","boundaryLevel":"bcDaSimplified","boundaryDetail":"overview","DAUID":"59570219","DGUID":"2021S051259570219","PRUID":"59","CDUID":"5957","CDNAME":"Stikine","CDTYPE":"REG","CSDUID":"5957022","CSDNAME":"Stikine Region","CSDTYPE":"RDA","CTUID":null,"CTNAME":null,"parentCdId":"5957","parentCdName":"Stikine","parentCsdId":"5957022","parentCsdName":"Stikine Region","parentCtId":null,"parentCtName":null,"LANDAREA":3.6618000000000004,"areaKm2":3.927989157111192},"id":57691},{"type":"Feature","geometry":{"type":"Polygon","coordinates":[[[-128.522584,56.08373],[-128.511448,56.076763],[-128.405762,56.035274],[-128.391545,56.027759],[-128.36878,56.009037],[-128.364645,56.003184],[-127.941551,55.999941],[-127.915589,55.997563],[-127.918239,56.002819],[-127.024332,56.000108],[-126.50022,55.999973],[-125.939807,55.99949],[-125.24995,56.00006],[-124.440704,55.998932],[-124.485075,56.043002],[-124.49765,56.067258],[-124.493219,56.089185],[-124.479108,56.106978],[-124.475434,56.118882],[-124.479061,56.11921],[-124.484016,56.130009],[-124.504265,56.132454],[-124.53215,56.127019],[-124.590224,56.122061],[-124.623576,56.116155],[-124.661035,56.116122],[-124.715482,56.133806],[-124.768864,56.170325],[-124.795218,56.200009],[-124.832871,56.223543],[-124.89466,56.242239],[-124.923525,56.244378],[-124.946725,56.240082],[-124.980199,56.229416],[-124.980935,56.221893],[-124.98556,56.215204],[-124.99871,56.210394],[-125.041672,56.20311],[-125.054724,56.203539],[-125.060284,56.207902],[-125.053508,56.228956],[-125.063679,56.263074],[-125.090526,56.276653],[-125.119114,56.303601],[-125.158299,56.300467],[-125.189046,56.294748],[-125.203071,56.286253],[-125.212232,56.277856],[-125.226427,56.271912],[-125.23445,56.265337],[-125.236077,56.255287],[-125.245482,56.25057],[-125.265913,56.247991],[-125.292185,56.247062],[-125.313758,56.248714],[-125.316464,56.250116],[-125.324648,56.243997],[-125.377882,56.253092],[-125.403792,56.252954],[-125.457706,56.233359],[-125.574807,56.168997],[-125.608506,56.153294],[-125.635198,56.15127],[-125.644377,56.152917],[-125.649943,56.157302],[-125.653207,56.16917],[-125.647322,56.19697],[-125.648395,56.208522],[-125.644832,56.217449],[-125.645534,56.226017],[-125.656646,56.228591],[-125.67314,56.222144],[-125.737637,56.190581],[-125.804069,56.169721],[-125.865658,56.145209],[-125.931992,56.147107],[-125.955519,56.142933],[-125.961991,56.14691],[-125.962927,56.153586],[-125.971747,56.166347],[-125.972649,56.185704],[-125.979362,56.1979],[-125.982929,56.214344],[-125.983415,56.233366],[-125.98064,56.245635],[-126.043236,56.254319],[-126.098432,56.265746],[-126.116341,56.271928],[-126.194766,56.342387],[-126.195855,56.350361],[-126.162418,56.365913],[-126.13332,56.376361],[-126.100381,56.392623],[-126.091071,56.404037],[-126.09331,56.412666],[-126.101891,56.425444],[-126.182475,56.464903],[-126.196508,56.473538],[-126.193102,56.481052],[-126.141944,56.529506],[-126.142251,56.538947],[-126.158555,56.554534],[-126.160833,56.563175],[-126.143046,56.576683],[-126.142583,56.583782],[-126.159655,56.591605],[-126.162188,56.60043],[-126.170429,56.612166],[-126.188961,56.625326],[-126.231287,56.647306],[-126.296152,56.671221],[-126.331528,56.677375],[-126.353037,56.676247],[-126.37836,56.67124],[-126.417689,56.654784],[-126.449218,56.655001],[-126.488332,56.6647],[-126.653425,56.760609],[-126.674856,56.771765],[-126.692705,56.774956],[-126.705391,56.773066],[-126.717242,56.766348],[-126.766123,56.724546],[-126.811506,56.680328],[-126.856701,56.677336],[-126.902294,56.692482],[-126.91707,56.690743],[-126.927699,56.684601],[-126.931131,56.667874],[-126.937511,56.661553],[-126.96785,56.645191],[-126.992902,56.63223],[-127.03793,56.617978],[-127.065908,56.613183],[-127.101094,56.613541],[-127.128882,56.626402],[-127.188058,56.696545],[-127.207542,56.729891],[-127.222304,56.745908],[-127.26925,56.732773],[-127.333111,56.706042],[-127.362306,56.689968],[-127.405403,56.676466],[-127.415875,56.67682],[-127.454185,56.693176],[-127.532757,56.740675],[-127.531613,56.74345],[-127.521936,56.745477],[-127.513149,56.750096],[-127.514704,56.76106],[-127.523334,56.773055],[-127.56661,56.804021],[-127.568471,56.812895],[-127.574567,56.821542],[-127.586126,56.827953],[-127.603371,56.83399],[-127.617766,56.846475],[-127.616332,56.849968],[-127.610835,56.85328],[-127.572262,56.85376],[-127.565442,56.857878],[-127.56401,56.861661],[-127.603826,56.888785],[-127.60505,56.894448],[-127.597497,56.901289],[-127.544807,56.93136],[-127.536335,56.953976],[-127.541096,56.969002],[-127.561193,56.97718],[-127.578774,56.978554],[-127.677114,56.976783],[-127.706446,56.99077],[-127.723025,57.006102],[-127.732888,57.019637],[-127.738217,57.035533],[-127.738432,57.061664],[-127.732973,57.082074],[-127.730368,57.109971],[-127.716525,57.1326],[-127.696975,57.140906],[-127.602395,57.151651],[-127.558304,57.15999],[-127.521555,57.170687],[-127.476478,57.196083],[-127.467289,57.210037],[-127.473369,57.24164],[-127.491255,57.303448],[-127.489116,57.322667],[-127.480291,57.335698],[-127.411208,57.38298],[-127.374284,57.4182],[-127.346277,57.424258],[-127.330399,57.432962],[-127.312465,57.438993],[-127.302922,57.446677],[-127.301549,57.453574],[-127.304983,57.461935],[-127.325105,57.482254],[-127.32089,57.486469],[-127.297201,57.492042],[-127.29342,57.498207],[-127.329388,57.509302],[-127.338187,57.519365],[-127.34308,57.53144],[-127.341906,57.549053],[-127.33421,57.558353],[-127.320655,57.567095],[-127.312876,57.577679],[-127.304847,57.579926],[-127.296135,57.576717],[-127.283443,57.575605],[-127.272499,57.587688],[-127.278234,57.598788],[-127.27193,57.603192],[-127.246765,57.605474],[-127.181424,57.597666],[-127.167879,57.591617],[-127.145269,57.577551],[-127.138228,57.562519],[-127.143295,57.54609],[-127.150165,57.535904],[-127.134555,57.530558],[-127.118962,57.528698],[-127.093098,57.528139],[-127.07567,57.512356],[-127.057064,57.507278],[-127.021867,57.514671],[-127.010631,57.521137],[-126.98799,57.529963],[-126.969808,57.534148],[-126.876649,57.549056],[-126.8369,57.558752],[-126.796157,57.565866],[-126.787591,57.570783],[-126.784317,57.57606],[-126.787324,57.580846],[-126.802315,57.59272],[-126.836529,57.611142],[-126.868324,57.633376],[-126.870149,57.640122],[-126.861023,57.647842],[-126.849504,57.653793],[-126.836681,57.668225],[-126.839613,57.679445],[-126.852533,57.688172],[-126.877088,57.693274],[-126.918211,57.698726],[-126.938111,57.707127],[-126.945525,57.7165],[-126.954004,57.744136],[-126.967439,57.754886],[-126.981286,57.760815],[-126.982852,57.766633],[-126.979738,57.777962],[-126.973206,57.788247],[-126.95911,57.797087],[-126.948095,57.798384],[-126.934028,57.797349],[-126.869173,57.785333],[-126.854087,57.788455],[-126.851437,57.79171],[-126.856523,57.805105],[-126.878622,57.829837],[-126.889036,57.864494],[-126.887976,57.867325],[-126.896973,57.877424],[-126.916011,57.891463],[-126.93456,57.897787],[-126.933556,57.906009],[-126.936882,57.911304],[-126.947556,57.918699],[-126.964122,57.925109],[-126.970612,57.933125],[-126.970145,57.949069],[-126.980047,57.961229],[-126.972028,57.967639],[-126.953961,57.975683],[-126.950959,57.989452],[-126.941816,57.992476],[-126.907566,57.994438],[-126.868027,58.003366],[-126.815914,58.009309],[-126.773034,58.011075],[-126.732234,58.0183],[-126.703075,58.02711],[-126.696707,58.025839],[-126.692275,58.023197],[-126.683231,58.006118],[-126.662925,57.990828],[-126.604143,57.960213],[-126.558571,57.952319],[-126.539852,57.945606],[-126.518052,57.940952],[-126.498239,57.942457],[-126.452389,57.93841],[-126.434776,57.934527],[-126.422197,57.923627],[-126.397801,57.926405],[-126.38527,57.926198],[-126.378009,57.923264],[-126.365494,57.914392],[-126.337934,57.884841],[-126.323263,57.874036],[-126.315953,57.861921],[-126.288968,57.854524],[-126.268731,57.85571],[-126.263157,57.859683],[-126.25742,57.867212],[-126.243523,57.901467],[-126.229703,57.911701],[-126.233759,57.922254],[-126.228767,57.933746],[-126.214199,57.9435],[-126.182928,57.944565],[-126.163182,57.93866],[-126.140113,57.922373],[-126.12445,57.918859],[-126.106744,57.91783],[-126.077962,57.913674],[-126.067161,57.916343],[-126.053977,57.930217],[-126.068962,57.95233],[-126.064789,57.959115],[-126.04411,57.966944],[-125.991448,57.971426],[-125.974756,57.967038],[-125.916414,57.980688],[-125.90811,57.978086],[-125.890498,57.979447],[-125.875925,57.973861],[-125.859835,57.975262],[-125.845725,57.9802],[-125.837479,57.9794],[-125.823264,57.975],[-125.807419,57.973975],[-125.797375,57.966052],[-125.797757,57.943517],[-125.78517,57.931316],[-125.789669,57.922603],[-125.766791,57.908165],[-125.769089,57.902752],[-125.766423,57.889782],[-125.756286,57.874475],[-125.747377,57.865554],[-125.736168,57.862043],[-125.69962,57.868276],[-125.686361,57.875272],[-125.674713,57.888377],[-125.661387,57.890456],[-125.657041,57.894924],[-125.664243,57.902786],[-125.662575,57.910568],[-125.653463,57.922227],[-125.640022,57.929525],[-125.619991,57.937053],[-125.608708,57.933029],[-125.593847,57.914258],[-125.563553,57.918221],[-125.504237,57.935964],[-125.49601,57.93514],[-125.488995,57.941197],[-125.491621,57.948927],[-125.463554,57.960714],[-125.451051,57.971568],[-125.424996,57.979867],[-125.386599,57.98872],[-125.32957,57.994606],[-125.25085,58.005423],[-125.227621,58.015894],[-125.203926,58.022362],[-125.172263,58.023756],[-125.157515,58.022309],[-125.145359,58.02369],[-125.09472,58.019108],[-125.034483,58.001888],[-125.005263,57.987397],[-124.982368,57.98143],[-124.924237,57.984333],[-124.919008,57.986248],[-124.939169,57.993844],[-124.948384,57.999876],[-124.962152,58.006851],[-124.965222,58.010569],[-124.968404,58.016528],[-124.966333,58.021924],[-124.955909,58.025745],[-124.927044,58.02366],[-124.919405,58.025425],[-124.917046,58.030433],[-124.926865,58.05344],[-124.92638,58.064897],[-124.919086,58.073977],[-124.887419,58.094051],[-124.876045,58.1039],[-124.860984,58.124896],[-124.874077,58.139544],[-124.883974,58.164322],[-124.875177,58.174414],[-124.849888,58.184887],[-124.831053,58.198737],[-124.829724,58.207067],[-124.848939,58.221359],[-124.863013,58.221334],[-124.879872,58.223443],[-124.892329,58.230599],[-124.899018,58.24371],[-124.916711,58.256109],[-124.926286,58.25322],[-124.942676,58.235362],[-124.951886,58.230841],[-124.99243,58.233088],[-125.028606,58.241409],[-125.038812,58.241559],[-125.056982,58.235393],[-125.088155,58.235338],[-125.120018,58.238621],[-125.141527,58.236315],[-125.160125,58.243842],[-125.171976,58.243472],[-125.185509,58.23861],[-125.201318,58.23927],[-125.219263,58.256077],[-125.264199,58.281961],[-125.275724,58.300612],[-125.280479,58.303645],[-125.288641,58.302899],[-125.328552,58.277776],[-125.33933,58.275977],[-125.35642,58.279473],[-125.354082,58.28979],[-125.36164,58.293211],[-125.371354,58.294727],[-125.377295,58.298394],[-125.390844,58.314944],[-125.415604,58.327197],[-125.426652,58.336289],[-125.439366,58.34114],[-125.451566,58.340231],[-125.462412,58.335235],[-125.469118,58.32739],[-125.476581,58.30936],[-125.480517,58.308659],[-125.517477,58.308663],[-125.551862,58.319559],[-125.572777,58.316621],[-125.584579,58.312739],[-125.592659,58.314604],[-125.610285,58.312904],[-125.626625,58.306699],[-125.650211,58.303918],[-125.717412,58.307281],[-125.730424,58.311242],[-125.737513,58.318007],[-125.750363,58.323566],[-125.765661,58.320367],[-125.774917,58.321622],[-125.780869,58.331514],[-125.784644,58.346019],[-125.824948,58.352602],[-125.833389,58.356174],[-125.835309,58.360935],[-125.822987,58.36941],[-125.835547,58.380999],[-125.8453,58.400562],[-125.857474,58.412663],[-125.877253,58.414266],[-125.894607,58.412295],[-125.909133,58.402209],[-125.92171,58.400668],[-125.930909,58.395293],[-126.00003,58.406809],[-126.01458,58.406555],[-126.047854,58.414665],[-126.060117,58.42049],[-126.07057,58.449422],[-126.110164,58.46086],[-126.138142,58.46507],[-126.158878,58.472263],[-126.178609,58.484277],[-126.207613,58.493429],[-126.231071,58.512511],[-126.249642,58.522077],[-126.284845,58.549324],[-126.303011,58.572255],[-126.299651,58.590296],[-126.302916,58.598357],[-126.319887,58.608437],[-126.332414,58.610044],[-126.375013,58.603407],[-126.389208,58.598557],[-126.40329,58.596902],[-126.445827,58.603304],[-126.457234,58.603275],[-126.46818,58.600226],[-126.486789,58.60505],[-126.52892,58.588802],[-126.539622,58.58226],[-126.552005,58.57914],[-126.585544,58.580416],[-126.605611,58.585159],[-126.615905,58.592603],[-126.637325,58.603659],[-126.666852,58.628017],[-126.699921,58.648875],[-126.721494,58.656117],[-126.743887,58.667267],[-126.764423,58.66908],[-126.792762,58.668409],[-126.83559,58.66312],[-126.844227,58.654817],[-126.873535,58.636746],[-126.897163,58.630792],[-126.914371,58.638809],[-126.916057,58.646627],[-126.9067,58.661172],[-126.887831,58.677967],[-126.870465,58.685124],[-126.861332,58.692823],[-126.851119,58.697683],[-126.839823,58.708057],[-126.834416,58.722115],[-126.879644,58.761225],[-126.895368,58.778136],[-126.931748,58.796838],[-126.948697,58.808979],[-126.95941,58.813726],[-126.970865,58.814212],[-126.987019,58.809468],[-126.992442,58.806141],[-127.004243,58.80432],[-127.021405,58.806634],[-127.037045,58.825044],[-127.050416,58.833909],[-127.059439,58.850607],[-127.052091,58.862735],[-127.034113,58.872222],[-126.992418,58.909341],[-126.965959,58.943972],[-126.957911,58.949488],[-126.948288,58.961639],[-126.943483,58.971777],[-126.951901,58.980491],[-126.943857,59.00042],[-126.951405,59.024693],[-126.976731,59.043655],[-126.978581,59.049817],[-126.966577,59.075047],[-126.975088,59.085532],[-126.972168,59.103],[-126.976289,59.111408],[-126.98876,59.118764],[-127.027654,59.132957],[-127.045931,59.13608],[-127.068093,59.133656],[-127.098599,59.12066],[-127.113224,59.120468],[-127.170957,59.140203],[-127.186976,59.148899],[-127.193601,59.159075],[-127.193149,59.182514],[-127.198368,59.196173],[-127.208267,59.208024],[-127.22307,59.217217],[-127.227411,59.242202],[-127.235881,59.253062],[-127.25056,59.258756],[-127.279726,59.282174],[-127.291596,59.304781],[-127.333143,59.346584],[-127.334898,59.360843],[-127.342666,59.378668],[-127.355897,59.391726],[-127.3697,59.40022],[-127.414657,59.447799],[-127.427734,59.455256],[-127.445169,59.479242],[-127.446196,59.488954],[-127.483959,59.514952],[-127.484865,59.523711],[-127.494009,59.530086],[-127.517995,59.531846],[-127.532698,59.534422],[-127.546823,59.557118],[-127.555383,59.557502],[-127.573037,59.569778],[-127.592693,59.597046],[-127.677487,59.612877],[-127.713189,59.626525],[-127.727686,59.62998],[-127.751342,59.655562],[-127.752631,59.666654],[-127.756957,59.669492],[-127.766639,59.671067],[-127.777756,59.675417],[-127.786805,59.68745],[-127.79787,59.695137],[-127.785699,59.701522],[-127.787097,59.704818],[-127.796958,59.708552],[-127.79973,59.711324],[-127.794095,59.727656],[-127.80005,59.731887],[-127.810607,59.759343],[-127.786822,59.772117],[-127.802746,59.785451],[-127.761662,59.799702],[-127.757535,59.811011],[-127.763374,59.823184],[-127.769208,59.828244],[-127.767506,59.837832],[-127.758968,59.842408],[-127.73586,59.842555],[-127.708957,59.848469],[-127.67266,59.850641],[-127.660656,59.85504],[-127.656308,59.864271],[-127.65552,59.880148],[-127.677558,59.893229],[-127.702639,59.896018],[-127.728628,59.895713],[-127.730492,59.993193],[-127.724622,59.996106],[-127.725021,60.000027],[-128.250021,60.000005],[-129.000021,60.000005],[-129.750021,60.000005],[-130.500021,60.000005],[-131.250021,60.000005],[-132.000021,60.000005],[-132.750021,60.000004],[-133.500021,60.000004],[-134.000021,60.000004],[-134.750022,60.000004],[-135.500022,60.000004],[-136.250022,60.000004],[-137.000022,60.000004],[-137.750022,60.000004],[-138.500022,60.000004],[-139.052223,60.000044],[-139.042153,59.991571],[-138.790845,59.922994],[-138.705807,59.906244],[-138.656321,59.799228],[-138.626273,59.770461],[-138.605447,59.757694],[-138.236682,59.570128],[-137.878065,59.381445],[-137.602091,59.240729],[-137.499335,58.983142],[-137.52675,58.906603],[-137.446583,58.908665],[-137.288429,58.999486],[-137.236669,59.011442],[-137.09777,59.056525],[-136.999656,59.091368],[-136.824691,59.159805],[-136.582013,59.165545],[-136.488788,59.258015],[-136.495149,59.275133],[-136.467516,59.284566],[-136.476269,59.464197],[-136.397757,59.447181],[-136.360495,59.450924],[-136.331511,59.455996],[-136.301457,59.465842],[-136.236306,59.526715],[-136.241427,59.559107],[-136.355734,59.600677],[-136.195273,59.638817],[-135.94571,59.663626],[-135.479027,59.798617],[-135.377044,59.74293],[-135.234729,59.695954],[-135.221836,59.664151],[-135.154476,59.626483],[-135.117567,59.623387],[-135.027729,59.563922],[-135.02801,59.476306],[-135.068369,59.454999],[-135.097549,59.427007],[-134.989268,59.38788],[-135.030223,59.348355],[-134.958956,59.28109],[-134.699321,59.248393],[-134.677968,59.192808],[-134.56982,59.133508],[-134.484804,59.133391],[-134.44494,59.086478],[-134.385396,59.041401],[-134.407628,58.97845],[-134.312299,58.961395],[-134.337404,58.92034],[-134.256455,58.859077],[-134.002607,58.774099],[-133.841354,58.730153],[-133.699492,58.609118],[-133.504203,58.496382],[-133.381818,58.432556],[-133.461295,58.389877],[-133.354091,58.283404],[-133.172419,58.151646],[-133.069563,58.000057],[-132.500612,57.999918],[-132.000801,57.999901],[-131.50099,57.999886],[-131.001695,58.000556],[-131.001393,58.005261],[-131.008093,58.00533],[-131.007534,58.012403],[-131.00078,58.012376],[-131.004236,58.067522],[-131.004511,58.615622],[-131.009807,59.002102],[-130.647094,59.001522],[-129.797782,59.000593],[-128.943211,59.00226],[-129.002266,57.998764],[-129.002073,57.164394],[-128.977713,57.143945],[-128.947489,57.147753],[-128.930635,57.147639],[-128.914811,57.142771],[-128.892281,57.127462],[-128.876152,57.121857],[-128.860236,57.121095],[-128.850064,57.116663],[-128.834478,57.099338],[-128.81799,57.087563],[-128.786135,57.075673],[-128.786918,57.060651],[-128.780676,57.052899],[-128.763394,57.049323],[-128.740665,57.047306],[-128.726291,57.042151],[-128.718028,57.030827],[-128.709126,57.010295],[-128.699145,56.996826],[-128.686587,56.985428],[-128.675665,56.978433],[-128.661535,56.972276],[-128.660042,56.967748],[-128.667684,56.950221],[-128.667712,56.935948],[-128.664093,56.926326],[-128.648921,56.919759],[-128.657298,56.91228],[-128.684006,56.895754],[-128.694747,56.884929],[-128.69336,56.878432],[-128.655469,56.882896],[-128.634489,56.883646],[-128.618901,56.877869],[-128.56271,56.84343],[-128.537394,56.833223],[-128.495151,56.811431],[-128.486019,56.803732],[-128.449043,56.794749],[-128.418322,56.771851],[-128.358537,56.752986],[-128.314165,56.750632],[-128.290641,56.745069],[-128.272032,56.749369],[-128.259286,56.748231],[-128.248758,56.742109],[-128.230346,56.735188],[-128.206439,56.730209],[-128.198875,56.737766],[-128.188695,56.737852],[-128.170265,56.719721],[-128.161996,56.706472],[-128.161023,56.694005],[-128.18393,56.657616],[-128.181227,56.648657],[-128.176538,56.643453],[-128.126502,56.637585],[-128.110607,56.639388],[-128.103395,56.644373],[-128.09826,56.654721],[-128.100709,56.662545],[-128.097811,56.666006],[-128.088297,56.668065],[-128.071138,56.666646],[-128.053426,56.656888],[-128.045011,56.647742],[-128.028384,56.636995],[-128.01824,56.633256],[-128.012448,56.627072],[-127.989497,56.611322],[-127.98214,56.61117],[-127.944997,56.621563],[-127.926991,56.619365],[-127.916237,56.615077],[-127.905256,56.591476],[-127.897386,56.584657],[-127.861572,56.565064],[-127.847618,56.559164],[-127.84371,56.548831],[-127.854512,56.542915],[-127.908079,56.53855],[-127.946009,56.533499],[-127.966796,56.528614],[-127.977513,56.520729],[-127.988761,56.510447],[-127.99004,56.503452],[-127.987133,56.494737],[-127.964687,56.460737],[-127.963813,56.451156],[-127.978641,56.435431],[-127.998983,56.428352],[-128.015347,56.42472],[-128.027567,56.423914],[-128.053518,56.415528],[-128.067829,56.413445],[-128.080122,56.414129],[-128.118558,56.42157],[-128.136524,56.427613],[-128.156675,56.449198],[-128.163536,56.453483],[-128.19059,56.446498],[-128.215396,56.43025],[-128.227895,56.426351],[-128.247266,56.424354],[-128.265252,56.419034],[-128.280204,56.409455],[-128.285458,56.400049],[-128.280754,56.391072],[-128.273195,56.383421],[-128.255819,56.375854],[-128.227271,56.368859],[-128.130119,56.354936],[-128.109363,56.348189],[-128.095168,56.335001],[-128.087984,56.321222],[-128.094096,56.314195],[-128.105828,56.309431],[-128.154984,56.308213],[-128.202079,56.300923],[-128.21458,56.295411],[-128.222246,56.279827],[-128.230925,56.271258],[-128.241182,56.265472],[-128.274625,56.252555],[-128.284109,56.24658],[-128.284778,56.233254],[-128.27551,56.214208],[-128.277042,56.2094],[-128.29559,56.190512],[-128.298452,56.180964],[-128.294059,56.170824],[-128.287973,56.130484],[-128.275998,56.118794],[-128.27873,56.11029],[-128.306546,56.096614],[-128.321639,56.092092],[-128.345564,56.093601],[-128.38788,56.107014],[-128.409322,56.109153],[-128.433379,56.1069],[-128.47381,56.105788],[-128.492109,56.102178],[-128.522584,56.08373]],[[-129.217304,59.191963],[-129.215377,59.185957],[-129.229592,59.18539],[-129.230205,59.190868],[-129.217304,59.191963]],[[-133.263479,59.786204],[-133.363259,59.47761],[-133.376194,59.46736],[-133.386688,59.438011],[-133.397942,59.418183],[-133.396133,59.411237],[-133.386035,59.406756],[-133.382392,59.399613],[-133.38603,59.393241],[-133.409808,59.370761],[-133.412245,59.36558],[-133.410282,59.365481],[-133.416533,59.360833],[-133.439412,59.352576],[-133.447017,59.347587],[-133.448502,59.342877],[-133.443708,59.338304],[-133.456468,59.332784],[-133.460371,59.325215],[-133.468603,59.325378],[-133.474787,59.327633],[-133.483513,59.32582],[-133.484595,59.328576],[-133.489699,59.327947],[-133.498842,59.334744],[-133.499561,59.333252],[-133.504085,59.333281],[-133.504955,59.336246],[-133.506976,59.335031],[-133.516857,59.337594],[-133.523323,59.336918],[-133.524451,59.338932],[-133.549251,59.342972],[-133.549269,59.347289],[-133.558826,59.348624],[-133.565814,59.352576],[-133.56381,59.355682],[-133.567435,59.355355],[-133.56591,59.358406],[-133.569446,59.362843],[-133.574023,59.364952],[-133.579663,59.364892],[-133.578674,59.366848],[-133.589259,59.370663],[-133.590147,59.373185],[-133.592608,59.372344],[-133.714312,59.516465],[-133.785163,59.766136],[-133.799719,59.779938],[-133.797575,59.785332],[-133.798233,59.801976],[-133.793839,59.811786],[-133.800374,59.829445],[-133.800725,59.839253],[-133.804886,59.845031],[-133.799459,59.858111],[-133.807657,59.872597],[-133.808172,59.882139],[-133.803472,59.890049],[-133.804662,59.901409],[-133.263479,59.786204]],[[-128.502642,59.923643],[-128.527666,59.92919],[-128.51098,59.939757],[-128.502307,59.939767],[-128.484381,59.932272],[-128.481119,59.924148],[-128.493213,59.923043],[-128.502642,59.923643]],[[-129.292951,59.297652],[-129.288389,59.296428],[-129.284573,59.297297],[-129.286174,59.293657],[-129.277516,59.290456],[-129.297138,59.277332],[-129.301702,59.280049],[-129.298814,59.281388],[-129.303958,59.285024],[-129.302178,59.293162],[-129.292951,59.297652]]]},"properties":{"id":"59570228","boundaryCode":"59570228","boundaryName":"DA 59570228","boundarySource":"census","boundaryLevel":"bcDaSimplified","boundaryDetail":"overview","DAUID":"59570228","DGUID":"2021S051259570228","PRUID":"59","CDUID":"5949","CDNAME":"Kitimat-Stikine","CDTYPE":"RD","CSDUID":"5949041","CSDNAME":"Kitimat-Stikine D","CSDTYPE":"RDA","CTUID":null,"CTNAME":null,"parentCdId":"5949","parentCdName":"Kitimat-Stikine","parentCsdId":"5949041","parentCsdName":"Kitimat-Stikine D","parentCtId":null,"parentCtName":null,"LANDAREA":117245.8931,"areaKm2":120222.70943316695},"id":57695}]}