{"type":"FeatureCollection","features":[{"type":"Feature","properties":{"id":"59590017","boundaryCode":"59590017","boundaryName":"DA 59590017","boundarySource":"census","boundaryLevel":"bcDaSimplified","boundaryDetail":"overview","DAUID":"59590017","DGUID":"2021S051259590017","PRUID":"59","CDUID":null,"CSDUID":null,"CTUID":null,"LANDAREA":0.0825,"areaKm2":0.08895854823667577},"geometry":{"type":"Polygon","coordinates":[[[-120.91055892329861,58.35639595513635],[-120.91041424763533,58.35458558002371],[-120.9051439832642,58.35429473169398],[-120.90549663241013,58.35773114490432],[-120.91055892329861,58.35639595513635]]]}},{"type":"Feature","properties":{"id":"59590035","boundaryCode":"59590035","boundaryName":"DA 59590035","boundarySource":"census","boundaryLevel":"bcDaSimplified","boundaryDetail":"overview","DAUID":"59590035","DGUID":"2021S051259590035","PRUID":"59","CDUID":null,"CSDUID":null,"CTUID":null,"LANDAREA":0.1287,"areaKm2":0.1222822006087709},"geometry":{"type":"Polygon","coordinates":[[[-121.7230834291171,58.28717116350104],[-121.72862896071659,58.28758469144985],[-121.72883110188992,58.28395891920337],[-121.72437192760559,58.283432065022936],[-121.7230834291171,58.28717116350104]]]}},{"type":"Feature","properties":{"id":"59590039","boundaryCode":"59590039","boundaryName":"DA 59590039","boundarySource":"census","boundaryLevel":"bcDaSimplified","boundaryDetail":"overview","DAUID":"59590039","DGUID":"2021S051259590039","PRUID":"59","CDUID":null,"CSDUID":null,"CTUID":null,"LANDAREA":47847.251000000004,"areaKm2":48640.06375885554},"geometry":{"type":"Polygon","coordinates":[[[-122.12501959445997,60.00006756592265],[-124.0000199492127,60.00000578536698],[-123.99461600323791,59.613078298586366],[-124.00548348644492,59.60709039550956],[-124.00745330683775,59.566350765561616],[-124.00005529102644,59.55063226850931],[-123.99506569057561,59.54953658882995],[-123.99266149124578,59.523024417449875],[-124.00932416706881,59.513737162200776],[-123.99827984609313,59.50131003108714],[-123.99457510497862,59.49348446943738],[-123.99793027659274,59.494042371618875],[-123.99792355979766,59.49141756260529],[-124.00457598334346,59.493961264585025],[-124.00143115563205,59.490741076840656],[-124.0053819965653,59.490695474963],[-124.0054619276354,59.479840881153926],[-124.00545395435378,59.432437591202834],[-123.9945851202021,59.4336550003691],[-123.99903322883438,58.747466684381806],[-124.00079202282801,58.674938842264694],[-124.00107153547198,57.99931408238232],[-123.00645656333596,57.999804096108505],[-122.75771946415726,57.9975717447029],[-122.75635702402532,58.002227421165074],[-122.73984152687883,58.00058827485918],[-121.7533120107004,57.99912722854162],[-121.27384177134076,58.00141843954263],[-120.0000975502943,58.00000644724355],[-120.00001918069509,59.999901846489536],[-122.12501959445997,60.00006756592265]],[[-120.90876508089698,58.357018183777484],[-120.90549663241013,58.35773114490432],[-120.90514219096866,58.3544255751482],[-120.9099733460328,58.354184982998156],[-120.91039564779776,58.35627792475143],[-120.90876508089698,58.357018183777484]],[[-121.7277443106307,58.284031659102034],[-121.728804803453,58.28396187336837],[-121.72862896071659,58.28758469144985],[-121.72306112397085,58.28730077137132],[-121.72376471378008,58.28321134828051],[-121.7277443106307,58.284031659102034]],[[-122.7074023115644,58.090158074089764],[-122.70502653556429,58.09200529741258],[-122.70523020920876,58.09377177182797],[-122.6871174550584,58.09514276425536],[-122.68612653628182,58.065464745248235],[-122.70523469648657,58.06572423396199],[-122.7038020954974,58.068173456127944],[-122.71024134358235,58.089090472072776],[-122.7074023115644,58.090158074089764]],[[-123.1150653473279,58.906399940646764],[-123.11063548118035,58.91019350943171],[-123.10909468842316,58.91383880583014],[-123.11009946896277,58.91621920262686],[-123.12302403472664,58.92044924095108],[-123.13556780416562,58.92801679622631],[-123.15304581175462,58.94516033969503],[-123.15870441120894,58.957489587319245],[-123.15943543623722,58.96699367837949],[-123.17177381513488,58.971116173631714],[-123.1746574215844,58.97344328747754],[-123.17594662295163,58.9785901925314],[-123.17347532990026,58.987507600967696],[-123.17431442602054,58.99031219692503],[-123.19267474993717,58.99932398805313],[-123.19197195918682,59.019622567529986],[-123.18002784373981,59.03832689076832],[-123.18042017170148,59.041187989601134],[-123.21631121075404,59.08232547727967],[-123.24478640627478,59.09722986724128],[-123.24789224398256,59.13120696403932],[-123.23669664351726,59.15641407705473],[-123.22425062212568,59.170624374222186],[-123.22433994908451,59.18080128605595],[-123.22666596130712,59.186140769174784],[-123.22292668599728,59.209015475599095],[-123.22654626355218,59.2118027992084],[-123.25250565165949,59.21812427836332],[-123.25303179812866,59.2214776390912],[-123.2467189070949,59.22781388532169],[-123.25367995797995,59.234507673325666],[-123.25821988019749,59.23583927813091],[-123.27681819838531,59.23577195979381],[-123.29057981535966,59.24171856362746],[-123.28018825787137,59.289999878713616],[-123.28602796630699,59.3055499791989],[-123.2700817475041,59.34035577592966],[-123.27338023045444,59.343431667421044],[-123.2937707177192,59.351929787363744],[-123.26652984862564,59.358908003628926],[-123.23958227930343,59.35920147644568],[-123.2027192051088,59.355380570382025],[-123.16402597869576,59.3542464347535],[-123.1239275458232,59.35846760491559],[-123.09273215170548,59.35227822654645],[-123.07609714846451,59.3518764699728],[-123.06948876244768,59.350160599414885],[-123.05952436532188,59.35286897745921],[-123.0421365130514,59.36909320202135],[-123.03605775038342,59.37108065587521],[-123.01108574558117,59.374377075969086],[-122.99179510459595,59.37391241307592],[-122.96984267761327,59.37969409773449],[-122.94700328836333,59.37697923922389],[-122.93058742696421,59.3665283144356],[-122.91818237955704,59.363482632390465],[-122.88354905727051,59.36093104684206],[-122.83763084610788,59.35446377892902],[-122.82598682097729,59.334196296691196],[-122.81432546370382,59.32796485148956],[-122.78490998338984,59.32639234973641],[-122.759278904093,59.31423498894825],[-122.73814997436082,59.30810531302855],[-122.67970493136878,59.3014892562573],[-122.63948738187264,59.29415006626683],[-122.58397052819328,59.281001678917654],[-122.54047804578026,59.26858629852629],[-122.51428991713414,59.26876274125238],[-122.49403707864211,59.266781541194845],[-122.4766525798994,59.25462803849922],[-122.46404493840052,59.250828345126465],[-122.43067592004813,59.25064022852914],[-122.41764545857217,59.24865652466049],[-122.40237873628126,59.242838038669035],[-122.39161960956949,59.240760641343186],[-122.38012711234403,59.23426080839907],[-122.36199705257017,59.22733292115242],[-122.34572162078109,59.21759508571214],[-122.32939957704065,59.21458950596238],[-122.39211206773008,59.098445129978145],[-122.40628634537721,59.08039030620304],[-122.43230551867131,59.06127982769753],[-122.44748066079332,59.0519793542663],[-122.47184987065867,59.041470045436505],[-122.49446954809787,59.025104978018156],[-122.49675290269148,59.021137008948585],[-122.49088292225471,59.006373875378976],[-122.49913302112137,58.990899492264234],[-122.51768362651897,58.980362573738454],[-122.53098777313294,58.963222146404924],[-122.52821074413995,58.94646666586273],[-122.54228716286974,58.93684650680328],[-122.54397580767942,58.92364310162357],[-122.55359287627965,58.91769476128868],[-122.59771560047476,58.919898277008315],[-122.60934189974753,58.91684624570688],[-122.61295604752509,58.914267293106434],[-122.6144704899562,58.90245823583302],[-122.63944798188285,58.88600789825611],[-122.6443917451909,58.879078901237975],[-122.64535025427824,58.872138560222375],[-122.63744267845861,58.86065259672922],[-122.63903921407923,58.85449951700927],[-122.67261362867302,58.837211278582586],[-122.70431145690559,58.826298268407236],[-122.702409753753,58.8258975490318],[-122.70317990086063,58.8197763611537],[-122.69722537504119,58.81924789130114],[-122.68517831094488,58.82411346789199],[-122.67278047970815,58.81569186094245],[-122.66258351502606,58.81960869351216],[-122.65335983247282,58.81231023621233],[-122.65564689681727,58.81047295580201],[-122.65440430578852,58.808350270048706],[-122.6452502493979,58.80591198810616],[-122.66072322428464,58.79747486016966],[-122.65828490406133,58.79679361345485],[-122.66079320392018,58.793025256511925],[-122.6547522253087,58.78995650942032],[-122.64063832986793,58.79270914644251],[-122.63618741235649,58.796118754097556],[-122.63540082681997,58.79962945686284],[-122.64213245695962,58.803131816096474],[-122.64177519565683,58.804920971914505],[-122.63781581743528,58.807495352348205],[-122.61579149075409,58.80708269495488],[-122.59333590543699,58.818317393511435],[-122.57475768941633,58.8223434169778],[-122.57382854231147,58.82529357625303],[-122.57797192121976,58.829611861791854],[-122.57497434335895,58.83124547059354],[-122.5640137829658,58.83128734258522],[-122.55919697190559,58.82831627738564],[-122.55915318718417,58.82595954651585],[-122.5635661652054,58.82233685065476],[-122.57603601692094,58.81586242384772],[-122.57209198178772,58.80701873682392],[-122.5692907903443,58.805191336437574],[-122.56349143710989,58.80417912129875],[-122.55808512079929,58.80471233329727],[-122.55604130163526,58.80636140225983],[-122.50798372972086,58.8059533739424],[-122.50451364221553,58.844700171734736],[-122.42426118272485,58.846540318272226],[-122.42549408540368,58.8163568230009],[-122.45365893800184,58.815617205902086],[-122.4545401937096,58.74963436816077],[-122.58984267962346,58.75076774485475],[-122.5940479047698,58.74871145691805],[-122.60994920802887,58.747106770817645],[-122.62887892978921,58.73636287720928],[-122.63284213120274,58.74056675060049],[-122.64400771649716,58.74387515764983],[-122.67403605231917,58.74414963501866],[-122.66787376350398,58.767606466195495],[-122.66215062324221,58.77048417424616],[-122.66273726499121,58.77456660387205],[-122.66136500319924,58.77472090795412],[-122.66342148616556,58.77529228543298],[-122.65566254844879,58.783598668575756],[-122.65609717450916,58.78524402382438],[-122.65372243154248,58.78600249012864],[-122.65764342819949,58.788944040802896],[-122.66296284804609,58.78588550841877],[-122.67997203527997,58.792665867507466],[-122.68355593781114,58.791881617625926],[-122.68743441325508,58.79451079425266],[-122.72152477458076,58.794736305745225],[-122.7205160337618,58.800755910769645],[-122.7513953670275,58.79850896959942],[-122.76047799237618,58.8043993363502],[-122.76769220215483,58.81169255664033],[-122.76671405325185,58.81306426751832],[-122.7858593785725,58.81698743986193],[-122.80752289248498,58.82733982642663],[-122.8671759006217,58.83552373294306],[-122.89251090862494,58.836957609360276],[-122.92706112065954,58.84447462317479],[-122.9507842254303,58.85288721621424],[-122.95862689157747,58.860126380946426],[-122.97081774129792,58.867398209423364],[-123.0228622665273,58.87503739552264],[-123.0740889666154,58.88839608749475],[-123.10630627411405,58.90083290861997],[-123.12534564931244,58.90138599853572],[-123.1150653473279,58.906399940646764]]]}}]}