{"type":"FeatureCollection","features":[{"type":"Feature","geometry":{"type":"Polygon","coordinates":[[[-116.118336,50.686066],[-116.119406,50.697604],[-116.131799,50.707291],[-116.131776,50.704078],[-116.136487,50.701296],[-116.143086,50.703135],[-116.143132,50.698756],[-116.138343,50.694915],[-116.127779,50.694769],[-116.126157,50.687733],[-116.118336,50.686066]]]},"properties":{"id":"59010124","boundaryCode":"59010124","boundaryName":"DA 59010124","boundarySource":"census","boundaryLevel":"bcDaSimplified","boundaryDetail":"overview","DAUID":"59010124","DGUID":"2021S051259010124","PRUID":"59","CDUID":"5901","CDNAME":"East Kootenay","CDTYPE":"RD","CSDUID":"5901048","CSDNAME":"East Kootenay G","CSDTYPE":"RDA","CTUID":null,"CTNAME":null,"parentCdId":"5901","parentCdName":"East Kootenay","parentCsdId":"5901048","parentCsdName":"East Kootenay G","parentCtId":null,"parentCtName":null,"LANDAREA":1.9339000000000002,"areaKm2":1.9381619176389704},"id":49863},{"type":"Feature","geometry":{"type":"Polygon","coordinates":[[[-116.131799,50.707291],[-116.132454,50.711083],[-116.147523,50.725597],[-116.174794,50.737247],[-116.196362,50.756829],[-116.196402,50.766857],[-116.202866,50.774456],[-116.208954,50.777617],[-116.218282,50.793555],[-116.225863,50.795794],[-116.251566,50.812215],[-116.259537,50.814857],[-116.283858,50.840377],[-116.286136,50.846037],[-116.318335,50.863001],[-116.330992,50.876205],[-116.338423,50.881018],[-116.34156,50.886313],[-116.355592,50.894239],[-116.385011,50.92817],[-116.397822,50.93403],[-116.397684,50.942068],[-116.407528,50.94964],[-116.444377,50.949829],[-116.443666,50.935204],[-116.463575,50.936497],[-116.464902,50.938642],[-116.4882,50.940523],[-116.492535,50.938078],[-116.497526,50.938701],[-116.499737,50.934934],[-116.535395,50.935143],[-116.535727,50.92098],[-116.628741,50.920681],[-116.640261,50.908461],[-116.672174,50.88979],[-116.686418,50.888479],[-116.69249,50.890264],[-116.69711,50.889689],[-116.701429,50.886046],[-116.708059,50.885732],[-116.71317,50.880108],[-116.727102,50.880284],[-116.733595,50.875421],[-116.724251,50.863657],[-116.723221,50.854024],[-116.736696,50.851461],[-116.744097,50.851878],[-116.746471,50.847991],[-116.749388,50.846999],[-116.759941,50.848374],[-116.765358,50.84575],[-116.763473,50.840076],[-116.753017,50.830942],[-116.745899,50.816219],[-116.737648,50.813238],[-116.739252,50.808617],[-116.737863,50.806458],[-116.739982,50.802637],[-116.748093,50.796181],[-116.749535,50.790854],[-116.745366,50.771302],[-116.759876,50.770144],[-116.771968,50.766744],[-116.775217,50.751166],[-116.779012,50.74916],[-116.784803,50.749119],[-116.789989,50.745536],[-116.78876,50.73948],[-116.783271,50.737026],[-116.783016,50.734553],[-116.796561,50.729309],[-116.788582,50.721612],[-116.795267,50.712556],[-116.780411,50.699017],[-116.768966,50.702085],[-116.749961,50.693185],[-116.744373,50.6781],[-116.699217,50.670821],[-116.678085,50.672132],[-116.667012,50.681488],[-116.655679,50.682217],[-116.652832,50.670842],[-116.625443,50.665727],[-116.607634,50.668557],[-116.60229,50.653336],[-116.579628,50.647282],[-116.578677,50.634559],[-116.594133,50.619344],[-116.601449,50.620746],[-116.603442,50.625062],[-116.614404,50.630857],[-116.631356,50.597435],[-116.654146,50.59861],[-116.66412,50.579592],[-116.667419,50.568552],[-116.659544,50.563744],[-116.672872,50.531],[-116.699202,50.518503],[-116.689209,50.492376],[-116.704945,50.479597],[-116.722448,50.461516],[-116.703702,50.453088],[-116.691333,50.443111],[-116.683241,50.430485],[-116.652337,50.420231],[-116.647714,50.42409],[-116.630086,50.430465],[-116.616861,50.430659],[-116.562614,50.405124],[-116.517349,50.40922],[-116.507027,50.411278],[-116.490222,50.407742],[-116.465393,50.410614],[-116.453221,50.416235],[-116.46408,50.43904],[-116.449473,50.458184],[-116.437222,50.466756],[-116.420194,50.468211],[-116.408394,50.465686],[-116.403509,50.457653],[-116.398591,50.454124],[-116.390721,50.451666],[-116.36337,50.45098],[-116.317827,50.463073],[-116.316738,50.473997],[-116.265729,50.499345],[-116.221547,50.512338],[-116.120678,50.512946],[-116.121567,50.537884],[-116.056223,50.538218],[-116.055912,50.539138],[-116.038858,50.53785],[-116.045103,50.543195],[-116.041976,50.553287],[-116.04626,50.561389],[-116.027536,50.560902],[-116.029543,50.567536],[-116.04627,50.593399],[-116.0568,50.598335],[-116.068986,50.617058],[-116.069505,50.609256],[-116.072813,50.609602],[-116.083898,50.611702],[-116.090927,50.617423],[-116.096375,50.617062],[-116.09599,50.620215],[-116.102544,50.6213],[-116.103801,50.622998],[-116.095828,50.622821],[-116.094718,50.637043],[-116.089628,50.63704],[-116.092624,50.640265],[-116.090959,50.642402],[-116.081831,50.646456],[-116.079912,50.649072],[-116.088494,50.658165],[-116.093279,50.666984],[-116.118336,50.686066],[-116.126157,50.687733],[-116.127779,50.694769],[-116.138343,50.694915],[-116.143132,50.698756],[-116.143086,50.703135],[-116.136487,50.701296],[-116.131776,50.704078],[-116.131799,50.707291]]]},"properties":{"id":"59010125","boundaryCode":"59010125","boundaryName":"DA 59010125","boundarySource":"census","boundaryLevel":"bcDaSimplified","boundaryDetail":"overview","DAUID":"59010125","DGUID":"2021S051259010125","PRUID":"59","CDUID":"5901","CDNAME":"East Kootenay","CDTYPE":"RD","CSDUID":"5901048","CSDNAME":"East Kootenay G","CSDTYPE":"RDA","CTUID":null,"CTNAME":null,"parentCdId":"5901","parentCdName":"East Kootenay","parentCsdId":"5901048","parentCsdName":"East Kootenay G","parentCtId":null,"parentCtName":null,"LANDAREA":1940.162,"areaKm2":1970.378697192548},"id":49864},{"type":"Feature","geometry":{"type":"Polygon","coordinates":[[[-116.118336,50.686066],[-116.093279,50.666984],[-116.088494,50.658165],[-116.079912,50.649072],[-116.075515,50.640428],[-116.076963,50.637352],[-116.072416,50.637102],[-116.072197,50.633256],[-116.065107,50.633873],[-116.064179,50.623322],[-116.069319,50.623204],[-116.068986,50.617058],[-116.0568,50.598335],[-116.04627,50.593399],[-116.029543,50.567536],[-116.027536,50.560902],[-116.022584,50.560773],[-116.022604,50.551515],[-116.01193,50.551304],[-116.012069,50.548005],[-115.989124,50.547672],[-115.952845,50.562598],[-115.915334,50.583363],[-115.916125,50.589031],[-115.898681,50.601308],[-115.889649,50.596701],[-115.87646,50.595586],[-115.869362,50.596444],[-115.842911,50.61079],[-115.803497,50.610586],[-115.804114,50.61383],[-115.798357,50.616362],[-115.798816,50.618817],[-115.800863,50.621107],[-115.80333,50.62023],[-115.805671,50.621277],[-115.811913,50.628543],[-115.817114,50.639039],[-115.822058,50.639772],[-115.796396,50.639771],[-115.795799,50.653394],[-115.793216,50.655397],[-115.795041,50.658775],[-115.791339,50.660329],[-115.791876,50.66334],[-115.788564,50.666959],[-115.790646,50.674434],[-115.782695,50.674701],[-115.784765,50.677639],[-115.783177,50.67922],[-115.778788,50.680432],[-115.777725,50.683823],[-115.774661,50.683827],[-115.760421,50.695305],[-115.737737,50.697717],[-115.730348,50.70206],[-115.729512,50.706046],[-115.72516,50.709444],[-115.717453,50.708815],[-115.713129,50.710555],[-115.698132,50.721034],[-115.687192,50.725337],[-115.676743,50.733639],[-115.669698,50.735828],[-115.668006,50.740279],[-115.662875,50.734106],[-115.65179,50.728799],[-115.650443,50.7264],[-115.641664,50.721846],[-115.631785,50.719518],[-115.628883,50.716021],[-115.621274,50.712263],[-115.599743,50.711107],[-115.585889,50.715085],[-115.574043,50.720617],[-115.57219,50.725796],[-115.566952,50.727657],[-115.565303,50.732203],[-115.55198,50.740768],[-115.54851,50.742047],[-115.534443,50.742267],[-115.518558,50.745772],[-115.508419,50.754303],[-115.502406,50.763274],[-115.49329,50.767635],[-115.493422,50.770559],[-115.500232,50.776708],[-115.49494,50.780023],[-115.501128,50.784253],[-115.512103,50.786396],[-115.515817,50.784494],[-115.516953,50.780203],[-115.532422,50.788199],[-115.535497,50.795531],[-115.538595,50.796594],[-115.54465,50.794886],[-115.550884,50.797072],[-115.552862,50.80253],[-115.560444,50.804735],[-115.560626,50.810251],[-115.56649,50.814711],[-115.560794,50.82654],[-115.564272,50.829022],[-115.564887,50.832178],[-115.578151,50.84051],[-115.606575,50.845649],[-115.618065,50.835725],[-115.626994,50.833439],[-115.6314,50.836782],[-115.639368,50.837973],[-115.641522,50.839833],[-115.64541,50.854361],[-115.643917,50.857338],[-115.65105,50.865884],[-115.650867,50.872409],[-115.648944,50.874154],[-115.628966,50.879815],[-115.616922,50.879421],[-115.612746,50.88535],[-115.604467,50.88726],[-115.599803,50.886021],[-115.599867,50.890441],[-115.592661,50.892648],[-115.57787,50.888351],[-115.562097,50.894258],[-115.567871,50.899096],[-115.572216,50.907386],[-115.578195,50.909851],[-115.578479,50.913371],[-115.583174,50.913759],[-115.58419,50.915761],[-115.599932,50.917888],[-115.609815,50.926287],[-115.60546,50.929689],[-115.605532,50.933403],[-115.597743,50.93702],[-115.597054,50.939867],[-115.610863,50.946769],[-115.61461,50.951194],[-115.611689,50.95889],[-115.622028,50.965489],[-115.625985,50.970427],[-115.628291,50.980881],[-115.636248,50.982011],[-115.648849,50.997527],[-115.657457,51.001314],[-115.66338,50.999706],[-115.670578,50.999966],[-115.677765,51.007205],[-115.688574,51.013617],[-115.692252,51.019788],[-115.690481,51.025373],[-115.692363,51.028571],[-115.706811,51.020195],[-115.713631,51.019842],[-115.717148,51.017418],[-115.726774,51.018694],[-115.739193,51.023365],[-115.740049,51.024915],[-115.735278,51.029626],[-115.743125,51.033953],[-115.748145,51.030625],[-115.76705,51.039395],[-115.772141,51.046098],[-115.769094,51.047844],[-115.773602,51.057726],[-115.761303,51.060784],[-115.759415,51.063757],[-115.761498,51.066907],[-115.759067,51.071249],[-115.753435,51.074412],[-115.757684,51.07512],[-115.768077,51.069012],[-115.776274,51.066551],[-115.78062,51.069914],[-115.783602,51.069314],[-115.789247,51.072424],[-115.802822,51.069611],[-115.80398,51.075742],[-115.812296,51.083373],[-115.812798,51.086494],[-115.825531,51.082688],[-115.833386,51.075934],[-115.839025,51.077421],[-115.842473,51.076491],[-115.843771,51.079625],[-115.847588,51.081778],[-115.857748,51.079138],[-115.867948,51.089297],[-115.883034,51.086025],[-115.894757,51.086132],[-115.900915,51.09377],[-115.904497,51.091004],[-115.903873,51.082902],[-115.907214,51.084114],[-115.923622,51.083116],[-115.926658,51.08864],[-115.930326,51.090899],[-115.93257,51.096763],[-115.941567,51.096983],[-115.948507,51.09927],[-115.95042,51.106912],[-115.957278,51.115188],[-115.967594,51.116065],[-115.968315,51.12217],[-115.986991,51.126319],[-116.00448,51.124688],[-116.011301,51.127745],[-116.015625,51.138106],[-116.009903,51.143781],[-116.009694,51.154433],[-116.007424,51.156345],[-116.017521,51.156144],[-116.019971,51.15726],[-116.025759,51.163015],[-116.030508,51.163237],[-116.03686,51.170052],[-116.023904,51.176202],[-116.020659,51.1826],[-116.021371,51.187085],[-116.006143,51.190198],[-116.000037,51.193954],[-116.004069,51.207925],[-116.006396,51.208756],[-116.002078,51.215421],[-116.007618,51.222019],[-116.016574,51.223627],[-116.026692,51.21989],[-116.049281,51.227444],[-116.065188,51.247937],[-116.074278,51.249118],[-116.081329,51.251871],[-116.091837,51.250857],[-116.111691,51.253359],[-116.11453,51.256393],[-116.119473,51.255397],[-116.125151,51.259342],[-116.134381,51.260555],[-116.144162,51.26474],[-116.153252,51.26344],[-116.159148,51.275819],[-116.151581,51.287167],[-116.158003,51.290147],[-116.160194,51.296033],[-116.164146,51.297797],[-116.182166,51.295448],[-116.188524,51.301486],[-116.197736,51.299657],[-116.203381,51.29526],[-116.206787,51.296169],[-116.21905,51.291621],[-116.219099,51.29451],[-116.227119,51.301543],[-116.236032,51.30276],[-116.243397,51.301393],[-116.259988,51.309798],[-116.268032,51.31194],[-116.269113,51.316162],[-116.274617,51.319442],[-116.274817,51.32817],[-116.282619,51.331508],[-116.305209,51.325391],[-116.30083,51.302333],[-116.290251,51.290852],[-116.296586,51.2617],[-116.26225,51.243014],[-116.264699,51.224972],[-116.26338,51.221805],[-116.286186,51.21143],[-116.301108,51.208662],[-116.32711,51.214619],[-116.335108,51.208447],[-116.346483,51.207788],[-116.34618,51.203042],[-116.341399,51.188686],[-116.332131,51.180616],[-116.31574,51.182459],[-116.297556,51.179974],[-116.291444,51.173811],[-116.289235,51.157224],[-116.284359,51.151393],[-116.282429,51.149651],[-116.274366,51.149908],[-116.26213,51.145832],[-116.256468,51.140796],[-116.264528,51.129165],[-116.262177,51.126559],[-116.291932,51.109005],[-116.308222,51.102831],[-116.318485,51.095469],[-116.34053,51.068248],[-116.337608,51.067606],[-116.339799,51.06436],[-116.370998,51.059798],[-116.3794,51.058024],[-116.38442,51.055006],[-116.391074,51.055588],[-116.397716,51.050253],[-116.406374,51.043226],[-116.418487,51.036593],[-116.418571,51.032654],[-116.407338,51.027923],[-116.403625,51.020116],[-116.384604,51.011872],[-116.3807,51.007186],[-116.380997,50.999243],[-116.365361,50.991356],[-116.346935,50.979002],[-116.337054,50.975483],[-116.325429,50.962203],[-116.318338,50.949084],[-116.407528,50.94964],[-116.397684,50.942068],[-116.397822,50.93403],[-116.385011,50.92817],[-116.355592,50.894239],[-116.34156,50.886313],[-116.338423,50.881018],[-116.330992,50.876205],[-116.318335,50.863001],[-116.286136,50.846037],[-116.283858,50.840377],[-116.259537,50.814857],[-116.251566,50.812215],[-116.225863,50.795794],[-116.218282,50.793555],[-116.208954,50.777617],[-116.202866,50.774456],[-116.196402,50.766857],[-116.196362,50.756829],[-116.174794,50.737247],[-116.147523,50.725597],[-116.132454,50.711083],[-116.131799,50.707291],[-116.119406,50.697604],[-116.118336,50.686066]]]},"properties":{"id":"59010265","boundaryCode":"59010265","boundaryName":"DA 59010265","boundarySource":"census","boundaryLevel":"bcDaSimplified","boundaryDetail":"overview","DAUID":"59010265","DGUID":"2021S051259010265","PRUID":"59","CDUID":"5901","CDNAME":"East Kootenay","CDTYPE":"RD","CSDUID":"5901048","CSDNAME":"East Kootenay G","CSDTYPE":"RDA","CTUID":null,"CTNAME":null,"parentCdId":"5901","parentCdName":"East Kootenay","parentCsdId":"5901048","parentCsdName":"East Kootenay G","parentCtId":null,"parentCtName":null,"LANDAREA":2714.2931000000003,"areaKm2":2727.8984667231803},"id":49982},{"type":"Feature","geometry":{"type":"Polygon","coordinates":[[[-118.201122,51.006773],[-118.209516,51.010801],[-118.209398,51.01208],[-118.207011,51.012118],[-118.207207,51.017557],[-118.209456,51.017547],[-118.210249,51.020403],[-118.212969,51.020375],[-118.212956,51.022325],[-118.211331,51.025407],[-118.206345,51.025539],[-118.206327,51.031181],[-118.177469,51.049157],[-118.178546,51.063186],[-118.211937,51.063043],[-118.212109,51.055865],[-118.223454,51.055663],[-118.223484,51.04135],[-118.228811,51.041174],[-118.229353,51.033968],[-118.240628,51.034038],[-118.240659,51.032698],[-118.244793,51.032727],[-118.24129,50.999672],[-118.247036,50.998622],[-118.246792,50.990651],[-118.230893,50.990824],[-118.231129,50.99317],[-118.232239,50.997466],[-118.216016,51.00934],[-118.216943,51.01029],[-118.21943,51.00744],[-118.224955,51.009659],[-118.223551,51.011928],[-118.219648,51.012786],[-118.219107,51.016773],[-118.214108,51.019254],[-118.212933,51.014249],[-118.212817,51.010564],[-118.210521,51.010476],[-118.201122,51.006773]]]},"properties":{"id":"59390201","boundaryCode":"59390201","boundaryName":"DA 59390201","boundarySource":"census","boundaryLevel":"bcDaSimplified","boundaryDetail":"overview","DAUID":"59390201","DGUID":"2021S051259390201","PRUID":"59","CDUID":"5939","CDNAME":"Columbia-Shuswap","CDTYPE":"RD","CSDUID":"5939019","CSDNAME":"Revelstoke","CSDTYPE":"CY","CTUID":null,"CTNAME":null,"parentCdId":"5939","parentCdName":"Columbia-Shuswap","parentCsdId":"5939019","parentCsdName":"Revelstoke","parentCtId":null,"parentCtName":null,"LANDAREA":13.9639,"areaKm2":17.07119432455054},"id":56836},{"type":"Feature","geometry":{"type":"Polygon","coordinates":[[[-118.219648,51.012786],[-118.217564,51.014299],[-118.212933,51.014249],[-118.214108,51.019254],[-118.219107,51.016773],[-118.219648,51.012786]]]},"properties":{"id":"59390202","boundaryCode":"59390202","boundaryName":"DA 59390202","boundarySource":"census","boundaryLevel":"bcDaSimplified","boundaryDetail":"overview","DAUID":"59390202","DGUID":"2021S051259390202","PRUID":"59","CDUID":"5939","CDNAME":"Columbia-Shuswap","CDTYPE":"RD","CSDUID":"5939019","CSDNAME":"Revelstoke","CSDTYPE":"CY","CTUID":null,"CTNAME":null,"parentCdId":"5939","parentCdName":"Columbia-Shuswap","parentCsdId":"5939019","parentCsdName":"Revelstoke","parentCtId":null,"parentCtName":null,"LANDAREA":0.2046,"areaKm2":0.2042707237661794},"id":56837},{"type":"Feature","geometry":{"type":"Polygon","coordinates":[[[-118.212933,51.014249],[-118.217564,51.014299],[-118.219648,51.012786],[-118.223551,51.011928],[-118.224955,51.009659],[-118.21943,51.00744],[-118.216943,51.01029],[-118.216016,51.00934],[-118.210521,51.010476],[-118.212817,51.010564],[-118.212933,51.014249]]]},"properties":{"id":"59390203","boundaryCode":"59390203","boundaryName":"DA 59390203","boundarySource":"census","boundaryLevel":"bcDaSimplified","boundaryDetail":"overview","DAUID":"59390203","DGUID":"2021S051259390203","PRUID":"59","CDUID":"5939","CDNAME":"Columbia-Shuswap","CDTYPE":"RD","CSDUID":"5939019","CSDNAME":"Revelstoke","CSDTYPE":"CY","CTUID":null,"CTNAME":null,"parentCdId":"5939","parentCdName":"Columbia-Shuswap","parentCsdId":"5939019","parentCsdName":"Revelstoke","parentCtId":null,"parentCtName":null,"LANDAREA":0.37320000000000003,"areaKm2":0.37271282346948725},"id":56838},{"type":"Feature","geometry":{"type":"Polygon","coordinates":[[[-118.210521,51.010476],[-118.216016,51.00934],[-118.212408,51.008326],[-118.207844,51.005168],[-118.208237,51.003312],[-118.201972,51.000671],[-118.20028,51.001767],[-118.194221,50.999465],[-118.192159,51.000876],[-118.199975,51.00477],[-118.197941,51.005725],[-118.201122,51.006773],[-118.210521,51.010476]]]},"properties":{"id":"59390204","boundaryCode":"59390204","boundaryName":"DA 59390204","boundarySource":"census","boundaryLevel":"bcDaSimplified","boundaryDetail":"overview","DAUID":"59390204","DGUID":"2021S051259390204","PRUID":"59","CDUID":"5939","CDNAME":"Columbia-Shuswap","CDTYPE":"RD","CSDUID":"5939019","CSDNAME":"Revelstoke","CSDTYPE":"CY","CTUID":null,"CTNAME":null,"parentCdId":"5939","parentCdName":"Columbia-Shuswap","parentCsdId":"5939019","parentCsdName":"Revelstoke","parentCtId":null,"parentCtName":null,"LANDAREA":0.678,"areaKm2":0.6770684117655595},"id":56839},{"type":"Feature","geometry":{"type":"Polygon","coordinates":[[[-118.212408,51.008326],[-118.216001,51.006451],[-118.205426,50.999718],[-118.208672,50.99673],[-118.201013,50.99784],[-118.199716,50.999281],[-118.201972,51.000671],[-118.208237,51.003312],[-118.207844,51.005168],[-118.212408,51.008326]]]},"properties":{"id":"59390205","boundaryCode":"59390205","boundaryName":"DA 59390205","boundarySource":"census","boundaryLevel":"bcDaSimplified","boundaryDetail":"overview","DAUID":"59390205","DGUID":"2021S051259390205","PRUID":"59","CDUID":"5939","CDNAME":"Columbia-Shuswap","CDTYPE":"RD","CSDUID":"5939019","CSDNAME":"Revelstoke","CSDTYPE":"CY","CTUID":null,"CTNAME":null,"parentCdId":"5939","parentCdName":"Columbia-Shuswap","parentCsdId":"5939019","parentCsdName":"Revelstoke","parentCtId":null,"parentCtName":null,"LANDAREA":0.2489,"areaKm2":0.4557481942867154},"id":56840},{"type":"Feature","geometry":{"type":"Polygon","coordinates":[[[-118.201972,51.000671],[-118.199716,50.999281],[-118.201013,50.99784],[-118.199521,50.995941],[-118.19235,50.993731],[-118.193509,50.995582],[-118.191841,50.996722],[-118.194221,50.999465],[-118.20028,51.001767],[-118.201972,51.000671]]]},"properties":{"id":"59390206","boundaryCode":"59390206","boundaryName":"DA 59390206","boundarySource":"census","boundaryLevel":"bcDaSimplified","boundaryDetail":"overview","DAUID":"59390206","DGUID":"2021S051259390206","PRUID":"59","CDUID":"5939","CDNAME":"Columbia-Shuswap","CDTYPE":"RD","CSDUID":"5939019","CSDNAME":"Revelstoke","CSDTYPE":"CY","CTUID":null,"CTNAME":null,"parentCdId":"5939","parentCdName":"Columbia-Shuswap","parentCsdId":"5939019","parentCsdName":"Revelstoke","parentCtId":null,"parentCtName":null,"LANDAREA":0.2957,"areaKm2":0.2953050863767828},"id":56841},{"type":"Feature","geometry":{"type":"Polygon","coordinates":[[[-118.199521,50.995941],[-118.200859,50.993592],[-118.19859,50.992222],[-118.196942,50.993327],[-118.19465,50.991971],[-118.19235,50.993731],[-118.199521,50.995941]]]},"properties":{"id":"59390207","boundaryCode":"59390207","boundaryName":"DA 59390207","boundarySource":"census","boundaryLevel":"bcDaSimplified","boundaryDetail":"overview","DAUID":"59390207","DGUID":"2021S051259390207","PRUID":"59","CDUID":"5939","CDNAME":"Columbia-Shuswap","CDTYPE":"RD","CSDUID":"5939019","CSDNAME":"Revelstoke","CSDTYPE":"CY","CTUID":null,"CTNAME":null,"parentCdId":"5939","parentCdName":"Columbia-Shuswap","parentCsdId":"5939019","parentCsdName":"Revelstoke","parentCtId":null,"parentCtName":null,"LANDAREA":0.1641,"areaKm2":0.16386046461319284},"id":56842},{"type":"Feature","geometry":{"type":"Polygon","coordinates":[[[-118.194221,50.999465],[-118.191841,50.996722],[-118.193509,50.995582],[-118.19235,50.993731],[-118.19465,50.991971],[-118.196942,50.993327],[-118.19859,50.992222],[-118.196876,50.990111],[-118.190348,50.992564],[-118.18891,50.991687],[-118.189038,50.993824],[-118.183997,50.994711],[-118.171226,50.999176],[-118.164295,50.997964],[-118.161705,50.993143],[-118.157144,50.993876],[-118.151376,50.992112],[-118.142857,50.991908],[-118.141988,50.997115],[-118.153338,50.997262],[-118.15339,51.004726],[-118.194934,51.005082],[-118.195095,51.003503],[-118.197941,51.005725],[-118.199975,51.00477],[-118.192159,51.000876],[-118.194221,50.999465]]]},"properties":{"id":"59390208","boundaryCode":"59390208","boundaryName":"DA 59390208","boundarySource":"census","boundaryLevel":"bcDaSimplified","boundaryDetail":"overview","DAUID":"59390208","DGUID":"2021S051259390208","PRUID":"59","CDUID":"5939","CDNAME":"Columbia-Shuswap","CDTYPE":"RD","CSDUID":"5939019","CSDNAME":"Revelstoke","CSDTYPE":"CY","CTUID":null,"CTNAME":null,"parentCdId":"5939","parentCdName":"Columbia-Shuswap","parentCsdId":"5939019","parentCsdName":"Revelstoke","parentCtId":null,"parentCtName":null,"LANDAREA":3.5203,"areaKm2":3.516010936807852},"id":56843},{"type":"Feature","geometry":{"type":"Polygon","coordinates":[[[-118.196876,50.990111],[-118.198584,50.986884],[-118.193695,50.986649],[-118.190764,50.988579],[-118.182017,50.993303],[-118.183997,50.994711],[-118.189038,50.993824],[-118.18891,50.991687],[-118.190348,50.992564],[-118.196876,50.990111]]]},"properties":{"id":"59390209","boundaryCode":"59390209","boundaryName":"DA 59390209","boundarySource":"census","boundaryLevel":"bcDaSimplified","boundaryDetail":"overview","DAUID":"59390209","DGUID":"2021S051259390209","PRUID":"59","CDUID":"5939","CDNAME":"Columbia-Shuswap","CDTYPE":"RD","CSDUID":"5939019","CSDNAME":"Revelstoke","CSDTYPE":"CY","CTUID":null,"CTNAME":null,"parentCdId":"5939","parentCdName":"Columbia-Shuswap","parentCsdId":"5939019","parentCsdName":"Revelstoke","parentCtId":null,"parentCtName":null,"LANDAREA":0.4051,"areaKm2":0.4045015050949376},"id":56844},{"type":"Feature","geometry":{"type":"Polygon","coordinates":[[[-118.190764,50.988579],[-118.188688,50.987323],[-118.182475,50.98964],[-118.179364,50.991691],[-118.182017,50.993303],[-118.190764,50.988579]]]},"properties":{"id":"59390210","boundaryCode":"59390210","boundaryName":"DA 59390210","boundarySource":"census","boundaryLevel":"bcDaSimplified","boundaryDetail":"overview","DAUID":"59390210","DGUID":"2021S051259390210","PRUID":"59","CDUID":"5939","CDNAME":"Columbia-Shuswap","CDTYPE":"RD","CSDUID":"5939019","CSDNAME":"Revelstoke","CSDTYPE":"CY","CTUID":null,"CTNAME":null,"parentCdId":"5939","parentCdName":"Columbia-Shuswap","parentCsdId":"5939019","parentCsdName":"Revelstoke","parentCtId":null,"parentCtName":null,"LANDAREA":0.1903,"areaKm2":0.19008512969077232},"id":56845},{"type":"Feature","geometry":{"type":"Polygon","coordinates":[[[-118.208672,50.99673],[-118.214246,50.986552],[-118.213397,50.983187],[-118.209452,50.981685],[-118.205932,50.959999],[-118.195714,50.951849],[-118.176108,50.954054],[-118.175348,50.968627],[-118.17798,50.971428],[-118.184184,50.970751],[-118.184815,50.975913],[-118.199051,50.975962],[-118.19626,50.977904],[-118.184842,50.976818],[-118.183778,50.981521],[-118.181919,50.984957],[-118.183275,50.987405],[-118.181082,50.988757],[-118.182475,50.98964],[-118.188688,50.987323],[-118.190764,50.988579],[-118.193695,50.986649],[-118.198584,50.986884],[-118.196876,50.990111],[-118.19859,50.992222],[-118.200859,50.993592],[-118.199521,50.995941],[-118.201013,50.99784],[-118.208672,50.99673]]]},"properties":{"id":"59390211","boundaryCode":"59390211","boundaryName":"DA 59390211","boundarySource":"census","boundaryLevel":"bcDaSimplified","boundaryDetail":"overview","DAUID":"59390211","DGUID":"2021S051259390211","PRUID":"59","CDUID":"5939","CDNAME":"Columbia-Shuswap","CDTYPE":"RD","CSDUID":"5939019","CSDNAME":"Revelstoke","CSDTYPE":"CY","CTUID":null,"CTNAME":null,"parentCdId":"5939","parentCdName":"Columbia-Shuswap","parentCsdId":"5939019","parentCsdName":"Revelstoke","parentCtId":null,"parentCtName":null,"LANDAREA":5.2203,"areaKm2":8.26542050628502},"id":56846},{"type":"Feature","geometry":{"type":"Polygon","coordinates":[[[-118.231129,50.99317],[-118.231235,50.994229],[-118.227303,50.993552],[-118.220807,50.987044],[-118.213397,50.983187],[-118.214246,50.986552],[-118.208672,50.99673],[-118.205426,50.999718],[-118.216001,51.006451],[-118.212408,51.008326],[-118.216016,51.00934],[-118.232239,50.997466],[-118.231129,50.99317]]]},"properties":{"id":"59390212","boundaryCode":"59390212","boundaryName":"DA 59390212","boundarySource":"census","boundaryLevel":"bcDaSimplified","boundaryDetail":"overview","DAUID":"59390212","DGUID":"2021S051259390212","PRUID":"59","CDUID":"5939","CDNAME":"Columbia-Shuswap","CDTYPE":"RD","CSDUID":"5939019","CSDNAME":"Revelstoke","CSDTYPE":"CY","CTUID":null,"CTNAME":null,"parentCdId":"5939","parentCdName":"Columbia-Shuswap","parentCsdId":"5939019","parentCsdName":"Revelstoke","parentCtId":null,"parentCtName":null,"LANDAREA":1.8224,"areaKm2":2.594192003670321},"id":56847},{"type":"Feature","geometry":{"type":"Polygon","coordinates":[[[-118.184815,50.975913],[-118.178262,50.975898],[-118.178244,50.981399],[-118.183778,50.981521],[-118.184842,50.976818],[-118.19626,50.977904],[-118.199051,50.975962],[-118.184815,50.975913]]]},"properties":{"id":"59390213","boundaryCode":"59390213","boundaryName":"DA 59390213","boundarySource":"census","boundaryLevel":"bcDaSimplified","boundaryDetail":"overview","DAUID":"59390213","DGUID":"2021S051259390213","PRUID":"59","CDUID":"5939","CDNAME":"Columbia-Shuswap","CDTYPE":"RD","CSDUID":"5939019","CSDNAME":"Revelstoke","CSDTYPE":"CY","CTUID":null,"CTNAME":null,"parentCdId":"5939","parentCdName":"Columbia-Shuswap","parentCsdId":"5939019","parentCsdName":"Revelstoke","parentCtId":null,"parentCtName":null,"LANDAREA":0.4344,"areaKm2":0.4337832300804931},"id":56848},{"type":"Feature","geometry":{"type":"Polygon","coordinates":[[[-118.183997,50.994711],[-118.182017,50.993303],[-118.179364,50.991691],[-118.182475,50.98964],[-118.181082,50.988757],[-118.183275,50.987405],[-118.181919,50.984957],[-118.183778,50.981521],[-118.178244,50.981399],[-118.171354,50.981432],[-118.170182,50.983766],[-118.170176,50.981435],[-118.168853,50.98282],[-118.166442,50.981567],[-118.16664,50.9638],[-118.164613,50.959922],[-118.166488,50.954944],[-118.164504,50.952643],[-118.160971,50.946464],[-118.155735,50.946611],[-118.154992,50.942161],[-118.152108,50.942189],[-118.15199,50.940378],[-118.15479,50.940216],[-118.154741,50.936277],[-118.149682,50.936414],[-118.149625,50.932659],[-118.144318,50.932854],[-118.143218,50.925785],[-118.135581,50.926007],[-118.139436,50.950777],[-118.145703,50.961136],[-118.146666,50.980346],[-118.142364,50.98255],[-118.142857,50.991908],[-118.151376,50.992112],[-118.157144,50.993876],[-118.161705,50.993143],[-118.164295,50.997964],[-118.171226,50.999176],[-118.183997,50.994711]]]},"properties":{"id":"59390214","boundaryCode":"59390214","boundaryName":"DA 59390214","boundarySource":"census","boundaryLevel":"bcDaSimplified","boundaryDetail":"overview","DAUID":"59390214","DGUID":"2021S051259390214","PRUID":"59","CDUID":"5939","CDNAME":"Columbia-Shuswap","CDTYPE":"RD","CSDUID":"5939019","CSDNAME":"Revelstoke","CSDTYPE":"CY","CTUID":null,"CTNAME":null,"parentCdId":"5939","parentCdName":"Columbia-Shuswap","parentCsdId":"5939019","parentCsdName":"Revelstoke","parentCtId":null,"parentCtName":null,"LANDAREA":11.741200000000001,"areaKm2":12.000234753321848},"id":56849},{"type":"Feature","geometry":{"type":"Polygon","coordinates":[[[-116.282619,51.331508],[-116.286702,51.334509],[-116.287685,51.342084],[-116.290045,51.343115],[-116.27727,51.354701],[-116.279884,51.359634],[-116.277732,51.361736],[-116.293425,51.364848],[-116.302644,51.371332],[-116.31145,51.384969],[-116.291846,51.39722],[-116.292513,51.403602],[-116.282485,51.406843],[-116.294228,51.429941],[-116.285503,51.435295],[-116.288049,51.448535],[-116.284402,51.449385],[-116.284018,51.456497],[-116.292445,51.461809],[-116.30867,51.462779],[-116.315015,51.46557],[-116.322301,51.462454],[-116.338015,51.464292],[-116.346577,51.469533],[-116.360612,51.470873],[-116.367898,51.478598],[-116.368948,51.483011],[-116.379796,51.488347],[-116.393844,51.505669],[-116.396287,51.512567],[-116.393438,51.517969],[-116.39535,51.525533],[-116.387836,51.527436],[-116.382095,51.531017],[-116.390901,51.545595],[-116.401379,51.546489],[-116.422035,51.555053],[-116.428663,51.554224],[-116.429037,51.556541],[-116.437374,51.55833],[-116.440553,51.557098],[-116.46475,51.565824],[-116.46497,51.568251],[-116.468786,51.569908],[-116.473265,51.58268],[-116.466036,51.594094],[-116.469044,51.60174],[-116.476357,51.607691],[-116.49103,51.612343],[-116.488979,51.616696],[-116.499591,51.623407],[-116.499874,51.627666],[-116.513523,51.627608],[-116.529887,51.631685],[-116.536521,51.638661],[-116.545912,51.638191],[-116.570105,51.647126],[-116.57059,51.652896],[-116.580423,51.653092],[-116.595031,51.661837],[-116.596172,51.666518],[-116.590148,51.668123],[-116.587522,51.672983],[-116.591412,51.677675],[-116.586724,51.685474],[-116.581408,51.687466],[-116.583584,51.692418],[-116.589538,51.69417],[-116.581191,51.697288],[-116.587615,51.709292],[-116.58544,51.712758],[-116.588193,51.715894],[-116.594504,51.717486],[-116.59855,51.72388],[-116.606514,51.725548],[-116.610503,51.723964],[-116.617144,51.725186],[-116.63121,51.73141],[-116.633569,51.735499],[-116.629424,51.737194],[-116.628146,51.744875],[-116.640314,51.751157],[-116.650364,51.753713],[-116.650989,51.766774],[-116.644439,51.778429],[-116.645781,51.782707],[-116.643162,51.786715],[-116.655226,51.79452],[-116.654358,51.801317],[-116.659076,51.805195],[-116.66707,51.80449],[-116.666771,51.806065],[-116.67959,51.81304],[-116.692393,51.80632],[-116.694496,51.803619],[-116.703598,51.801547],[-116.70684,51.802385],[-116.715522,51.798669],[-116.725104,51.804801],[-116.744248,51.806615],[-116.748996,51.805067],[-116.754558,51.799896],[-116.759624,51.787521],[-116.765361,51.784636],[-116.772876,51.774839],[-116.782243,51.76894],[-116.78515,51.764029],[-116.791556,51.76397],[-116.796079,51.758061],[-116.806468,51.75048],[-116.8112,51.740558],[-116.819316,51.73864],[-116.818613,51.735571],[-116.807991,51.727884],[-116.798035,51.723609],[-116.800144,51.716903],[-116.808839,51.710421],[-116.809756,51.705353],[-116.819277,51.706863],[-116.820458,51.70481],[-116.836628,51.703318],[-116.838567,51.704819],[-116.849164,51.705425],[-116.853616,51.708279],[-116.860833,51.707837],[-116.870337,51.704389],[-116.876496,51.705678],[-116.878215,51.704234],[-116.895994,51.702734],[-116.902597,51.703781],[-116.907376,51.706716],[-116.915906,51.707432],[-116.920583,51.70981],[-116.916983,51.713657],[-116.925997,51.7175],[-116.929997,51.72147],[-116.926408,51.72373],[-116.926559,51.729069],[-116.932509,51.729534],[-116.943636,51.733915],[-116.944545,51.741686],[-116.954323,51.743246],[-116.960625,51.752043],[-116.976376,51.760191],[-116.972061,51.762975],[-116.973731,51.769467],[-116.963237,51.774264],[-116.966078,51.78771],[-116.961215,51.790885],[-116.96843,51.798323],[-116.989004,51.811112],[-116.984255,51.820265],[-116.988194,51.822919],[-116.986288,51.826791],[-116.981202,51.828438],[-116.979797,51.835559],[-116.981116,51.83672],[-117.005761,51.836112],[-117.019386,51.842939],[-117.033489,51.85636],[-117.034336,51.859814],[-117.030639,51.864526],[-117.030884,51.868887],[-117.023298,51.88003],[-117.014446,51.884904],[-117.010793,51.889687],[-117.01948,51.891366],[-117.05235,51.915557],[-117.05931,51.917264],[-117.077697,51.929168],[-117.086182,51.936911],[-117.097667,51.939702],[-117.096834,51.943258],[-117.102145,51.950195],[-117.100945,51.953011],[-117.103191,51.956523],[-117.120215,51.955707],[-117.133339,51.968264],[-117.144882,51.972709],[-117.163623,51.972612],[-117.188725,51.976585],[-117.196005,51.979124],[-117.196993,51.987729],[-117.201707,51.992857],[-117.216429,51.997267],[-117.226084,52.008637],[-117.233645,52.011772],[-117.231975,52.01647],[-117.222749,52.017447],[-117.216812,52.022251],[-117.214697,52.028486],[-117.232043,52.04108],[-117.240327,52.036335],[-117.250315,52.035076],[-117.25207,52.038634],[-117.270603,52.048868],[-117.268423,52.055793],[-117.282114,52.059634],[-117.289023,52.063775],[-117.294546,52.065098],[-117.305079,52.07432],[-117.302113,52.077519],[-117.296219,52.079221],[-117.292044,52.085412],[-117.298608,52.094288],[-117.317318,52.194048],[-117.327178,52.189955],[-117.334051,52.148648],[-117.381271,52.137731],[-117.500193,52.14428],[-117.509918,52.157819],[-117.523131,52.158253],[-117.611279,52.144265],[-117.629363,52.174771],[-117.663545,52.197899],[-117.743223,52.193999],[-117.741362,52.203004],[-117.818333,52.226361],[-117.822218,52.246415],[-117.839593,52.274134],[-117.796076,52.292513],[-117.77801,52.318937],[-117.752894,52.31643],[-117.723001,52.355588],[-117.704858,52.357507],[-117.70581,52.365351],[-117.729841,52.382334],[-117.766513,52.417699],[-117.839762,52.421123],[-117.886948,52.426098],[-117.966808,52.469715],[-117.988,52.500245],[-118.003472,52.492578],[-118.013313,52.4839],[-118.021833,52.472308],[-118.018493,52.459355],[-118.021144,52.455535],[-118.042088,52.458985],[-118.050703,52.457154],[-118.052915,52.44957],[-118.030378,52.438084],[-118.04074,52.418484],[-118.044184,52.398466],[-118.138062,52.407504],[-118.142006,52.402424],[-118.16399,52.393728],[-118.182082,52.382804],[-118.178917,52.379455],[-118.180102,52.372605],[-118.200725,52.37266],[-118.212789,52.370348],[-118.226031,52.380296],[-118.239958,52.374875],[-118.254218,52.347978],[-118.272991,52.346082],[-118.289771,52.338957],[-118.294921,52.342224],[-118.303094,52.35263],[-118.304674,52.360744],[-118.317125,52.367785],[-118.32992,52.368646],[-118.353663,52.366061],[-118.366802,52.354761],[-118.374041,52.350571],[-118.379956,52.349986],[-118.386129,52.339399],[-118.395259,52.334852],[-118.411411,52.337547],[-118.425979,52.336135],[-118.440369,52.324673],[-118.447315,52.323766],[-118.456425,52.324791],[-118.4662,52.317817],[-118.49314,52.312505],[-118.493606,52.307896],[-118.489177,52.299134],[-118.501582,52.281679],[-118.54054,52.273001],[-118.52654,52.26167],[-118.506192,52.251278],[-118.496209,52.243275],[-118.464421,52.224025],[-118.478498,52.211787],[-118.470332,52.201675],[-118.460387,52.195702],[-118.453514,52.186488],[-118.456501,52.16736],[-118.451655,52.16126],[-118.441212,52.156166],[-118.445545,52.152141],[-118.446409,52.143282],[-118.439025,52.090824],[-118.440361,52.075021],[-118.447125,52.066863],[-118.45591,52.063236],[-118.397262,52.029369],[-118.392712,52.021134],[-118.391624,52.013621],[-118.403688,52.00138],[-118.398072,52.001477],[-118.392345,51.979928],[-118.374759,51.976271],[-118.367928,51.97984],[-118.360817,51.980271],[-118.356992,51.991938],[-118.346617,51.993074],[-118.330693,51.992534],[-118.311086,51.987985],[-118.296905,51.987361],[-118.285814,51.982716],[-118.278771,51.973534],[-118.275312,51.964666],[-118.261559,51.964138],[-118.2339,51.973254],[-118.218663,51.975191],[-118.211456,51.971421],[-118.207213,51.966776],[-118.195538,51.963713],[-118.194636,51.951432],[-118.187827,51.94294],[-118.174379,51.937212],[-118.168323,51.917927],[-118.174508,51.913163],[-118.175057,51.907289],[-118.156206,51.898165],[-118.142706,51.898024],[-118.125585,51.894324],[-118.124057,51.889088],[-118.148744,51.863481],[-118.139845,51.855418],[-118.15126,51.827452],[-118.158478,51.821405],[-118.17645,51.8122],[-118.175984,51.802956],[-118.189858,51.791472],[-118.184822,51.786978],[-118.160807,51.779917],[-118.134911,51.781569],[-118.130369,51.778978],[-118.121304,51.745159],[-118.125562,51.723908],[-118.120669,51.716912],[-118.112105,51.710164],[-118.094695,51.704386],[-118.074839,51.725579],[-118.058013,51.72356],[-118.024511,51.725354],[-118.019237,51.728481],[-118.022147,51.736083],[-118.015023,51.73985],[-118.013699,51.744685],[-118.001443,51.74423],[-117.98167,51.739507],[-117.97495,51.73278],[-117.958513,51.725649],[-117.940954,51.723438],[-117.926828,51.723677],[-117.915661,51.725694],[-117.908306,51.723759],[-117.918769,51.720743],[-117.927996,51.714328],[-117.923235,51.709564],[-117.923091,51.701596],[-117.934244,51.695901],[-117.940929,51.683414],[-117.938351,51.669521],[-117.930744,51.665171],[-117.933381,51.655472],[-117.941141,51.648206],[-117.951603,51.647668],[-117.973727,51.639333],[-117.975777,51.628811],[-117.986563,51.607549],[-117.98202,51.600241],[-117.981371,51.592588],[-117.990132,51.580061],[-117.988811,51.57695],[-117.981413,51.574582],[-117.954322,51.544981],[-117.941677,51.542565],[-117.939459,51.530948],[-117.948162,51.525094],[-117.959926,51.510215],[-117.977265,51.509806],[-117.988596,51.499883],[-117.980808,51.485612],[-117.97094,51.47718],[-117.930055,51.451914],[-117.922873,51.453202],[-117.911901,51.426522],[-117.892101,51.426065],[-117.865245,51.401786],[-117.858834,51.390429],[-117.835084,51.387582],[-117.838492,51.384113],[-117.839711,51.3716],[-117.828715,51.363669],[-117.803947,51.356371],[-117.804938,51.345197],[-117.793277,51.341534],[-117.768559,51.341847],[-117.768194,51.329953],[-117.754526,51.3202],[-117.730573,51.314855],[-117.74586,51.302547],[-117.74115,51.29401],[-117.746152,51.287389],[-117.736173,51.278551],[-117.72902,51.279935],[-117.722127,51.274531],[-117.738864,51.26183],[-117.752932,51.256203],[-117.755743,51.252717],[-117.747628,51.246375],[-117.733459,51.243847],[-117.72843,51.241574],[-117.727291,51.234436],[-117.723351,51.234591],[-117.713769,51.20308],[-117.711872,51.186924],[-117.707733,51.18134],[-117.694894,51.179924],[-117.673211,51.169845],[-117.671076,51.167161],[-117.671369,51.154587],[-117.681577,51.143867],[-117.678994,51.134242],[-117.669715,51.129144],[-117.669809,51.126765],[-117.672722,51.12598],[-117.67932,51.10917],[-117.700013,51.094892],[-117.70145,51.0907],[-117.715195,51.085177],[-117.711321,51.07536],[-117.691006,51.075623],[-117.685163,51.07721],[-117.671204,51.072843],[-117.658176,51.072487],[-117.648232,51.068908],[-117.644653,51.06952],[-117.640511,51.073134],[-117.634109,51.072852],[-117.543561,51.090574],[-117.539874,51.082884],[-117.534584,51.078893],[-117.528589,51.077419],[-117.521529,51.067752],[-117.516878,51.06511],[-117.510333,51.064814],[-117.504333,51.060142],[-117.488848,51.060956],[-117.482551,51.057458],[-117.478079,51.057274],[-117.471341,51.062966],[-117.469912,51.067296],[-117.461522,51.067852],[-117.452727,51.074408],[-117.458145,51.090218],[-117.463189,51.093239],[-117.468125,51.093935],[-117.46937,51.097906],[-117.457453,51.104651],[-117.451262,51.10636],[-117.436499,51.105154],[-117.40437,51.111067],[-117.380216,51.103776],[-117.374526,51.092555],[-117.384374,51.080835],[-117.38379,51.074733],[-117.372215,51.06359],[-117.371566,51.059696],[-117.36133,51.058143],[-117.353585,51.054269],[-117.349226,51.054138],[-117.35147,51.048066],[-117.347515,51.038888],[-117.340815,51.036335],[-117.329395,51.038022],[-117.327281,51.035568],[-117.324397,51.035505],[-117.315067,51.037741],[-117.304327,51.05133],[-117.279145,51.05513],[-117.264056,51.054306],[-117.224362,51.059264],[-117.211367,51.065788],[-117.218847,51.073958],[-117.219618,51.077849],[-117.224031,51.080838],[-117.224656,51.085479],[-117.235398,51.088776],[-117.23002,51.091294],[-117.23437,51.09756],[-117.231952,51.100084],[-117.241173,51.107776],[-117.238396,51.112946],[-117.242906,51.121261],[-117.241921,51.124241],[-117.245848,51.127485],[-117.252747,51.128709],[-117.253107,51.129993],[-117.250029,51.134157],[-117.251563,51.136552],[-117.246363,51.141844],[-117.262767,51.149516],[-117.261005,51.153289],[-117.262722,51.155468],[-117.288003,51.174356],[-117.28849,51.178975],[-117.28429,51.184484],[-117.286126,51.190564],[-117.285182,51.198576],[-117.293647,51.206475],[-117.302702,51.228924],[-117.311843,51.234993],[-117.313465,51.240568],[-117.30979,51.249998],[-117.321542,51.258158],[-117.322965,51.262489],[-117.321039,51.269949],[-117.331442,51.284432],[-117.277539,51.284397],[-117.260352,51.279847],[-117.261511,51.27691],[-117.258689,51.273983],[-117.250199,51.275232],[-117.234392,51.27257],[-117.221548,51.274385],[-117.215964,51.276554],[-117.215799,51.279476],[-117.223616,51.289006],[-117.230561,51.315165],[-117.209465,51.317272],[-117.185148,51.312465],[-117.16826,51.313073],[-117.15626,51.310951],[-117.141392,51.303658],[-117.111317,51.294374],[-117.082281,51.308003],[-117.060684,51.314582],[-117.051381,51.314939],[-117.044351,51.312982],[-117.037716,51.316227],[-117.008318,51.315431],[-117.009451,51.31924],[-116.999512,51.312949],[-117.000669,51.315222],[-116.98794,51.314622],[-116.988703,51.321662],[-116.975666,51.322218],[-116.990507,51.332749],[-117.001351,51.349827],[-117.012592,51.36164],[-117.020612,51.373554],[-117.020729,51.377654],[-117.029416,51.394467],[-117.055177,51.421448],[-117.074508,51.434884],[-117.068904,51.433427],[-117.06547,51.437761],[-117.041424,51.438422],[-117.035988,51.445686],[-117.029007,51.44434],[-117.009316,51.445895],[-117.00374,51.451405],[-117.003751,51.453893],[-116.998193,51.453291],[-116.993671,51.455816],[-116.991783,51.461579],[-116.980134,51.476382],[-116.974547,51.473002],[-116.977222,51.469913],[-116.976896,51.446235],[-116.983392,51.439161],[-116.982052,51.432174],[-116.990068,51.429066],[-116.993713,51.424411],[-117.000911,51.422257],[-117.000999,51.408001],[-117.007503,51.407083],[-117.009348,51.400459],[-116.999883,51.386461],[-116.983616,51.370186],[-116.978163,51.351214],[-116.970664,51.346043],[-116.966267,51.337273],[-116.960827,51.334123],[-116.957236,51.314232],[-116.955375,51.314296],[-116.954052,51.307231],[-116.94104,51.306767],[-116.940505,51.302793],[-116.937271,51.30032],[-116.928504,51.298674],[-116.912463,51.298328],[-116.890549,51.304866],[-116.874481,51.306581],[-116.863165,51.298789],[-116.84236,51.290857],[-116.82605,51.287922],[-116.810685,51.278906],[-116.805848,51.278529],[-116.793493,51.281815],[-116.784855,51.281139],[-116.766856,51.274467],[-116.752884,51.271755],[-116.72806,51.260433],[-116.701112,51.258289],[-116.66572,51.246443],[-116.657139,51.241764],[-116.652849,51.234116],[-116.653735,51.232144],[-116.641711,51.219843],[-116.600013,51.195159],[-116.595363,51.188471],[-116.567761,51.174686],[-116.560322,51.164218],[-116.54999,51.14275],[-116.536112,51.1282],[-116.491455,51.102081],[-116.466348,51.096888],[-116.459289,51.089949],[-116.442542,51.081409],[-116.441755,51.077092],[-116.438149,51.074266],[-116.409804,51.058689],[-116.402015,51.051813],[-116.397716,51.050253],[-116.391074,51.055588],[-116.38442,51.055006],[-116.3794,51.058024],[-116.370998,51.059798],[-116.339799,51.06436],[-116.337608,51.067606],[-116.34053,51.068248],[-116.318485,51.095469],[-116.308222,51.102831],[-116.291932,51.109005],[-116.262177,51.126559],[-116.264528,51.129165],[-116.256468,51.140796],[-116.26213,51.145832],[-116.274366,51.149908],[-116.282429,51.149651],[-116.284359,51.151393],[-116.289235,51.157224],[-116.291444,51.173811],[-116.297556,51.179974],[-116.31574,51.182459],[-116.332131,51.180616],[-116.341399,51.188686],[-116.34618,51.203042],[-116.346483,51.207788],[-116.335108,51.208447],[-116.32711,51.214619],[-116.301108,51.208662],[-116.286186,51.21143],[-116.26338,51.221805],[-116.264699,51.224972],[-116.26225,51.243014],[-116.296586,51.2617],[-116.290251,51.290852],[-116.30083,51.302333],[-116.305209,51.325391],[-116.282619,51.331508]]]},"properties":{"id":"59390216","boundaryCode":"59390216","boundaryName":"DA 59390216","boundarySource":"census","boundaryLevel":"bcDaSimplified","boundaryDetail":"overview","DAUID":"59390216","DGUID":"2021S051259390216","PRUID":"59","CDUID":"5939","CDNAME":"Columbia-Shuswap","CDTYPE":"RD","CSDUID":"5939011","CSDNAME":"Columbia-Shuswap A","CSDTYPE":"RDA","CTUID":null,"CTNAME":null,"parentCdId":"5939","parentCdName":"Columbia-Shuswap","parentCsdId":"5939011","parentCsdName":"Columbia-Shuswap A","parentCtId":null,"parentCtName":null,"LANDAREA":11021.0912,"areaKm2":11360.000514908992},"id":56850},{"type":"Feature","geometry":{"type":"Polygon","coordinates":[[[-116.975666,51.322218],[-116.971382,51.314473],[-116.957236,51.314232],[-116.960827,51.334123],[-116.966267,51.337273],[-116.970664,51.346043],[-116.978163,51.351214],[-116.983616,51.370186],[-116.999883,51.386461],[-117.009348,51.400459],[-117.007503,51.407083],[-117.000999,51.408001],[-117.000911,51.422257],[-116.993713,51.424411],[-116.990068,51.429066],[-116.982052,51.432174],[-116.983392,51.439161],[-116.976896,51.446235],[-116.977222,51.469913],[-116.974547,51.473002],[-116.980134,51.476382],[-116.991783,51.461579],[-116.993671,51.455816],[-116.998193,51.453291],[-117.003751,51.453893],[-117.00374,51.451405],[-117.009316,51.445895],[-117.029007,51.44434],[-117.035988,51.445686],[-117.041424,51.438422],[-117.06547,51.437761],[-117.068904,51.433427],[-117.074508,51.434884],[-117.055177,51.421448],[-117.029416,51.394467],[-117.020729,51.377654],[-117.020612,51.373554],[-117.012592,51.36164],[-117.001351,51.349827],[-116.990507,51.332749],[-116.975666,51.322218]]]},"properties":{"id":"59390217","boundaryCode":"59390217","boundaryName":"DA 59390217","boundarySource":"census","boundaryLevel":"bcDaSimplified","boundaryDetail":"overview","DAUID":"59390217","DGUID":"2021S051259390217","PRUID":"59","CDUID":"5939","CDNAME":"Columbia-Shuswap","CDTYPE":"RD","CSDUID":"5939011","CSDNAME":"Columbia-Shuswap A","CSDTYPE":"RDA","CTUID":null,"CTNAME":null,"parentCdId":"5939","parentCdName":"Columbia-Shuswap","parentCsdId":"5939011","parentCsdName":"Columbia-Shuswap A","parentCtId":null,"parentCtName":null,"LANDAREA":39.9665,"areaKm2":41.61703704016698},"id":56851},{"type":"Feature","geometry":{"type":"Polygon","coordinates":[[[-116.957236,51.314232],[-116.971382,51.314473],[-116.975666,51.322218],[-116.988703,51.321662],[-116.98794,51.314622],[-116.988462,51.309592],[-116.981607,51.306906],[-116.97534,51.309653],[-116.970111,51.305107],[-116.96842,51.305832],[-116.965591,51.304322],[-116.961441,51.300391],[-116.948995,51.302102],[-116.937271,51.30032],[-116.940505,51.302793],[-116.94104,51.306767],[-116.954052,51.307231],[-116.955375,51.314296],[-116.957236,51.314232]]]},"properties":{"id":"59390218","boundaryCode":"59390218","boundaryName":"DA 59390218","boundarySource":"census","boundaryLevel":"bcDaSimplified","boundaryDetail":"overview","DAUID":"59390218","DGUID":"2021S051259390218","PRUID":"59","CDUID":"5939","CDNAME":"Columbia-Shuswap","CDTYPE":"RD","CSDUID":"5939007","CSDNAME":"Golden","CSDTYPE":"T","CTUID":null,"CTNAME":null,"parentCdId":"5939","parentCdName":"Columbia-Shuswap","parentCsdId":"5939007","parentCsdName":"Golden","parentCtId":null,"parentCtName":null,"LANDAREA":3.8706,"areaKm2":3.8966758575162643},"id":56852},{"type":"Feature","geometry":{"type":"Polygon","coordinates":[[[-116.970111,51.305107],[-116.978378,51.301926],[-116.977422,51.298716],[-116.963884,51.297888],[-116.967086,51.303238],[-116.965591,51.304322],[-116.96842,51.305832],[-116.970111,51.305107]]]},"properties":{"id":"59390219","boundaryCode":"59390219","boundaryName":"DA 59390219","boundarySource":"census","boundaryLevel":"bcDaSimplified","boundaryDetail":"overview","DAUID":"59390219","DGUID":"2021S051259390219","PRUID":"59","CDUID":"5939","CDNAME":"Columbia-Shuswap","CDTYPE":"RD","CSDUID":"5939007","CSDNAME":"Golden","CSDTYPE":"T","CTUID":null,"CTNAME":null,"parentCdId":"5939","parentCdName":"Columbia-Shuswap","parentCsdId":"5939007","parentCsdName":"Golden","parentCtId":null,"parentCtName":null,"LANDAREA":0.5065000000000001,"areaKm2":0.561134549270051},"id":56853},{"type":"Feature","geometry":{"type":"Polygon","coordinates":[[[-116.977422,51.298716],[-116.979922,51.298535],[-116.978569,51.296099],[-116.973417,51.29615],[-116.970952,51.297129],[-116.970949,51.296152],[-116.963065,51.296157],[-116.963884,51.297888],[-116.977422,51.298716]]]},"properties":{"id":"59390220","boundaryCode":"59390220","boundaryName":"DA 59390220","boundarySource":"census","boundaryLevel":"bcDaSimplified","boundaryDetail":"overview","DAUID":"59390220","DGUID":"2021S051259390220","PRUID":"59","CDUID":"5939","CDNAME":"Columbia-Shuswap","CDTYPE":"RD","CSDUID":"5939007","CSDNAME":"Golden","CSDTYPE":"T","CTUID":null,"CTNAME":null,"parentCdId":"5939","parentCdName":"Columbia-Shuswap","parentCsdId":"5939007","parentCsdName":"Golden","parentCtId":null,"parentCtName":null,"LANDAREA":0.2436,"areaKm2":0.2432714819850428},"id":56854},{"type":"Feature","geometry":{"type":"Polygon","coordinates":[[[-116.988462,51.309592],[-116.992857,51.310304],[-116.989678,51.307046],[-116.989118,51.302444],[-116.970945,51.280505],[-116.961768,51.280807],[-116.941182,51.274458],[-116.940429,51.277863],[-116.94064,51.279622],[-116.941364,51.283974],[-116.946306,51.286093],[-116.950797,51.285157],[-116.965979,51.290735],[-116.972185,51.290772],[-116.977429,51.294255],[-116.973412,51.294258],[-116.973417,51.29615],[-116.978569,51.296099],[-116.979922,51.298535],[-116.977422,51.298716],[-116.978378,51.301926],[-116.970111,51.305107],[-116.97534,51.309653],[-116.981607,51.306906],[-116.988462,51.309592]]]},"properties":{"id":"59390221","boundaryCode":"59390221","boundaryName":"DA 59390221","boundarySource":"census","boundaryLevel":"bcDaSimplified","boundaryDetail":"overview","DAUID":"59390221","DGUID":"2021S051259390221","PRUID":"59","CDUID":"5939","CDNAME":"Columbia-Shuswap","CDTYPE":"RD","CSDUID":"5939007","CSDNAME":"Golden","CSDTYPE":"T","CTUID":null,"CTNAME":null,"parentCdId":"5939","parentCdName":"Columbia-Shuswap","parentCsdId":"5939007","parentCsdName":"Golden","parentCtId":null,"parentCtName":null,"LANDAREA":3.2811000000000003,"areaKm2":3.7804585146310044},"id":56855},{"type":"Feature","geometry":{"type":"Polygon","coordinates":[[[-116.973417,51.29615],[-116.973412,51.294258],[-116.965994,51.294261],[-116.965986,51.292358],[-116.958944,51.293318],[-116.958933,51.294267],[-116.95897,51.296163],[-116.963065,51.296157],[-116.970949,51.296152],[-116.970952,51.297129],[-116.973417,51.29615]]]},"properties":{"id":"59390222","boundaryCode":"59390222","boundaryName":"DA 59390222","boundarySource":"census","boundaryLevel":"bcDaSimplified","boundaryDetail":"overview","DAUID":"59390222","DGUID":"2021S051259390222","PRUID":"59","CDUID":"5939","CDNAME":"Columbia-Shuswap","CDTYPE":"RD","CSDUID":"5939007","CSDNAME":"Golden","CSDTYPE":"T","CTUID":null,"CTNAME":null,"parentCdId":"5939","parentCdName":"Columbia-Shuswap","parentCsdId":"5939007","parentCsdName":"Golden","parentCtId":null,"parentCtName":null,"LANDAREA":0.30560000000000004,"areaKm2":0.3051114472532344},"id":56856},{"type":"Feature","geometry":{"type":"Polygon","coordinates":[[[-116.965979,51.290735],[-116.958944,51.293318],[-116.965986,51.292358],[-116.965994,51.294261],[-116.973412,51.294258],[-116.977429,51.294255],[-116.972185,51.290772],[-116.965979,51.290735]]]},"properties":{"id":"59390223","boundaryCode":"59390223","boundaryName":"DA 59390223","boundarySource":"census","boundaryLevel":"bcDaSimplified","boundaryDetail":"overview","DAUID":"59390223","DGUID":"2021S051259390223","PRUID":"59","CDUID":"5939","CDNAME":"Columbia-Shuswap","CDTYPE":"RD","CSDUID":"5939007","CSDNAME":"Golden","CSDTYPE":"T","CTUID":null,"CTNAME":null,"parentCdId":"5939","parentCdName":"Columbia-Shuswap","parentCsdId":"5939007","parentCsdName":"Golden","parentCtId":null,"parentCtName":null,"LANDAREA":0.3124,"areaKm2":0.31198758467468135},"id":56857},{"type":"Feature","geometry":{"type":"Polygon","coordinates":[[[-116.946306,51.286093],[-116.941796,51.287184],[-116.945042,51.288989],[-116.950927,51.28858],[-116.954925,51.291214],[-116.95398,51.294245],[-116.958933,51.294267],[-116.958944,51.293318],[-116.965979,51.290735],[-116.950797,51.285157],[-116.946306,51.286093]]]},"properties":{"id":"59390224","boundaryCode":"59390224","boundaryName":"DA 59390224","boundarySource":"census","boundaryLevel":"bcDaSimplified","boundaryDetail":"overview","DAUID":"59390224","DGUID":"2021S051259390224","PRUID":"59","CDUID":"5939","CDNAME":"Columbia-Shuswap","CDTYPE":"RD","CSDUID":"5939007","CSDNAME":"Golden","CSDTYPE":"T","CTUID":null,"CTNAME":null,"parentCdId":"5939","parentCdName":"Columbia-Shuswap","parentCsdId":"5939007","parentCsdName":"Golden","parentCtId":null,"parentCtName":null,"LANDAREA":0.6553,"areaKm2":0.6543560503579854},"id":56858},{"type":"Feature","geometry":{"type":"Polygon","coordinates":[[[-116.965591,51.304322],[-116.967086,51.303238],[-116.963884,51.297888],[-116.963065,51.296157],[-116.95897,51.296163],[-116.958933,51.294267],[-116.95398,51.294245],[-116.954925,51.291214],[-116.950927,51.28858],[-116.945042,51.288989],[-116.941796,51.287184],[-116.946306,51.286093],[-116.941364,51.283974],[-116.94064,51.279622],[-116.94058,51.281007],[-116.934642,51.280958],[-116.934552,51.288228],[-116.940563,51.288358],[-116.940876,51.299413],[-116.937271,51.30032],[-116.948995,51.302102],[-116.961441,51.300391],[-116.965591,51.304322]]]},"properties":{"id":"59390225","boundaryCode":"59390225","boundaryName":"DA 59390225","boundarySource":"census","boundaryLevel":"bcDaSimplified","boundaryDetail":"overview","DAUID":"59390225","DGUID":"2021S051259390225","PRUID":"59","CDUID":"5939","CDNAME":"Columbia-Shuswap","CDTYPE":"RD","CSDUID":"5939007","CSDNAME":"Golden","CSDTYPE":"T","CTUID":null,"CTNAME":null,"parentCdId":"5939","parentCdName":"Columbia-Shuswap","parentCsdId":"5939007","parentCsdName":"Golden","parentCtId":null,"parentCtName":null,"LANDAREA":2.1504000000000003,"areaKm2":2.2822089402748293},"id":56859},{"type":"Feature","geometry":{"type":"Polygon","coordinates":[[[-116.397716,51.050253],[-116.402015,51.051813],[-116.409804,51.058689],[-116.438149,51.074266],[-116.441755,51.077092],[-116.442542,51.081409],[-116.459289,51.089949],[-116.466348,51.096888],[-116.491455,51.102081],[-116.536112,51.1282],[-116.54999,51.14275],[-116.560322,51.164218],[-116.567761,51.174686],[-116.595363,51.188471],[-116.600013,51.195159],[-116.641711,51.219843],[-116.653735,51.232144],[-116.652849,51.234116],[-116.657139,51.241764],[-116.66572,51.246443],[-116.701112,51.258289],[-116.72806,51.260433],[-116.752884,51.271755],[-116.766856,51.274467],[-116.784855,51.281139],[-116.793493,51.281815],[-116.805848,51.278529],[-116.810685,51.278906],[-116.82605,51.287922],[-116.84236,51.290857],[-116.863165,51.298789],[-116.874481,51.306581],[-116.890549,51.304866],[-116.912463,51.298328],[-116.928504,51.298674],[-116.937271,51.30032],[-116.940876,51.299413],[-116.940563,51.288358],[-116.934552,51.288228],[-116.934642,51.280958],[-116.94058,51.281007],[-116.94064,51.279622],[-116.940429,51.277863],[-116.933217,51.274203],[-116.911606,51.252746],[-116.903103,51.241802],[-116.893485,51.223487],[-116.894038,51.212651],[-116.866114,51.221331],[-116.859546,51.219975],[-116.84947,51.222534],[-116.836959,51.2298],[-116.822079,51.233231],[-116.820882,51.238958],[-116.812616,51.224673],[-116.798425,51.218649],[-116.78276,51.218437],[-116.77876,51.219552],[-116.770362,51.22586],[-116.761128,51.22855],[-116.732714,51.210717],[-116.7183,51.194778],[-116.700795,51.181396],[-116.694607,51.173457],[-116.689353,51.169987],[-116.676093,51.165092],[-116.625038,51.130737],[-116.602163,51.121439],[-116.582076,51.104893],[-116.567745,51.102341],[-116.557536,51.09747],[-116.518017,51.079737],[-116.484285,51.05999],[-116.451736,51.048209],[-116.443059,51.042586],[-116.418571,51.032654],[-116.418487,51.036593],[-116.406374,51.043226],[-116.397716,51.050253]]]},"properties":{"id":"59390226","boundaryCode":"59390226","boundaryName":"DA 59390226","boundarySource":"census","boundaryLevel":"bcDaSimplified","boundaryDetail":"overview","DAUID":"59390226","DGUID":"2021S051259390226","PRUID":"59","CDUID":"5939","CDNAME":"Columbia-Shuswap","CDTYPE":"RD","CSDUID":"5939011","CSDNAME":"Columbia-Shuswap A","CSDTYPE":"RDA","CTUID":null,"CTNAME":null,"parentCdId":"5939","parentCdName":"Columbia-Shuswap","parentCsdId":"5939011","parentCsdName":"Columbia-Shuswap A","parentCtId":null,"parentCtName":null,"LANDAREA":242.25650000000002,"areaKm2":243.51480348980928},"id":56860},{"type":"Feature","geometry":{"type":"Polygon","coordinates":[[[-117.215964,51.276554],[-117.21354,51.27386],[-117.187973,51.26504],[-117.192331,51.258716],[-117.175647,51.249689],[-117.179708,51.249763],[-117.187083,51.239363],[-117.184366,51.236413],[-117.177001,51.233915],[-117.175635,51.229691],[-117.165368,51.227145],[-117.155502,51.226837],[-117.153024,51.225005],[-117.15388,51.219931],[-117.146983,51.213011],[-117.137592,51.209335],[-117.125424,51.210063],[-117.122792,51.202996],[-117.110422,51.201471],[-117.105285,51.19704],[-117.09944,51.195037],[-117.019864,51.200305],[-116.999116,51.196506],[-116.950246,51.223198],[-116.939543,51.227325],[-116.927283,51.229646],[-116.924802,51.226203],[-116.91675,51.223699],[-116.908859,51.224979],[-116.90582,51.228185],[-116.903228,51.228311],[-116.905128,51.240717],[-116.912261,51.243905],[-116.909488,51.244911],[-116.911606,51.252746],[-116.933217,51.274203],[-116.940429,51.277863],[-116.941182,51.274458],[-116.961768,51.280807],[-116.970945,51.280505],[-116.989118,51.302444],[-116.989678,51.307046],[-116.992857,51.310304],[-116.988462,51.309592],[-116.98794,51.314622],[-117.000669,51.315222],[-116.999512,51.312949],[-117.009451,51.31924],[-117.008318,51.315431],[-117.037716,51.316227],[-117.044351,51.312982],[-117.051381,51.314939],[-117.060684,51.314582],[-117.082281,51.308003],[-117.111317,51.294374],[-117.141392,51.303658],[-117.15626,51.310951],[-117.16826,51.313073],[-117.185148,51.312465],[-117.209465,51.317272],[-117.230561,51.315165],[-117.223616,51.289006],[-117.215799,51.279476],[-117.215964,51.276554]]]},"properties":{"id":"59390227","boundaryCode":"59390227","boundaryName":"DA 59390227","boundarySource":"census","boundaryLevel":"bcDaSimplified","boundaryDetail":"overview","DAUID":"59390227","DGUID":"2021S051259390227","PRUID":"59","CDUID":"5939","CDNAME":"Columbia-Shuswap","CDTYPE":"RD","CSDUID":"5939011","CSDNAME":"Columbia-Shuswap A","CSDTYPE":"RDA","CTUID":null,"CTNAME":null,"parentCdId":"5939","parentCdName":"Columbia-Shuswap","parentCsdId":"5939011","parentCsdName":"Columbia-Shuswap A","parentCtId":null,"parentCtName":null,"LANDAREA":203.74880000000002,"areaKm2":207.48732391343776},"id":56861},{"type":"Feature","geometry":{"type":"Polygon","coordinates":[[[-116.407528,50.94964],[-116.318338,50.949084],[-116.325429,50.962203],[-116.337054,50.975483],[-116.346935,50.979002],[-116.365361,50.991356],[-116.380997,50.999243],[-116.3807,51.007186],[-116.384604,51.011872],[-116.403625,51.020116],[-116.407338,51.027923],[-116.418571,51.032654],[-116.443059,51.042586],[-116.451736,51.048209],[-116.484285,51.05999],[-116.518017,51.079737],[-116.557536,51.09747],[-116.653213,51.096002],[-116.653264,51.079078],[-116.673163,51.089564],[-116.683021,51.091076],[-116.701576,51.10542],[-116.717471,51.113752],[-116.726536,51.121425],[-116.758207,51.140222],[-116.770949,51.143512],[-116.778672,51.147969],[-116.796876,51.154651],[-116.833207,51.173635],[-116.849244,51.180109],[-116.855384,51.184623],[-116.857022,51.189876],[-116.877882,51.203985],[-116.883168,51.21],[-116.887248,51.210184],[-116.882623,51.206998],[-116.881677,51.202501],[-116.894038,51.212651],[-116.893485,51.223487],[-116.903103,51.241802],[-116.911606,51.252746],[-116.909488,51.244911],[-116.912261,51.243905],[-116.905128,51.240717],[-116.903228,51.228311],[-116.90582,51.228185],[-116.908859,51.224979],[-116.91675,51.223699],[-116.924802,51.226203],[-116.927283,51.229646],[-116.939543,51.227325],[-116.950246,51.223198],[-116.999116,51.196506],[-117.019864,51.200305],[-117.09944,51.195037],[-117.105285,51.19704],[-117.110422,51.201471],[-117.122792,51.202996],[-117.125424,51.210063],[-117.137592,51.209335],[-117.146983,51.213011],[-117.15388,51.219931],[-117.153024,51.225005],[-117.155502,51.226837],[-117.165368,51.227145],[-117.175635,51.229691],[-117.177001,51.233915],[-117.184366,51.236413],[-117.187083,51.239363],[-117.179708,51.249763],[-117.175647,51.249689],[-117.192331,51.258716],[-117.187973,51.26504],[-117.21354,51.27386],[-117.215964,51.276554],[-117.221548,51.274385],[-117.234392,51.27257],[-117.250199,51.275232],[-117.258689,51.273983],[-117.261511,51.27691],[-117.260352,51.279847],[-117.277539,51.284397],[-117.331442,51.284432],[-117.321039,51.269949],[-117.322965,51.262489],[-117.321542,51.258158],[-117.30979,51.249998],[-117.313465,51.240568],[-117.311843,51.234993],[-117.302702,51.228924],[-117.293647,51.206475],[-117.285182,51.198576],[-117.286126,51.190564],[-117.28429,51.184484],[-117.28849,51.178975],[-117.288003,51.174356],[-117.262722,51.155468],[-117.261005,51.153289],[-117.262767,51.149516],[-117.246363,51.141844],[-117.251563,51.136552],[-117.250029,51.134157],[-117.253107,51.129993],[-117.252747,51.128709],[-117.245848,51.127485],[-117.241921,51.124241],[-117.242906,51.121261],[-117.238396,51.112946],[-117.241173,51.107776],[-117.231952,51.100084],[-117.23437,51.09756],[-117.23002,51.091294],[-117.235398,51.088776],[-117.224656,51.085479],[-117.224031,51.080838],[-117.219618,51.077849],[-117.218847,51.073958],[-117.211367,51.065788],[-117.203775,51.065941],[-117.199026,51.063567],[-117.201063,51.058622],[-117.198762,51.055057],[-117.190777,51.054836],[-117.172542,51.045254],[-117.162682,51.044352],[-117.160285,51.036511],[-117.165254,51.028506],[-117.163842,51.026329],[-117.147518,51.025071],[-117.137898,51.02802],[-117.130999,51.022476],[-117.130144,51.018111],[-117.138073,51.005784],[-117.154483,50.998384],[-117.155381,50.996021],[-117.16525,50.993523],[-117.162092,50.981322],[-117.155244,50.975854],[-117.143506,50.972732],[-117.131799,50.976804],[-117.122375,50.977744],[-117.110697,50.97347],[-117.111906,50.969921],[-117.108857,50.967554],[-117.095202,50.970975],[-117.083678,50.968981],[-117.066592,50.971774],[-117.064758,50.968237],[-117.05866,50.965146],[-117.049811,50.966012],[-117.033124,50.958098],[-117.033286,50.955847],[-117.038073,50.954869],[-117.041123,50.947496],[-117.048514,50.94484],[-117.048289,50.940878],[-117.068975,50.920156],[-117.068936,50.918014],[-117.065005,50.916335],[-117.063419,50.909845],[-117.067409,50.906837],[-117.06514,50.903869],[-117.071151,50.898713],[-117.076007,50.898393],[-117.069781,50.891772],[-117.070062,50.889432],[-117.075961,50.882861],[-117.07935,50.86993],[-117.083964,50.864574],[-117.075895,50.855499],[-117.06467,50.853235],[-117.045746,50.858819],[-117.041543,50.856421],[-117.046846,50.846839],[-117.048003,50.838635],[-117.045843,50.835413],[-117.050444,50.829894],[-117.040584,50.821889],[-117.038128,50.81501],[-117.027059,50.81514],[-117.015573,50.819883],[-117.012176,50.819423],[-117.003604,50.813681],[-116.989658,50.809218],[-116.980693,50.810655],[-116.964272,50.810297],[-116.958562,50.808579],[-116.954104,50.802994],[-116.932597,50.796788],[-116.927639,50.786923],[-116.928584,50.784072],[-116.922318,50.779814],[-116.921462,50.773591],[-116.918401,50.77157],[-116.91377,50.770416],[-116.906539,50.771928],[-116.897817,50.769363],[-116.891716,50.771113],[-116.889683,50.768482],[-116.880289,50.770152],[-116.8719,50.760893],[-116.861096,50.756692],[-116.847088,50.760496],[-116.832108,50.760716],[-116.828208,50.75891],[-116.829674,50.749333],[-116.823101,50.748046],[-116.816204,50.742507],[-116.820613,50.735157],[-116.809575,50.726592],[-116.802468,50.729513],[-116.796561,50.729309],[-116.783016,50.734553],[-116.783271,50.737026],[-116.78876,50.73948],[-116.789989,50.745536],[-116.784803,50.749119],[-116.779012,50.74916],[-116.775217,50.751166],[-116.771968,50.766744],[-116.759876,50.770144],[-116.745366,50.771302],[-116.749535,50.790854],[-116.748093,50.796181],[-116.739982,50.802637],[-116.737863,50.806458],[-116.739252,50.808617],[-116.737648,50.813238],[-116.745899,50.816219],[-116.753017,50.830942],[-116.763473,50.840076],[-116.765358,50.84575],[-116.759941,50.848374],[-116.749388,50.846999],[-116.746471,50.847991],[-116.744097,50.851878],[-116.736696,50.851461],[-116.723221,50.854024],[-116.724251,50.863657],[-116.733595,50.875421],[-116.727102,50.880284],[-116.71317,50.880108],[-116.708059,50.885732],[-116.701429,50.886046],[-116.69711,50.889689],[-116.69249,50.890264],[-116.686418,50.888479],[-116.672174,50.88979],[-116.640261,50.908461],[-116.628741,50.920681],[-116.535727,50.92098],[-116.535395,50.935143],[-116.499737,50.934934],[-116.497526,50.938701],[-116.492535,50.938078],[-116.4882,50.940523],[-116.464902,50.938642],[-116.463575,50.936497],[-116.443666,50.935204],[-116.444377,50.949829],[-116.407528,50.94964]]]},"properties":{"id":"59390228","boundaryCode":"59390228","boundaryName":"DA 59390228","boundarySource":"census","boundaryLevel":"bcDaSimplified","boundaryDetail":"overview","DAUID":"59390228","DGUID":"2021S051259390228","PRUID":"59","CDUID":"5939","CDNAME":"Columbia-Shuswap","CDTYPE":"RD","CSDUID":"5939011","CSDNAME":"Columbia-Shuswap A","CSDTYPE":"RDA","CTUID":null,"CTNAME":null,"parentCdId":"5939","parentCdName":"Columbia-Shuswap","parentCsdId":"5939011","parentCsdName":"Columbia-Shuswap A","parentCtId":null,"parentCtName":null,"LANDAREA":1791.101,"areaKm2":1832.0337753716788},"id":56862},{"type":"Feature","geometry":{"type":"Polygon","coordinates":[[[-116.894038,51.212651],[-116.881677,51.202501],[-116.882623,51.206998],[-116.887248,51.210184],[-116.883168,51.21],[-116.877882,51.203985],[-116.857022,51.189876],[-116.855384,51.184623],[-116.849244,51.180109],[-116.833207,51.173635],[-116.796876,51.154651],[-116.778672,51.147969],[-116.770949,51.143512],[-116.758207,51.140222],[-116.726536,51.121425],[-116.717471,51.113752],[-116.701576,51.10542],[-116.683021,51.091076],[-116.673163,51.089564],[-116.653264,51.079078],[-116.653213,51.096002],[-116.557536,51.09747],[-116.567745,51.102341],[-116.582076,51.104893],[-116.602163,51.121439],[-116.625038,51.130737],[-116.676093,51.165092],[-116.689353,51.169987],[-116.694607,51.173457],[-116.700795,51.181396],[-116.7183,51.194778],[-116.732714,51.210717],[-116.761128,51.22855],[-116.770362,51.22586],[-116.77876,51.219552],[-116.78276,51.218437],[-116.798425,51.218649],[-116.812616,51.224673],[-116.820882,51.238958],[-116.822079,51.233231],[-116.836959,51.2298],[-116.84947,51.222534],[-116.859546,51.219975],[-116.866114,51.221331],[-116.894038,51.212651]]]},"properties":{"id":"59390229","boundaryCode":"59390229","boundaryName":"DA 59390229","boundarySource":"census","boundaryLevel":"bcDaSimplified","boundaryDetail":"overview","DAUID":"59390229","DGUID":"2021S051259390229","PRUID":"59","CDUID":"5939","CDNAME":"Columbia-Shuswap","CDTYPE":"RD","CSDUID":"5939011","CSDNAME":"Columbia-Shuswap A","CSDTYPE":"RDA","CTUID":null,"CTNAME":null,"parentCdId":"5939","parentCdName":"Columbia-Shuswap","parentCsdId":"5939011","parentCsdName":"Columbia-Shuswap A","parentCtId":null,"parentCtName":null,"LANDAREA":136.6918,"areaKm2":136.50673157271473},"id":56863},{"type":"Feature","geometry":{"type":"Polygon","coordinates":[[[-117.902876,50.528237],[-117.856994,50.527865],[-117.849903,50.542394],[-117.818375,50.541007],[-117.805116,50.54731],[-117.793221,50.550586],[-117.762947,50.550913],[-117.753404,50.554457],[-117.746862,50.555218],[-117.740686,50.554382],[-117.730223,50.549889],[-117.70326,50.547735],[-117.694268,50.545138],[-117.689237,50.539441],[-117.676478,50.53822],[-117.673784,50.533437],[-117.671123,50.532441],[-117.656103,50.534828],[-117.648752,50.532239],[-117.64474,50.535408],[-117.644798,50.541951],[-117.637707,50.548607],[-117.615874,50.543706],[-117.608101,50.531917],[-117.605454,50.523443],[-117.597737,50.519227],[-117.585289,50.504233],[-117.576859,50.502568],[-117.570994,50.504859],[-117.558818,50.502319],[-117.549434,50.496948],[-117.545496,50.489748],[-117.550237,50.484205],[-117.527997,50.47579],[-117.517016,50.468154],[-117.510911,50.461201],[-117.499754,50.457151],[-117.501622,50.469953],[-117.493776,50.475815],[-117.496764,50.477299],[-117.49893,50.485242],[-117.494367,50.488995],[-117.480558,50.491257],[-117.47329,50.494491],[-117.462956,50.492545],[-117.451046,50.493532],[-117.435912,50.484375],[-117.36596,50.486448],[-117.351695,50.483658],[-117.342741,50.483445],[-117.321213,50.487325],[-117.295723,50.497034],[-117.281375,50.504701],[-117.276653,50.511803],[-117.271029,50.513679],[-117.262235,50.513983],[-117.24386,50.519477],[-117.2407,50.524049],[-117.24505,50.535087],[-117.256977,50.538373],[-117.258837,50.544345],[-117.270788,50.553028],[-117.279841,50.556124],[-117.285804,50.562064],[-117.300655,50.56814],[-117.307061,50.572419],[-117.306813,50.577454],[-117.273382,50.597808],[-117.273406,50.602769],[-117.267847,50.613574],[-117.243839,50.623105],[-117.229605,50.63212],[-117.229167,50.646818],[-117.232725,50.651341],[-117.234849,50.652942],[-117.254333,50.654477],[-117.26425,50.664694],[-117.275923,50.671311],[-117.268027,50.674424],[-117.270478,50.685614],[-117.263439,50.692553],[-117.263146,50.712092],[-117.266428,50.719894],[-117.258407,50.728233],[-117.253775,50.73054],[-117.254777,50.735253],[-117.252097,50.742018],[-117.255128,50.744552],[-117.261507,50.746047],[-117.266247,50.744066],[-117.273557,50.744599],[-117.284772,50.73743],[-117.301384,50.733402],[-117.308754,50.738401],[-117.314075,50.729213],[-117.320631,50.726847],[-117.32312,50.724185],[-117.356379,50.71998],[-117.361216,50.716471],[-117.360741,50.712398],[-117.366952,50.708091],[-117.370841,50.701988],[-117.376127,50.706546],[-117.392898,50.70915],[-117.397766,50.711399],[-117.401484,50.718552],[-117.394403,50.719035],[-117.392298,50.722095],[-117.38229,50.74758],[-117.389982,50.750602],[-117.390248,50.758721],[-117.396408,50.7644],[-117.400864,50.776593],[-117.412667,50.781715],[-117.419669,50.783107],[-117.422582,50.781752],[-117.429111,50.782771],[-117.432701,50.796839],[-117.449104,50.79648],[-117.455363,50.797678],[-117.458763,50.800396],[-117.466808,50.811198],[-117.464133,50.817764],[-117.453278,50.830049],[-117.455418,50.831034],[-117.460319,50.849699],[-117.470452,50.859971],[-117.469704,50.866221],[-117.472632,50.866726],[-117.474911,50.870232],[-117.480113,50.872481],[-117.482028,50.877669],[-117.487523,50.879467],[-117.490657,50.883115],[-117.48825,50.886402],[-117.475415,50.892533],[-117.474747,50.896564],[-117.467302,50.902418],[-117.459141,50.899338],[-117.444944,50.90027],[-117.432518,50.903753],[-117.431284,50.905439],[-117.426128,50.903973],[-117.417615,50.909253],[-117.416407,50.9192],[-117.41893,50.924545],[-117.424521,50.92397],[-117.431327,50.926205],[-117.434211,50.930492],[-117.440997,50.934372],[-117.43826,50.936676],[-117.438636,50.94681],[-117.436451,50.948599],[-117.429905,50.948273],[-117.429042,50.95035],[-117.40891,50.960394],[-117.397817,50.961202],[-117.396963,50.968176],[-117.40182,50.978819],[-117.398475,50.982742],[-117.39863,50.985955],[-117.387802,50.99086],[-117.390211,50.999803],[-117.373222,51.012722],[-117.372277,51.01663],[-117.355634,51.024766],[-117.346414,51.034012],[-117.347515,51.038888],[-117.35147,51.048066],[-117.349226,51.054138],[-117.353585,51.054269],[-117.36133,51.058143],[-117.371566,51.059696],[-117.372215,51.06359],[-117.38379,51.074733],[-117.384374,51.080835],[-117.374526,51.092555],[-117.380216,51.103776],[-117.40437,51.111067],[-117.436499,51.105154],[-117.451262,51.10636],[-117.457453,51.104651],[-117.46937,51.097906],[-117.468125,51.093935],[-117.463189,51.093239],[-117.458145,51.090218],[-117.452727,51.074408],[-117.461522,51.067852],[-117.469912,51.067296],[-117.471341,51.062966],[-117.478079,51.057274],[-117.482551,51.057458],[-117.488848,51.060956],[-117.504333,51.060142],[-117.510333,51.064814],[-117.516878,51.06511],[-117.521529,51.067752],[-117.528589,51.077419],[-117.534584,51.078893],[-117.539874,51.082884],[-117.543561,51.090574],[-117.634109,51.072852],[-117.640511,51.073134],[-117.644653,51.06952],[-117.648232,51.068908],[-117.658176,51.072487],[-117.671204,51.072843],[-117.685163,51.07721],[-117.691006,51.075623],[-117.711321,51.07536],[-117.715195,51.085177],[-117.70145,51.0907],[-117.700013,51.094892],[-117.67932,51.10917],[-117.672722,51.12598],[-117.669809,51.126765],[-117.669715,51.129144],[-117.678994,51.134242],[-117.681577,51.143867],[-117.671369,51.154587],[-117.671076,51.167161],[-117.673211,51.169845],[-117.694894,51.179924],[-117.707733,51.18134],[-117.711872,51.186924],[-117.713769,51.20308],[-117.723351,51.234591],[-117.727291,51.234436],[-117.72843,51.241574],[-117.733459,51.243847],[-117.747628,51.246375],[-117.755743,51.252717],[-117.752932,51.256203],[-117.738864,51.26183],[-117.722127,51.274531],[-117.72902,51.279935],[-117.736173,51.278551],[-117.746152,51.287389],[-117.74115,51.29401],[-117.74586,51.302547],[-117.730573,51.314855],[-117.754526,51.3202],[-117.768194,51.329953],[-117.768559,51.341847],[-117.793277,51.341534],[-117.804938,51.345197],[-117.803947,51.356371],[-117.828715,51.363669],[-117.839711,51.3716],[-117.838492,51.384113],[-117.835084,51.387582],[-117.858834,51.390429],[-117.865245,51.401786],[-117.892101,51.426065],[-117.911901,51.426522],[-117.922873,51.453202],[-117.930055,51.451914],[-117.97094,51.47718],[-117.980808,51.485612],[-117.988596,51.499883],[-117.977265,51.509806],[-117.959926,51.510215],[-117.948162,51.525094],[-117.939459,51.530948],[-117.941677,51.542565],[-117.954322,51.544981],[-117.981413,51.574582],[-117.988811,51.57695],[-117.990132,51.580061],[-117.981371,51.592588],[-117.98202,51.600241],[-117.986563,51.607549],[-117.975777,51.628811],[-117.973727,51.639333],[-117.951603,51.647668],[-117.941141,51.648206],[-117.933381,51.655472],[-117.930744,51.665171],[-117.938351,51.669521],[-117.940929,51.683414],[-117.934244,51.695901],[-117.923091,51.701596],[-117.923235,51.709564],[-117.927996,51.714328],[-117.918769,51.720743],[-117.908306,51.723759],[-117.915661,51.725694],[-117.926828,51.723677],[-117.940954,51.723438],[-117.958513,51.725649],[-117.97495,51.73278],[-117.98167,51.739507],[-118.001443,51.74423],[-118.013699,51.744685],[-118.015023,51.73985],[-118.022147,51.736083],[-118.019237,51.728481],[-118.024511,51.725354],[-118.058013,51.72356],[-118.074839,51.725579],[-118.094695,51.704386],[-118.112105,51.710164],[-118.120669,51.716912],[-118.125562,51.723908],[-118.121304,51.745159],[-118.130369,51.778978],[-118.134911,51.781569],[-118.160807,51.779917],[-118.184822,51.786978],[-118.189858,51.791472],[-118.175984,51.802956],[-118.17645,51.8122],[-118.158478,51.821405],[-118.15126,51.827452],[-118.139845,51.855418],[-118.148744,51.863481],[-118.124057,51.889088],[-118.125585,51.894324],[-118.142706,51.898024],[-118.156206,51.898165],[-118.175057,51.907289],[-118.174508,51.913163],[-118.168323,51.917927],[-118.174379,51.937212],[-118.187827,51.94294],[-118.194636,51.951432],[-118.195538,51.963713],[-118.207213,51.966776],[-118.211456,51.971421],[-118.218663,51.975191],[-118.2339,51.973254],[-118.261559,51.964138],[-118.275312,51.964666],[-118.278771,51.973534],[-118.285814,51.982716],[-118.296905,51.987361],[-118.311086,51.987985],[-118.330693,51.992534],[-118.346617,51.993074],[-118.356992,51.991938],[-118.360817,51.980271],[-118.367928,51.97984],[-118.374759,51.976271],[-118.392345,51.979928],[-118.398072,52.001477],[-118.403688,52.00138],[-118.391624,52.013621],[-118.392712,52.021134],[-118.397262,52.029369],[-118.45591,52.063236],[-118.447125,52.066863],[-118.440361,52.075021],[-118.439025,52.090824],[-118.446409,52.143282],[-118.445545,52.152141],[-118.441212,52.156166],[-118.451655,52.16126],[-118.456501,52.16736],[-118.453514,52.186488],[-118.460387,52.195702],[-118.470332,52.201675],[-118.478498,52.211787],[-118.464421,52.224025],[-118.496209,52.243275],[-118.506192,52.251278],[-118.52654,52.26167],[-118.54054,52.273001],[-118.551799,52.268425],[-118.563537,52.258388],[-118.554938,52.239957],[-118.555788,52.233011],[-118.558826,52.22949],[-118.569273,52.224536],[-118.577342,52.200323],[-118.58243,52.193008],[-118.607942,52.188772],[-118.628646,52.182698],[-118.640097,52.169558],[-118.649034,52.166541],[-118.666323,52.164115],[-118.676305,52.151469],[-118.683861,52.151609],[-118.686869,52.153327],[-118.694162,52.166667],[-118.716078,52.161351],[-118.724259,52.161633],[-118.729911,52.1652],[-118.733514,52.176439],[-118.751994,52.185158],[-118.768991,52.180399],[-118.792847,52.176444],[-118.80322,52.177229],[-118.829027,52.167948],[-118.833685,52.164318],[-118.837799,52.146162],[-118.8499,52.137262],[-118.852734,52.122466],[-118.866705,52.102424],[-118.854569,52.088022],[-118.872824,52.076024],[-118.872495,52.072118],[-118.868617,52.067826],[-118.855028,52.064574],[-118.848241,52.058151],[-118.851328,52.049361],[-118.855954,52.045641],[-118.863393,52.044203],[-118.887435,52.041608],[-118.90941,52.036197],[-118.919504,52.039507],[-118.936258,52.034111],[-118.941781,52.030421],[-118.944273,52.026204],[-118.949406,52.006851],[-118.956749,52.00332],[-118.955633,52.000466],[-118.971936,51.988149],[-118.971868,51.977226],[-118.964326,51.974288],[-118.930605,51.966631],[-118.916028,51.96566],[-118.891045,51.95408],[-118.902626,51.939402],[-118.905863,51.931403],[-118.908535,51.928066],[-118.913882,51.92676],[-118.944333,51.927555],[-118.976618,51.934569],[-118.984614,51.932643],[-118.989094,51.929594],[-118.987031,51.920103],[-118.978783,51.914363],[-118.965967,51.887117],[-118.972637,51.872842],[-118.98132,51.869057],[-118.990282,51.867623],[-118.99015,51.864559],[-118.960612,51.854261],[-118.950304,51.849488],[-118.948923,51.846968],[-118.947163,51.836534],[-118.949679,51.831098],[-118.965049,51.824347],[-118.961408,51.810576],[-118.942087,51.793325],[-118.924114,51.794318],[-118.906015,51.786177],[-118.888864,51.785816],[-118.885829,51.782996],[-118.886828,51.775051],[-118.897412,51.763457],[-118.888174,51.747755],[-118.886327,51.730968],[-118.918454,51.71743],[-118.917567,51.703245],[-118.924149,51.696347],[-118.923885,51.689568],[-118.92246,51.682661],[-118.908028,51.670408],[-118.907839,51.66371],[-118.903713,51.656746],[-118.895906,51.652482],[-118.890124,51.646625],[-118.883961,51.6442],[-118.863766,51.645797],[-118.855712,51.644859],[-118.843736,51.637223],[-118.825826,51.634825],[-118.81772,51.626648],[-118.816501,51.620277],[-118.818282,51.614085],[-118.815048,51.601727],[-118.816752,51.59089],[-118.81741,51.589106],[-118.827365,51.585717],[-118.828468,51.582849],[-118.826888,51.57463],[-118.828507,51.550774],[-118.832572,51.537192],[-118.83234,51.531056],[-118.828176,51.526412],[-118.819198,51.527267],[-118.811027,51.524003],[-118.796419,51.523912],[-118.792687,51.525528],[-118.783102,51.536416],[-118.775472,51.531913],[-118.767086,51.520532],[-118.753116,51.523443],[-118.745525,51.527915],[-118.738989,51.527762],[-118.727813,51.523993],[-118.713815,51.510736],[-118.695391,51.505449],[-118.691832,51.502615],[-118.691594,51.500574],[-118.694452,51.499003],[-118.703143,51.496874],[-118.71489,51.490181],[-118.713245,51.484895],[-118.703956,51.475271],[-118.690538,51.471046],[-118.679446,51.462662],[-118.669616,51.459953],[-118.661645,51.459625],[-118.651464,51.46303],[-118.641801,51.462471],[-118.632553,51.463769],[-118.630236,51.459024],[-118.633204,51.445618],[-118.612807,51.440272],[-118.609003,51.420791],[-118.616863,51.413671],[-118.616853,51.409345],[-118.597879,51.400407],[-118.594839,51.396574],[-118.581553,51.390094],[-118.582259,51.387449],[-118.589109,51.381633],[-118.59068,51.372021],[-118.616571,51.362981],[-118.611435,51.339676],[-118.61607,51.333135],[-118.611518,51.328157],[-118.602212,51.3233],[-118.600019,51.310097],[-118.594792,51.308038],[-118.585783,51.29948],[-118.579184,51.297905],[-118.560151,51.299216],[-118.551391,51.290991],[-118.549726,51.279171],[-118.551089,51.274763],[-118.555765,51.271848],[-118.558315,51.265497],[-118.569556,51.259158],[-118.576852,51.251905],[-118.573806,51.244633],[-118.574739,51.239307],[-118.566713,51.23018],[-118.550711,51.220662],[-118.544254,51.214157],[-118.54718,51.207128],[-118.568067,51.202447],[-118.565942,51.194536],[-118.552292,51.184985],[-118.538773,51.178503],[-118.535101,51.177622],[-118.504492,51.179144],[-118.4963,51.176183],[-118.484539,51.175275],[-118.469447,51.170519],[-118.474387,51.161598],[-118.471994,51.156394],[-118.473123,51.154551],[-118.475748,51.152674],[-118.484058,51.151315],[-118.491591,51.146923],[-118.490442,51.136071],[-118.482698,51.133083],[-118.474334,51.126638],[-118.478098,51.119286],[-118.475608,51.112869],[-118.480625,51.108795],[-118.481314,51.101824],[-118.471294,51.090879],[-118.467391,51.091593],[-118.463531,51.089141],[-118.462772,51.079044],[-118.459266,51.076016],[-118.449387,51.076544],[-118.444768,51.075164],[-118.43942,51.070169],[-118.432237,51.072474],[-118.427808,51.065981],[-118.421152,51.062784],[-118.420255,51.058931],[-118.423329,51.055116],[-118.434745,51.055186],[-118.435455,51.048021],[-118.428745,51.038398],[-118.430004,51.031367],[-118.420266,51.022068],[-118.425716,51.016254],[-118.419133,51.004788],[-118.406179,50.99767],[-118.393523,51.003199],[-118.389119,51.007049],[-118.360942,51.008727],[-118.350165,51.003157],[-118.345945,50.998793],[-118.35258,50.994128],[-118.354598,50.98738],[-118.351407,50.979957],[-118.353736,50.974507],[-118.353365,50.963363],[-118.341199,50.952352],[-118.339714,50.948547],[-118.332894,50.947715],[-118.329637,50.943717],[-118.330275,50.940156],[-118.325291,50.933793],[-118.31969,50.931239],[-118.325997,50.927634],[-118.323505,50.918419],[-118.316981,50.912895],[-118.314917,50.908442],[-118.314459,50.904922],[-118.319586,50.90134],[-118.314561,50.896039],[-118.314442,50.888374],[-118.307435,50.887135],[-118.29109,50.890129],[-118.285049,50.889605],[-118.280925,50.895464],[-118.278428,50.89595],[-118.26863,50.893478],[-118.266136,50.884508],[-118.273434,50.879799],[-118.282245,50.878516],[-118.293271,50.86986],[-118.294297,50.864409],[-118.286319,50.84929],[-118.28296,50.847156],[-118.277354,50.846739],[-118.26837,50.840329],[-118.276035,50.823973],[-118.27273,50.822815],[-118.26747,50.823789],[-118.258528,50.818558],[-118.267972,50.813446],[-118.26775,50.809744],[-118.261198,50.799388],[-118.263849,50.788891],[-118.261466,50.785],[-118.252286,50.782116],[-118.247628,50.773809],[-118.24847,50.766907],[-118.241913,50.755199],[-118.226962,50.743387],[-118.205869,50.738931],[-118.209846,50.729518],[-118.206675,50.719921],[-118.208879,50.713375],[-118.200678,50.698953],[-118.207295,50.690288],[-118.181952,50.684761],[-118.168517,50.683383],[-118.145254,50.684166],[-118.128715,50.680938],[-118.123276,50.681234],[-118.101931,50.687762],[-118.076613,50.693261],[-118.069616,50.688399],[-118.071654,50.678205],[-118.068391,50.66655],[-118.05539,50.663518],[-118.039349,50.663291],[-118.01383,50.653127],[-118.011291,50.644476],[-118.006819,50.639058],[-118.005122,50.629698],[-118.007666,50.609075],[-117.994354,50.548107],[-117.988692,50.54137],[-117.984792,50.538534],[-117.979443,50.538741],[-117.977938,50.532852],[-117.926116,50.530623],[-117.901819,50.533198],[-117.902876,50.528237]],[[-118.201122,51.006773],[-118.197941,51.005725],[-118.195095,51.003503],[-118.194934,51.005082],[-118.15339,51.004726],[-118.153338,50.997262],[-118.141988,50.997115],[-118.142857,50.991908],[-118.142364,50.98255],[-118.146666,50.980346],[-118.145703,50.961136],[-118.139436,50.950777],[-118.135581,50.926007],[-118.143218,50.925785],[-118.144318,50.932854],[-118.149625,50.932659],[-118.149682,50.936414],[-118.154741,50.936277],[-118.15479,50.940216],[-118.15199,50.940378],[-118.152108,50.942189],[-118.154992,50.942161],[-118.155735,50.946611],[-118.160971,50.946464],[-118.164504,50.952643],[-118.169705,50.954955],[-118.172119,50.967082],[-118.175348,50.968627],[-118.176108,50.954054],[-118.195714,50.951849],[-118.205932,50.959999],[-118.209452,50.981685],[-118.213397,50.983187],[-118.220807,50.987044],[-118.227303,50.993552],[-118.231235,50.994229],[-118.231129,50.99317],[-118.230893,50.990824],[-118.246792,50.990651],[-118.247036,50.998622],[-118.24129,50.999672],[-118.244793,51.032727],[-118.240659,51.032698],[-118.240628,51.034038],[-118.229353,51.033968],[-118.228811,51.041174],[-118.223484,51.04135],[-118.223454,51.055663],[-118.212109,51.055865],[-118.211937,51.063043],[-118.178546,51.063186],[-118.177469,51.049157],[-118.206327,51.031181],[-118.206345,51.025539],[-118.211331,51.025407],[-118.212956,51.022325],[-118.212969,51.020375],[-118.210249,51.020403],[-118.209456,51.017547],[-118.207207,51.017557],[-118.207011,51.012118],[-118.209398,51.01208],[-118.209516,51.010801],[-118.201122,51.006773]]]},"properties":{"id":"59390230","boundaryCode":"59390230","boundaryName":"DA 59390230","boundarySource":"census","boundaryLevel":"bcDaSimplified","boundaryDetail":"overview","DAUID":"59390230","DGUID":"2021S051259390230","PRUID":"59","CDUID":"5939","CDNAME":"Columbia-Shuswap","CDTYPE":"RD","CSDUID":"5939023","CSDNAME":"Columbia-Shuswap B","CSDTYPE":"RDA","CTUID":null,"CTNAME":null,"parentCdId":"5939","parentCdName":"Columbia-Shuswap","parentCsdId":"5939023","parentCsdName":"Columbia-Shuswap B","parentCtId":null,"parentCtName":null,"LANDAREA":9763.800500000001,"areaKm2":10112.320135163147},"id":56864},{"type":"Feature","geometry":{"type":"Polygon","coordinates":[[[-118.175348,50.968627],[-118.172119,50.967082],[-118.169705,50.954955],[-118.164504,50.952643],[-118.166488,50.954944],[-118.164613,50.959922],[-118.16664,50.9638],[-118.166442,50.981567],[-118.168853,50.98282],[-118.170176,50.981435],[-118.170182,50.983766],[-118.171354,50.981432],[-118.178244,50.981399],[-118.178262,50.975898],[-118.184815,50.975913],[-118.184184,50.970751],[-118.17798,50.971428],[-118.175348,50.968627]]]},"properties":{"id":"59390232","boundaryCode":"59390232","boundaryName":"DA 59390232","boundarySource":"census","boundaryLevel":"bcDaSimplified","boundaryDetail":"overview","DAUID":"59390232","DGUID":"2021S051259390232","PRUID":"59","CDUID":"5939","CDNAME":"Columbia-Shuswap","CDTYPE":"RD","CSDUID":"5939019","CSDNAME":"Revelstoke","CSDTYPE":"CY","CTUID":null,"CTNAME":null,"parentCdId":"5939","parentCdName":"Columbia-Shuswap","parentCsdId":"5939019","parentCsdName":"Revelstoke","parentCtId":null,"parentCtName":null,"LANDAREA":2.0177,"areaKm2":2.0627775989055115},"id":56865}]}