{"type":"FeatureCollection","features":[{"type":"Feature","properties":{"id":"59490219","boundaryCode":"59490219","boundaryName":"DA 59490219","boundarySource":"census","boundaryLevel":"bcDaSimplified","boundaryDetail":"overview","DAUID":"59490219","DGUID":"2021S051259490219","PRUID":"59","CDUID":null,"CSDUID":null,"CTUID":null,"LANDAREA":28105.9945,"areaKm2":28592.74018979916},"geometry":{"type":"Polygon","coordinates":[[[-131.0016946988202,58.00055608269938],[-133.0695633448184,58.000056844159715],[-132.98901336135177,57.94297776238575],[-132.961832504938,57.920701614514925],[-132.91798578596115,57.87949441212294],[-132.86808845874563,57.844591764676245],[-132.82293845255327,57.78757162396548],[-132.80249713135169,57.75830801660665],[-132.75946308156924,57.70753091496646],[-132.7194729221362,57.66910148445386],[-132.68676272891017,57.64297096656652],[-132.62505811173654,57.57491305873585],[-132.57604611379736,57.52568008318461],[-132.5635989080998,57.50683092133926],[-132.51446711563625,57.464529357350926],[-132.47834464285796,57.4378601501166],[-132.4243021709589,57.39225044811787],[-132.36960149100426,57.351428656161275],[-132.33069812497266,57.306317171117975],[-132.24464042899405,57.212017303398525],[-132.36932721927863,57.09142658190093],[-132.04594613118877,57.044048231572155],[-132.12116643009918,56.86690572398941],[-131.87077769325666,56.806254392174814],[-131.90185764775336,56.75436528240111],[-131.85747642904107,56.70177806312979],[-131.83365100749828,56.598779774190525],[-131.5817741214952,56.61237615996015],[-131.54269121445353,56.58959369154616],[-131.4674041498177,56.551077704360225],[-131.33149875412883,56.505830215725666],[-131.20211265852345,56.45833090661855],[-131.16417651331238,56.44729012044892],[-131.0872218926281,56.40635789662654],[-131.0433388482588,56.400936159728026],[-131.02422239410632,56.422398315134835],[-131.01597209085008,56.43592997133113],[-131.00387901944288,56.44220644277866],[-130.9599277605321,56.44730980088854],[-130.9392359140189,56.45398370212849],[-130.92759689869663,56.464652562098465],[-130.92897411455283,56.47463467660099],[-130.92000988808866,56.48629669303481],[-130.88752497700528,56.490406671458814],[-130.80571423388963,56.49360991018851],[-130.78908177565668,56.49724790245209],[-130.76732730320944,56.512038270756534],[-130.74269847460815,56.51563081166172],[-130.69227778420887,56.518311345520765],[-130.6728795761273,56.52737709798126],[-130.66891764214913,56.53611064993376],[-130.65765891392002,56.54288561734559],[-130.65295194073184,56.5492428455083],[-130.64756375741754,56.55147882251764],[-130.64392079753677,56.55711104500851],[-130.63898479746058,56.56104991870347],[-130.637641544357,56.567829357700056],[-130.63130926948733,56.57402721130225],[-130.63437851501118,56.589671868545786],[-130.63894274774566,56.595740653013166],[-130.65276893584522,56.60575666586524],[-130.65537502622536,56.6111721733478],[-130.65210678485695,56.61822479133671],[-130.64442304575616,56.62470707166954],[-130.63894361751997,56.63187058043807],[-130.62911120777838,56.63435853999754],[-130.59424030289895,56.63618759801713],[-130.58158891713228,56.64323887523441],[-130.56694938748583,56.64737388901831],[-130.5359684892492,56.647094174116845],[-130.50035391911337,56.65736510100184],[-130.48763904556662,56.65736871079405],[-130.4760044689516,56.65353852330583],[-130.4676498881331,56.652984501099304],[-130.46046413878685,56.66010799173897],[-130.46671614737318,56.670688227128245],[-130.47147938628484,56.6755873888319],[-130.47001853769376,56.68005294596578],[-130.47717636251363,56.690445603941356],[-130.47437469771546,56.69542387613708],[-130.4813384764909,56.70386035005354],[-130.47594937346963,56.71443810835605],[-130.47906250241385,56.718250923776125],[-130.48050655503812,56.72614032311843],[-130.4467184608795,56.72841130014403],[-130.42954291029733,56.72402652279919],[-130.40881046854807,56.709597027263634],[-130.39158279282532,56.70109472573489],[-130.3751501229388,56.697051158353354],[-130.35209378851263,56.69833716532186],[-130.33285366402725,56.701755421356374],[-130.31850297334447,56.70861556204267],[-130.308088255743,56.71093471847446],[-130.2717606260186,56.71474393502175],[-130.25889674076907,56.72211790267052],[-130.24383453813618,56.727515113573624],[-130.22079425753344,56.727902230037174],[-130.21265385047707,56.735659465785794],[-130.213636354531,56.7477570966743],[-130.22522011415398,56.763328296517756],[-130.22207732664975,56.769193725587414],[-130.20661999235602,56.772933810932614],[-130.19143997586607,56.772592396579256],[-130.16787225250616,56.76622501599564],[-130.15590821982525,56.76731400347568],[-130.1411826168655,56.774582634853836],[-130.11279229910897,56.78022254415256],[-130.0969324623085,56.7813692638731],[-130.0649695473302,56.77596627662338],[-130.03847548951657,56.78289236480072],[-130.0190672180968,56.78504885773535],[-130.00782164469854,56.78989231338162],[-130.00355342109202,56.793515736333966],[-129.97760806446678,56.796792437651995],[-129.9654859550313,56.803666823104955],[-129.958633429355,56.81136342826431],[-129.94932594909477,56.8168637801051],[-129.93300555330399,56.81946270688801],[-129.91267840736364,56.816329079238926],[-129.86945874198406,56.803866050863604],[-129.8645802490723,56.80723559409561],[-129.86990416313643,56.815178798258025],[-129.87358855384284,56.825906320067126],[-129.87278547826034,56.83621278590132],[-129.88904398118478,56.85249543857751],[-129.89514962582214,56.863565787921935],[-129.8900586832251,56.873842584096465],[-129.88132882908704,56.88073898909357],[-129.88156224243062,56.88685922664677],[-129.89440046701827,56.8994596858796],[-129.89374774542893,56.914447256014995],[-129.89953280601472,56.92137375181334],[-129.90172469651935,56.93499389708165],[-129.90576297076777,56.94233949193],[-129.90058528608787,56.9630480869378],[-129.90437418895846,56.97087605171313],[-129.90370067092167,56.995654972526815],[-129.9010174527742,56.99897992225347],[-129.8553227322401,57.01433150334092],[-129.84390853973483,57.0269589856722],[-129.81947244350383,57.05955554365173],[-129.81408977600628,57.07428728136665],[-129.81158620485243,57.0892729314688],[-129.7958579556002,57.103477759785854],[-129.7760171628452,57.10894676757373],[-129.73553799093384,57.10736056140023],[-129.71887289172315,57.1090405918766],[-129.7034576673038,57.11779145611411],[-129.69624795139683,57.14767918348621],[-129.68171085112448,57.15969820785514],[-129.66266123312946,57.15987710725777],[-129.62173795921584,57.15033668141539],[-129.597796169621,57.149977658960935],[-129.5617357104962,57.162496126513545],[-129.5417500269158,57.167178651683514],[-129.51252213703881,57.168267073730384],[-129.49005712281036,57.165407874224385],[-129.4808442753489,57.160416599210464],[-129.47342229379097,57.14549252790337],[-129.47595942996205,57.131034754227464],[-129.49903906059126,57.11147245888211],[-129.49808430505163,57.100684243702716],[-129.49204395550998,57.0917543519009],[-129.47233409605425,57.081080781897654],[-129.45048275401194,57.07235295545701],[-129.42711814625557,57.067753107241806],[-129.32771638032122,57.07587523100762],[-129.30617614311177,57.0794449337784],[-129.29466401125495,57.07885815156783],[-129.27752634134487,57.067212750137486],[-129.26379571995562,57.06689321220212],[-129.25549118504415,57.071932469683844],[-129.24947230859274,57.08464673666043],[-129.24835850927315,57.0941823159086],[-129.24233414357195,57.104111204138206],[-129.22498057036606,57.111742594944296],[-129.18687493970646,57.116789511213106],[-129.16928980935614,57.12099257876328],[-129.15529464323976,57.13457910164277],[-129.12189413744673,57.17514722674247],[-129.1050204515394,57.179510377877094],[-129.05447851520765,57.1758368239036],[-129.04907252736754,57.17655429905281],[-129.00207345776158,57.16439441610236],[-129.00226642781482,57.99856186442109],[-131.0016946988202,58.00055608269938]],[[-131.1781418849939,57.90469126335984],[-131.16984409216343,57.90684485429745],[-131.1655898072368,57.90525642772375],[-131.18099170276088,57.89984624721058],[-131.18435935943612,57.902367686393795],[-131.1781418849939,57.90469126335984]],[[-131.1638323548937,57.914091307331674],[-131.1639255501009,57.91617312682152],[-131.15715241743743,57.916305802474405],[-131.15633956624424,57.90544289989585],[-131.1634521260674,57.905596736422325],[-131.1638323548937,57.914091307331674]],[[-129.97656281458444,57.83170857010771],[-129.98415575652535,57.83447676630776],[-129.98292685015377,57.835313923339186],[-129.98397913349208,57.83619124195041],[-129.9866161377692,57.83548614340538],[-129.98938466151725,57.836847093513256],[-129.99714574637474,57.84319158962746],[-129.99361854186682,57.84481983325789],[-129.9848602161186,57.8404601087602],[-129.97543700785272,57.833308067408936],[-129.97656281458444,57.83170857010771]]]}}]}