{"type":"FeatureCollection","features":[{"type":"Feature","properties":{"id":"59510266","boundaryCode":"59510266","boundaryName":"DA 59510266","boundarySource":"census","boundaryLevel":"bcDaSimplified","boundaryDetail":"overview","DAUID":"59510266","DGUID":"2021S051259510266","PRUID":"59","CDUID":null,"CSDUID":null,"CTUID":null,"LANDAREA":0.6978000000000001,"areaKm2":0.6961281292874549},"geometry":{"type":"Polygon","coordinates":[[[-126.022033439413,55.324591613665234],[-126.03585470147506,55.32358443154416],[-126.03410183025032,55.31637894977057],[-126.02113467339827,55.31723995885156],[-126.022033439413,55.324591613665234]]]}},{"type":"Feature","properties":{"id":"59510283","boundaryCode":"59510283","boundaryName":"DA 59510283","boundarySource":"census","boundaryLevel":"bcDaSimplified","boundaryDetail":"overview","DAUID":"59510283","DGUID":"2021S051259510283","PRUID":"59","CDUID":null,"CSDUID":null,"CTUID":null,"LANDAREA":0.9797,"areaKm2":0.9500446564521245},"geometry":{"type":"Polygon","coordinates":[[[-125.95699316167527,55.48156284490917],[-125.95648309837765,55.48449525633726],[-125.97443349942174,55.484702048775986],[-125.97622890533938,55.48834250306141],[-125.98364882738056,55.48816815898867],[-125.98383127392563,55.484471201272],[-125.97834030951448,55.48325544816537],[-125.97606752052154,55.481151823859825],[-125.96858854386832,55.48073402808289],[-125.95780621599226,55.47688788296463],[-125.95699316167527,55.48156284490917]]]}},{"type":"Feature","properties":{"id":"59530193","boundaryCode":"59530193","boundaryName":"DA 59530193","boundarySource":"census","boundaryLevel":"bcDaSimplified","boundaryDetail":"overview","DAUID":"59530193","DGUID":"2021S051259530193","PRUID":"59","CDUID":null,"CSDUID":null,"CTUID":null,"LANDAREA":0.6173000000000001,"areaKm2":0.6197681026591052},"geometry":{"type":"Polygon","coordinates":[[[-123.09864445466516,55.34703511722567],[-123.09874280195233,55.34824679503879],[-123.11182493851267,55.348074878049644],[-123.11190331713055,55.33800680501434],[-123.10493705398045,55.33812097010202],[-123.10813108967153,55.34135124172111],[-123.10269549346883,55.3423343301363],[-123.10327337887578,55.344800012730964],[-123.10000278325127,55.34512481588182],[-123.09864445466516,55.34703511722567]]]}},{"type":"Feature","properties":{"id":"59530194","boundaryCode":"59530194","boundaryName":"DA 59530194","boundarySource":"census","boundaryLevel":"bcDaSimplified","boundaryDetail":"overview","DAUID":"59530194","DGUID":"2021S051259530194","PRUID":"59","CDUID":null,"CSDUID":null,"CTUID":null,"LANDAREA":0.3492,"areaKm2":0.292574563607774},"geometry":{"type":"Polygon","coordinates":[[[-123.10810878166083,55.34139741243022],[-123.10624738399177,55.340782210880334],[-123.10748207594128,55.33929641478077],[-123.1032798015821,55.33812032737037],[-123.09470515605022,55.338131024334444],[-123.09460074363348,55.34185919560252],[-123.10810878166083,55.34139741243022]]]}},{"type":"Feature","properties":{"id":"59530195","boundaryCode":"59530195","boundaryName":"DA 59530195","boundarySource":"census","boundaryLevel":"bcDaSimplified","boundaryDetail":"overview","DAUID":"59530195","DGUID":"2021S051259530195","PRUID":"59","CDUID":null,"CSDUID":null,"CTUID":null,"LANDAREA":1.2715,"areaKm2":1.2841983204179894},"geometry":{"type":"Polygon","coordinates":[[[-123.07780083009892,55.34421035807597],[-123.07675684827024,55.34738278950575],[-123.0937817893787,55.346940119681406],[-123.09441727809848,55.33194544028353],[-123.08348806509761,55.33764762182294],[-123.0781066564833,55.33853875925872],[-123.07780083009892,55.34421035807597]]]}},{"type":"Feature","properties":{"id":"59530196","boundaryCode":"59530196","boundaryName":"DA 59530196","boundarySource":"census","boundaryLevel":"bcDaSimplified","boundaryDetail":"overview","DAUID":"59530196","DGUID":"2021S051259530196","PRUID":"59","CDUID":null,"CSDUID":null,"CTUID":null,"LANDAREA":2.1086,"areaKm2":2.188953603314052},"geometry":{"type":"Polygon","coordinates":[[[-123.08559908763125,55.330835925598734],[-123.09264638573154,55.33052782407007],[-123.09269067881611,55.33194552482416],[-123.09441727809848,55.33194544028353],[-123.09451477849001,55.338131739570564],[-123.11190331713055,55.33800680501434],[-123.11231397400636,55.32199581807231],[-123.09385175679911,55.3220057279705],[-123.09320627491432,55.3282993189269],[-123.08736415032574,55.32830202335281],[-123.08559908763125,55.330835925598734]]]}},{"type":"Feature","properties":{"id":"59530197","boundaryCode":"59530197","boundaryName":"DA 59530197","boundarySource":"census","boundaryLevel":"bcDaSimplified","boundaryDetail":"overview","DAUID":"59530197","DGUID":"2021S051259530197","PRUID":"59","CDUID":null,"CSDUID":null,"CTUID":null,"LANDAREA":0.3216,"areaKm2":0.2873900979089964},"geometry":{"type":"Polygon","coordinates":[[[-123.08153668735287,55.33545101797197],[-123.08465726908767,55.33716033343296],[-123.09167368050446,55.334196611796905],[-123.09264638573154,55.33052782407007],[-123.08559908763125,55.330835925598734],[-123.08448148999862,55.3338135301093],[-123.08153668735287,55.33545101797197]]]}},{"type":"Feature","properties":{"id":"59530198","boundaryCode":"59530198","boundaryName":"DA 59530198","boundarySource":"census","boundaryLevel":"bcDaSimplified","boundaryDetail":"overview","DAUID":"59530198","DGUID":"2021S051259530198","PRUID":"59","CDUID":null,"CSDUID":null,"CTUID":null,"LANDAREA":0.32530000000000003,"areaKm2":0.32379910348906576},"geometry":{"type":"Polygon","coordinates":[[[-123.0800863006006,55.332848224363175],[-123.08382678705415,55.33418383412176],[-123.08736415032574,55.32830202335281],[-123.08286769336429,55.325954530341164],[-123.0783943435735,55.32711271691715],[-123.0800863006006,55.332848224363175]]]}},{"type":"Feature","properties":{"id":"59550114","boundaryCode":"59550114","boundaryName":"DA 59550114","boundarySource":"census","boundaryLevel":"bcDaSimplified","boundaryDetail":"overview","DAUID":"59550114","DGUID":"2021S051259550114","PRUID":"59","CDUID":null,"CSDUID":null,"CTUID":null,"LANDAREA":3.6167000000000002,"areaKm2":4.0302043891435915},"geometry":{"type":"Polygon","coordinates":[[[-125.6156041482212,57.42388299909414],[-125.6168437217108,57.426369677083],[-125.61454725342477,57.432720401165696],[-125.61888097113008,57.43577332116505],[-125.63884913957088,57.43496691263898],[-125.67371452937189,57.42972790977934],[-125.66190927703734,57.42943489952801],[-125.65072255455378,57.42424089976653],[-125.60438550853833,57.41642943934267],[-125.6058069336142,57.42012841850284],[-125.60916224245321,57.421143908006854],[-125.60908273753503,57.42414053511213],[-125.6156041482212,57.42388299909414]]]}},{"type":"Feature","properties":{"id":"59550116","boundaryCode":"59550116","boundaryName":"DA 59550116","boundarySource":"census","boundaryLevel":"bcDaSimplified","boundaryDetail":"overview","DAUID":"59550116","DGUID":"2021S051259550116","PRUID":"59","CDUID":null,"CSDUID":null,"CTUID":null,"LANDAREA":5.5604000000000005,"areaKm2":5.579141806982597},"geometry":{"type":"Polygon","coordinates":[[[-124.88830453947553,56.795023088593496],[-124.89741157014126,56.80346588717286],[-124.89437437806023,56.80628009336007],[-124.89473028413049,56.80814437879156],[-124.90300226186316,56.808755371044505],[-124.9079887690815,56.811482698106104],[-124.92374154769115,56.8043847244443],[-124.9298975071608,56.78862352992358],[-124.92571046189391,56.78307664279114],[-124.9159934435615,56.78626986383813],[-124.88409148964864,56.78693166890162],[-124.88013487188108,56.788741480623585],[-124.88830453947553,56.795023088593496]]]}},{"type":"Feature","properties":{"id":"59550117","boundaryCode":"59550117","boundaryName":"DA 59550117","boundarySource":"census","boundaryLevel":"bcDaSimplified","boundaryDetail":"overview","DAUID":"59550117","DGUID":"2021S051259550117","PRUID":"59","CDUID":null,"CSDUID":null,"CTUID":null,"LANDAREA":5197.6858,"areaKm2":5357.829154174671},"geometry":{"type":"Polygon","coordinates":[[[-123.46862322076096,56.021703884301076],[-123.5006846682438,56.028115456929825],[-123.5787372609414,56.035922478944634],[-123.64186814126296,56.03949139903617],[-123.65830331356798,56.047203904949036],[-123.68386193116997,56.05065659320503],[-123.69515817977832,56.050683461128536],[-123.71865360201252,56.04443112161732],[-123.7368616421806,56.04266492864695],[-123.76410535048632,56.05003843695037],[-123.77385622373316,56.046892340423625],[-123.78623963980712,56.03892888053471],[-123.79384410699377,56.031895982259286],[-123.80224915467917,56.019050797560695],[-123.8169004105256,56.006270521405156],[-123.82716671176819,55.993414844692424],[-123.81592395417879,55.9808023173825],[-123.80995533620319,55.979091948734435],[-123.80294161497486,55.9707116761374],[-123.77347808083744,55.9574843553109],[-123.76209101128528,55.949225973203646],[-123.75758954432602,55.94008861529887],[-123.75154854789655,55.933900550057245],[-123.74590823933444,55.93378267706132],[-123.7366525522648,55.9378867125996],[-123.70575644132381,55.942463867172165],[-123.68844687343812,55.94284132180746],[-123.68145493965258,55.94012248937966],[-123.68295792517904,55.93921795418923],[-123.68430414872027,55.9136820785894],[-123.66774966428663,55.90975489449491],[-123.6497118533466,55.89630729260171],[-123.61891920332978,55.88828348133143],[-123.60805343548822,55.88315126466109],[-123.57898438051883,55.88088109010244],[-123.57621539970384,55.87054112140149],[-123.52367816531576,55.86317313312659],[-123.51102106914207,55.86925542778354],[-123.48539355752587,55.87301988804691],[-123.44236863773367,55.88248006807204],[-123.43085081970811,55.882146531916064],[-123.41814630277489,55.87150258885652],[-123.40061037706705,55.86643114417424],[-123.3677437721373,55.86108363386718],[-123.36368191602085,55.853834927036445],[-123.38288890880226,55.83949291248329],[-123.3816143938586,55.83413317261183],[-123.36468144394762,55.829154104250335],[-123.35135956360762,55.83045634584727],[-123.33927610255627,55.81990232299965],[-123.33987650603694,55.80891213228437],[-123.31797485115973,55.800245756904175],[-123.30742545304231,55.77610217656707],[-123.31551361103045,55.77090118167148],[-123.31361593671858,55.75780315991429],[-123.34141654179781,55.73126602123843],[-123.32668007612914,55.71537906018406],[-123.30694559632911,55.70689161800866],[-123.2608467361793,55.69711395717791],[-123.22842870292926,55.711818239671445],[-123.20366605135622,55.71425259400494],[-123.18083475063916,55.71159949608394],[-123.19852487568478,55.727198470875585],[-123.1911922183155,55.733221516958245],[-123.16431039392306,55.73750702483939],[-123.14378740740375,55.731692144074145],[-123.13646961056124,55.722982665228834],[-123.13913317398212,55.712071673013455],[-123.12788024859529,55.69718274610543],[-123.12047496104711,55.69396091731525],[-123.1203966664311,55.68879715002789],[-123.12795101035931,55.680499291107544],[-123.1276618110208,55.660382682816426],[-123.14222307261373,55.651863463346174],[-123.14295315446861,55.64044679812349],[-123.12594325835869,55.62962977159953],[-123.0781789075756,55.625503489481886],[-123.07281290289306,55.620850743449374],[-123.08065661682095,55.610831698207406],[-123.07173082082393,55.59579845214048],[-123.07182659702835,55.58267247493738],[-123.03789286076045,55.562523137081165],[-123.0136468401583,55.55975142425429],[-122.9969188693974,55.563426778434184],[-122.97849985888388,55.570904930582074],[-122.96555382818403,55.5821704045513],[-122.94805860525591,55.58092458616978],[-122.92117444975915,55.56402503123499],[-122.94255655984641,55.55406990388814],[-122.93992780488477,55.536932939427686],[-122.93293700288338,55.52179035620592],[-122.95334583691783,55.5031514241637],[-122.95667863373234,55.488292914579496],[-122.93311211013861,55.472318126658195],[-122.92780338174775,55.463056324768274],[-122.93786369266199,55.459483590414976],[-122.95564817401262,55.459562629714966],[-122.98009279830575,55.46470287493875],[-123.00231440183217,55.45826779621165],[-123.00573728633162,55.446083927223704],[-123.00122741083031,55.438204734748986],[-122.98664993268648,55.42829203610192],[-122.9872045757935,55.40154044164495],[-122.97455231015557,55.39809059903232],[-122.92025229988624,55.413143471910836],[-122.87442702012613,55.419022978241266],[-122.8619826169345,55.41576925127025],[-122.87780598430881,55.406209124723965],[-122.86939774674038,55.400109683214495],[-122.84605986301337,55.39892138295608],[-122.83033179695695,55.38438781375054],[-122.81157264098293,55.3875145423228],[-122.74272549493278,55.365547508425806],[-122.73999428940057,55.354071598945815],[-122.71991487428122,55.34398426433583],[-122.6982133077788,55.34701763266125],[-122.6785045933803,55.34035851144456],[-122.65496219044223,55.34243739953408],[-122.63671588147528,55.359151281903735],[-122.63009884324411,55.39395688393037],[-122.62860639511658,55.39534880074037],[-122.63588008664938,55.40478376372811],[-122.65140192215519,55.41080900012287],[-122.68052792942346,55.42941558271029],[-122.68985525521599,55.431557977375505],[-122.72720302026279,55.44928069014445],[-122.74245145909518,55.45089817234847],[-122.74911627168953,55.45506057825095],[-122.76932568097095,55.46105907073834],[-122.78440726981077,55.46952776510525],[-122.78614648714823,55.47179826211424],[-122.78613638686082,55.4771941675883],[-122.78361110345038,55.491120558038986],[-122.77790592864912,55.4993161713571],[-122.77693460909526,55.50355676574476],[-122.76536441418897,55.512932360243475],[-122.74904501820785,55.51510334612156],[-122.74532141641163,55.51724738171132],[-122.73758062545241,55.517052374437235],[-122.7259259030436,55.52167625771418],[-122.71702567787356,55.521503256451474],[-122.70727819182554,55.519092194261646],[-122.69745272609629,55.51067364627296],[-122.67628436704722,55.50211579010531],[-122.64684367793623,55.50118410059266],[-122.62883897553519,55.506617786348905],[-122.6207852700979,55.50511378553562],[-122.61093825159956,55.50578780386939],[-122.60231877231115,55.50272627345842],[-122.58686796391804,55.500815588924006],[-122.58317166478396,55.50141171185669],[-122.57946908576571,55.50659916261255],[-122.57025999659382,55.51156045060177],[-122.56013043424275,55.51070769793495],[-122.55114484921044,55.51255949756467],[-122.53937215705912,55.51970039911979],[-122.52475635558373,55.51678261800426],[-122.50854065777109,55.51866581561351],[-122.50096569343225,55.5253320989241],[-122.49045902495806,55.53092500363071],[-122.48724215745273,55.53577741112],[-122.46098897495742,55.54873651438025],[-122.4335333428894,55.55525162369211],[-122.42080004506474,55.56264210941201],[-122.3853740566114,55.57839263331105],[-122.37331454432875,55.58190214712256],[-122.33983342598701,55.59660757728066],[-122.30850517033831,55.604696051841735],[-122.30083955630295,55.6113793522152],[-122.26457156214127,55.62311193076453],[-122.25713974218112,55.62924084250969],[-122.24861805300225,55.633192655041455],[-122.22984525033971,55.63761825757084],[-122.20280385939701,55.64874864064939],[-122.18015213145505,55.64845525235944],[-122.16900477669495,55.645013466473834],[-122.13133713440567,55.642388154718596],[-122.09488275703708,55.6303138766145],[-122.068707220508,55.62857336533441],[-122.05711729487057,55.62282306891845],[-122.04979902027655,55.61571675992706],[-122.03278562599762,55.60799444163338],[-122.00024219503744,55.614357077956214],[-121.97505388716975,55.61214097920074],[-121.94733030381914,55.61288608707398],[-121.90351750799294,55.61119610113267],[-121.86233392826709,55.61708167890153],[-121.82438316955263,55.618735296958654],[-121.78684016786009,55.6308263154848],[-121.76950029616876,55.6336730157788],[-121.74270917355227,55.64165530083831],[-121.74140920502228,55.643353503983114],[-121.74193157614154,55.652125699246106],[-121.74067147649527,55.65529621052707],[-121.73393305895361,55.66244101497992],[-121.71852340036679,55.67246172210712],[-121.6635155509257,55.68682526415401],[-121.66510452067178,55.70039922985616],[-121.68405306818812,55.71687670023589],[-121.69177881010202,55.721144977605064],[-121.69431450225503,55.72002765224118],[-121.6912412732808,55.72665648610552],[-121.69940185070696,55.73999183744961],[-121.6954099394899,55.74390096011007],[-121.6876829623684,55.74374176485337],[-121.68409350637579,55.74700479518717],[-121.68600623070529,55.75124040593276],[-121.68919451363264,55.751211901210276],[-121.60371675340394,55.75016123163166],[-121.60110199589332,55.75464297548734],[-121.60239889534368,55.76121742404514],[-121.59736419296264,55.766994037501895],[-121.59973798798555,55.773261946549184],[-121.59660236667723,55.77872005848278],[-121.59382255316203,55.81588394474638],[-121.59508533442458,55.818706338593735],[-121.60009492852369,55.82161625237685],[-121.60060133585398,55.81113684589361],[-121.67617771593733,55.8112303135481],[-121.68407164440558,55.80897092901361],[-121.70211503479814,55.80745772581729],[-121.73379755706806,55.809858709172026],[-121.74154576408824,55.81381941274347],[-121.75467835088246,55.811754905296254],[-121.78137684574985,55.81181830253742],[-121.81466672833405,55.80586638341513],[-121.83264851616501,55.79941377935873],[-121.84981800751356,55.798021767414234],[-121.86828703355403,55.79165964120564],[-121.87795512334718,55.78584051460884],[-121.88766505928892,55.78271206991999],[-121.94181901688776,55.781351255837805],[-121.94332388418022,55.810940479864094],[-121.90417284087658,55.81058648694572],[-121.90422472164153,55.83237361347571],[-121.86075666138981,55.83239855995478],[-121.86738662466348,55.83684208319292],[-121.90103969876466,55.8729434996706],[-121.90105100259247,55.87167075868725],[-121.91410981396999,55.87200550194035],[-121.91485206606183,55.890154300821806],[-121.92902190284158,55.89009529984695],[-121.92928791326477,55.897751342675136],[-122.0378602864603,55.89927039812401],[-122.03691049416149,55.885847150539504],[-122.236089051406,55.88998747577969],[-122.22700170849552,55.95444639342932],[-122.23161030414953,56.00563002360531],[-122.24364378525293,56.00373834521744],[-122.28541193818663,56.00172932589688],[-122.29155475020393,56.04069189123071],[-122.27080280619391,56.03900043643162],[-122.2709365817738,56.04589615205425],[-122.29987929602079,56.045511005280694],[-122.30434157922782,56.083091678145664],[-122.3425983268061,56.09405766452113],[-122.4379100687932,56.11275884537037],[-122.50847357971594,56.13243468688617],[-122.53514501691937,56.142073900866926],[-122.55557220337383,56.144851936797615],[-122.59046198736326,56.142897480504416],[-122.60634226602004,56.13911129930378],[-122.62863338995864,56.13111134684619],[-122.67066573784757,56.1095107500831],[-122.70016379589893,56.098301725840685],[-122.74038871379466,56.090515087866955],[-122.78100231052976,56.08932866649285],[-122.90473867042667,56.093857572564424],[-123.0055552218368,56.08257806380512],[-123.03349550606157,56.0759727303296],[-123.04984025579037,56.0696378668157],[-123.0623989327792,56.06114281624835],[-123.07686561202739,56.031941439542976],[-123.11728574554314,56.00193466143678],[-123.12994209545359,55.99427623782819],[-123.16273224614474,55.986368945556336],[-123.20217787021824,55.98142836004136],[-123.24738108691106,55.97974556962063],[-123.28269796458062,55.98332754891983],[-123.32063296358356,55.99612130039279],[-123.33623557845006,56.00775469036652],[-123.3644073509767,56.01529687531433],[-123.39483014521646,56.01844580710077],[-123.46862322076096,56.021703884301076]]]}},{"type":"Feature","properties":{"id":"59550249","boundaryCode":"59550249","boundaryName":"DA 59550249","boundarySource":"census","boundaryLevel":"bcDaSimplified","boundaryDetail":"overview","DAUID":"59550249","DGUID":"2021S051259550249","PRUID":"59","CDUID":null,"CSDUID":null,"CTUID":null,"LANDAREA":9.494200000000001,"areaKm2":9.402535793154161},"geometry":{"type":"Polygon","coordinates":[[[-124.95569685600422,56.92466458026923],[-124.97518117103867,56.923436482968384],[-124.9736873602512,56.91897502676664],[-124.99378366377047,56.91718939291221],[-124.99339183264263,56.892319589017156],[-124.9806917678351,56.89051562095201],[-124.9842240663941,56.88831356561702],[-124.98426652267956,56.88182866042173],[-124.97750351478139,56.88119918600258],[-124.97246572036751,56.87808017069829],[-124.96208909520054,56.88615967171175],[-124.95720512116837,56.893200973684095],[-124.95728101086176,56.89965128480592],[-124.95046191861775,56.91123289434557],[-124.95569685600422,56.92466458026923]]]}},{"type":"Feature","properties":{"id":"59550251","boundaryCode":"59550251","boundaryName":"DA 59550251","boundarySource":"census","boundaryLevel":"bcDaSimplified","boundaryDetail":"overview","DAUID":"59550251","DGUID":"2021S051259550251","PRUID":"59","CDUID":null,"CSDUID":null,"CTUID":null,"LANDAREA":57062.9978,"areaKm2":58688.29118708522},"geometry":{"type":"Polygon","coordinates":[[[-126.43477616296381,57.93452736786884],[-126.45238870254971,57.93840985399181],[-126.49823886014607,57.94245664416873],[-126.5180515205896,57.94095194517901],[-126.53985241127472,57.945605854545306],[-126.55857092444454,57.95231867014867],[-126.60414340543875,57.960212789679574],[-126.66292527993099,57.99082776161025],[-126.68323100106308,58.006117536312836],[-126.69227483067475,58.02319722161895],[-126.70307509208781,58.02710958278447],[-126.73223416918577,58.018299617439766],[-126.77303437051863,58.01107480976175],[-126.81591430397955,58.009309433689744],[-126.86802733069658,58.00336616615466],[-126.90756611413588,57.99443809992077],[-126.94181639500074,57.99247577155892],[-126.95095915477177,57.98945208694018],[-126.95396059149262,57.97568295072178],[-126.97202848048705,57.96763866847783],[-126.98004731838823,57.96122900289879],[-126.97014492553083,57.94906923201678],[-126.9706117105869,57.93312518311853],[-126.96412230267062,57.92510931204395],[-126.94755644343972,57.91869912007699],[-126.93688157170531,57.91130437463104],[-126.93355641585468,57.90600918877034],[-126.93455952318392,57.89778674577536],[-126.91601104125705,57.89146254218546],[-126.8969734822793,57.87742378337128],[-126.8879758420132,57.86732472855497],[-126.88903561522143,57.864494002052126],[-126.88483009643868,57.855297666669365],[-126.87862190772637,57.829836558921585],[-126.85652343052384,57.80510526439713],[-126.85143749408272,57.79170952742905],[-126.85408672565319,57.78845515097807],[-126.86917286377792,57.785332937970445],[-126.93402766755582,57.79734887048012],[-126.94809455562093,57.79838422257532],[-126.95911045608915,57.797086721516614],[-126.97320598054999,57.78824716892301],[-126.97973830390609,57.77796232855522],[-126.98285240652032,57.76663318329655],[-126.98128647546291,57.7608151515512],[-126.96743917822116,57.75488570372791],[-126.95400410672919,57.744135654873915],[-126.94552477529086,57.7165002526165],[-126.9381114334522,57.707127000253564],[-126.9182114911732,57.69872609385682],[-126.87708819899278,57.693274457645174],[-126.85253264297855,57.68817178677127],[-126.83961260493835,57.67944456944686],[-126.83668115644605,57.668224576161094],[-126.84950354410658,57.653792759830665],[-126.86102330541586,57.6478423345731],[-126.87014939041168,57.64012246687245],[-126.86832422446746,57.633376149020286],[-126.83710720480298,57.61154711974188],[-126.80231479318687,57.59272002460481],[-126.78732356001649,57.58084623324559],[-126.78431674777906,57.57605970661294],[-126.78759113269378,57.57078346721456],[-126.79615721678111,57.56586608719541],[-126.83689969629354,57.55875180686229],[-126.87664906219511,57.54905644237573],[-126.96980838745058,57.53414806545235],[-126.987990476389,57.5299625401616],[-127.01063087912277,57.52113729224146],[-127.02186670295025,57.51467050597965],[-127.05706430825379,57.50727780686725],[-127.07567007282115,57.51235593875594],[-127.09309796216458,57.528138546296184],[-127.13455536594765,57.530557955323616],[-127.15016542472465,57.53590420568414],[-127.14329522143976,57.54609017576126],[-127.1382276239407,57.562519229734825],[-127.14526934016162,57.57755139836996],[-127.16787932771776,57.59161725894352],[-127.18142407908674,57.59766597048487],[-127.246764881369,57.60547442735755],[-127.27192978118508,57.60319244509647],[-127.27823376803711,57.59878828257416],[-127.27249922995408,57.58768753814701],[-127.28344321352475,57.57560451883845],[-127.29613537963033,57.5767166882054],[-127.30484714348086,57.57992601053305],[-127.31287594785469,57.57767861077355],[-127.3206550990951,57.567095391562816],[-127.33421009622047,57.55835275155991],[-127.34190601273899,57.54905256795622],[-127.3430804726028,57.53144047254095],[-127.33818688651213,57.5193651094577],[-127.32938781873055,57.50930162357634],[-127.29341991510911,57.49820744510448],[-127.2972014076508,57.492042253781996],[-127.32089026469622,57.4864687015338],[-127.32510545502855,57.482254153182325],[-127.3049825761655,57.461935095435585],[-127.30154945103622,57.4535740781853],[-127.30292226229385,57.446677214316374],[-127.31246452026792,57.43899320253827],[-127.33039860189037,57.43296156210216],[-127.34627740610327,57.4242584090865],[-127.37428444517892,57.418199541794266],[-127.41120784303335,57.38298031768893],[-127.48029130313104,57.33569828637431],[-127.48911615995536,57.322666587968115],[-127.49125524574369,57.30344831906948],[-127.4865991807035,57.28257542889291],[-127.47862245408265,57.26177657872424],[-127.47336889262105,57.24164044147492],[-127.4672890181486,57.210036651936484],[-127.47647769668757,57.1960834963181],[-127.52155513889996,57.1706866080221],[-127.55830377372504,57.159989564354106],[-127.60239464469902,57.15165093978465],[-127.69697467831256,57.140906406733066],[-127.71652453598337,57.13259989292087],[-127.73036840397525,57.10997112720568],[-127.73297293414622,57.082074470659634],[-127.73843151068472,57.061664301787644],[-127.73821698009931,57.03553289803366],[-127.73288806348778,57.019637294010806],[-127.72302476109621,57.00610193819405],[-127.70644627338184,56.99077024486921],[-127.67711437740158,56.97678287634274],[-127.57877417888024,56.97855434705635],[-127.5611932457358,56.97717981037815],[-127.54109628695225,56.969001749152],[-127.53633515186277,56.953976126420464],[-127.54480681253969,56.93135993219954],[-127.59749724105572,56.9012892456073],[-127.6050498158918,56.89444834670769],[-127.60382557226045,56.88878479896225],[-127.56400970295917,56.861660652919156],[-127.56544249545138,56.85787771326575],[-127.57226221749026,56.853760262630146],[-127.61083471052031,56.85328037375537],[-127.61633153177266,56.8499684532411],[-127.61776595965408,56.84647477913003],[-127.60337121968467,56.8339904080441],[-127.5861264493302,56.827953147983266],[-127.57456739325622,56.82154213054478],[-127.56847136994936,56.81289539034804],[-127.56660980245425,56.80402134329168],[-127.52333373651204,56.773054799764104],[-127.51470392958645,56.76106048755131],[-127.51402461474828,56.750096864475736],[-127.52193585174663,56.74547718794623],[-127.53161259291403,56.74345003669762],[-127.53275712895278,56.740675338632265],[-127.45418501855976,56.693175786380806],[-127.41587540698575,56.67681996730119],[-127.40540304516736,56.67646635556039],[-127.36230562616332,56.689967878119674],[-127.33311057176546,56.706041752393894],[-127.26925007097235,56.73277277252913],[-127.22230424169705,56.74590831779081],[-127.2075422672502,56.72989134913565],[-127.18805800161476,56.6965449573655],[-127.15266874844573,56.65285921019138],[-127.12888238907941,56.62640247208852],[-127.10109403963284,56.613541054675935],[-127.06590765741643,56.61318329872145],[-127.03793010009338,56.61797818883007],[-126.99290151173716,56.632229984140636],[-126.93751057419215,56.661552817635005],[-126.9311314781177,56.66787361319005],[-126.92769929650336,56.68460108760378],[-126.9170696243865,56.69074278182507],[-126.90229367651263,56.69248196648325],[-126.8567008909945,56.67733646588492],[-126.81150579426043,56.68032787576979],[-126.76612296119241,56.72454555162791],[-126.71724174004666,56.76634786511025],[-126.70539077402846,56.77306604922206],[-126.69270520035073,56.77495587689386],[-126.67485647520441,56.77176456624353],[-126.65342459016084,56.76060874149659],[-126.4883318631764,56.664699590180966],[-126.44921804148274,56.65500102146171],[-126.4176889961863,56.65478393434972],[-126.37835979226017,56.67124017221544],[-126.3530367910098,56.67624742274009],[-126.33152812095052,56.6773749363791],[-126.2961521364233,56.67122115705146],[-126.23128738794946,56.647306258881095],[-126.18896101693473,56.625325683429296],[-126.17042879161785,56.61216597391871],[-126.16218837076272,56.60043011475591],[-126.15965456337632,56.59160500283252],[-126.14258342564531,56.58378187500901],[-126.1430458856378,56.576682932548124],[-126.15192527055152,56.57130454663087],[-126.16083332390356,56.56317540439541],[-126.15855506699614,56.554534475126346],[-126.14225104800146,56.538946810395345],[-126.14194394273652,56.52950637967201],[-126.19310155715768,56.481052071581985],[-126.1965079256558,56.473538095470616],[-126.18247484062823,56.46490276961834],[-126.10189135517426,56.42544377295982],[-126.0933100045983,56.412665767816016],[-126.09107058201812,56.40403686066129],[-126.10038076781986,56.39262349285592],[-126.13332010913965,56.376360571753],[-126.16241819418104,56.365912508854386],[-126.1958548892533,56.35036083986998],[-126.19476560629056,56.342387169737194],[-126.11634125654253,56.27192764499756],[-126.09843155978676,56.2657458986053],[-126.04323567354193,56.25431946072374],[-125.98064035191635,56.245634842253246],[-125.98341534226688,56.233365871558064],[-125.98292879463075,56.21434431644919],[-125.98008537360862,56.20866874935348],[-125.97936170849854,56.19789989397028],[-125.97264917322677,56.18570381363728],[-125.97073996469861,56.175565595539716],[-125.97174705713417,56.166346631923716],[-125.96292695187726,56.153586047407764],[-125.96199134271781,56.1469097242228],[-125.95551856096775,56.14293336127929],[-125.93199171095388,56.147107272096335],[-125.8656578111513,56.14520939934186],[-125.80406850709002,56.16972109614314],[-125.7376367105415,56.19058057818007],[-125.67314047721652,56.22214441519963],[-125.65664589871945,56.22859073049449],[-125.64553430232414,56.22601704828232],[-125.6448318251057,56.217449233535675],[-125.64839456246067,56.208521809400224],[-125.6473219340049,56.196970379081435],[-125.6532073571853,56.1691698432449],[-125.64994278290445,56.1573024584364],[-125.64437657210341,56.15291720963041],[-125.63519791788379,56.15126962339228],[-125.60850605021217,56.15329440143921],[-125.5748068181681,56.1689971507002],[-125.45770639436837,56.233359467922256],[-125.40379201481774,56.2529539141061],[-125.37788231441496,56.253091967774466],[-125.32464761214008,56.24399703470365],[-125.31706416424696,56.249666868995114],[-125.29218482645233,56.247062083331315],[-125.2659129186144,56.24799063328064],[-125.24548207765488,56.25056985906257],[-125.23607686405788,56.255286556164776],[-125.234449983507,56.265337259307316],[-125.22642694782289,56.27191249277955],[-125.21223246739153,56.27785619906834],[-125.20307110142001,56.286252867805196],[-125.18904603063899,56.2947484084959],[-125.15829866356033,56.30046680195038],[-125.11911411348098,56.30360145491325],[-125.09052559300223,56.27665274597737],[-125.0636793864238,56.263074190389474],[-125.05350767487333,56.22895563038856],[-125.06028445426037,56.20790193159838],[-125.0547241821772,56.20353890489168],[-125.04167157517766,56.203109964235495],[-124.99870993244461,56.21039386876156],[-124.98555950194013,56.215204390836114],[-124.9809348832459,56.2218926858215],[-124.98019878081695,56.229415894440756],[-124.94672534739605,56.24008181446441],[-124.92352510551524,56.24437849435793],[-124.89466017978556,56.24223854034989],[-124.83287087731676,56.223543182976115],[-124.7952176437296,56.20000935514645],[-124.76886417593677,56.170324504435015],[-124.71548205814359,56.13380589705441],[-124.66103524429013,56.11612193629544],[-124.62357621489697,56.11615532277311],[-124.59022412467787,56.122061225824794],[-124.53215000804329,56.12701915071873],[-124.5042653223691,56.132453840967045],[-124.48401616367815,56.13000856824112],[-124.47899619593717,56.11942206917772],[-124.47543414167707,56.11888165303412],[-124.4791084650048,56.106977835256735],[-124.4932191694742,56.08918466122292],[-124.49765025487467,56.06725826228621],[-124.48507536627686,56.043001729508866],[-124.44070374302052,55.998931891798655],[-124.44223317001305,55.990538039898595],[-124.4442746560213,55.98737300991569],[-124.44052354442766,55.9784736328685],[-124.43357886503041,55.97457174147959],[-124.4313076502673,55.96898717731207],[-124.43260263565716,55.96248763829965],[-124.4315999140174,55.954823120783225],[-124.41554421902084,55.95378995645302],[-124.41065856723651,55.954906338061605],[-124.39914487393378,55.9505541859337],[-124.39880259574299,55.942053777146704],[-124.40125135150417,55.93855168218522],[-124.38343921044489,55.91835264737761],[-124.38204147565368,55.91088599672037],[-124.37702525852474,55.903312183464834],[-124.38144619677391,55.896057524585814],[-124.37926985736995,55.886124111337764],[-124.37404251197643,55.8789845147975],[-124.3580116504962,55.867575561898285],[-124.33466239704208,55.83876098720489],[-124.33363410676549,55.832162293942204],[-124.33812333225319,55.82550035019828],[-124.34986351733393,55.81717540553689],[-124.35313216719229,55.811526746678425],[-124.35219885643652,55.80762526070641],[-124.35538004324339,55.802633319525995],[-124.3573710216602,55.79088382363372],[-124.35728536587172,55.786714626556396],[-124.35420276542595,55.77992611953413],[-124.34687226231527,55.76871123862456],[-124.33457368227161,55.76126843786441],[-124.32780066930647,55.75375968005521],[-124.33487334388799,55.74040624937235],[-124.32229249660051,55.73375178698404],[-124.30835053109695,55.705869389110795],[-124.29694522613472,55.695645881083365],[-124.2840694607286,55.69425765734673],[-124.26716875974722,55.686619072555715],[-124.24790562971603,55.68933259966388],[-124.23207919710667,55.68426284337565],[-124.21580066417347,55.6824747684857],[-124.19230854867186,55.683160085188184],[-124.18170640064842,55.67099943293536],[-124.16745245802142,55.668989474631154],[-124.15310098458164,55.64911262502295],[-124.12302881579853,55.63972521896665],[-124.11287208644953,55.611525682909395],[-124.1055003964802,55.5958477638322],[-124.10437495907368,55.58573902845105],[-124.09264673363536,55.56881965589425],[-124.0770291340721,55.55636818273871],[-124.06303944263817,55.547618499173396],[-124.05037102541742,55.54132246081753],[-124.03749532102535,55.537629016021036],[-124.01856003956294,55.53604287812491],[-124.01185216963034,55.53939503092743],[-124.00668200449273,55.546228886575804],[-123.99362525255877,55.54989562412404],[-123.92839585976033,55.55438524544629],[-123.94226828090143,55.574920181566284],[-123.95347995487332,55.60273514539888],[-123.97507392050139,55.60946018878625],[-123.96201444584374,55.624436284907844],[-123.95220256490084,55.63464253017845],[-123.93295607840999,55.64801379957773],[-123.9164569368519,55.656775325210035],[-123.84615882340769,55.68240813675458],[-123.82733883097582,55.70069388014181],[-123.82092960389897,55.70318539452122],[-123.8180024213066,55.716962548877135],[-123.8132289802024,55.72279760468039],[-123.8032767635459,55.728369830299144],[-123.78432785352413,55.73487043815747],[-123.76041484876981,55.7317394374829],[-123.7568220533177,55.735955744244286],[-123.76179634118155,55.74559001562767],[-123.77303858003434,55.74924143388347],[-123.77261760991169,55.75056259430039],[-123.80591042685558,55.757979167645765],[-123.81601724485407,55.766006762992696],[-123.82227813326739,55.77460610391939],[-123.82300468700419,55.78429888150169],[-123.81914793505734,55.790449759005185],[-123.82419102433734,55.80004760666559],[-123.83582892121176,55.80512437110763],[-123.85803099674304,55.80630307827646],[-123.86657489837117,55.81047711404954],[-123.8802703945889,55.82546040941147],[-123.89256320826472,55.84460288619987],[-123.90383945280752,55.85599814182514],[-123.91267471510157,55.8749765672615],[-123.93677406868537,55.894813345868705],[-123.93762471137558,55.900135404455185],[-123.93274308267807,55.90971412144284],[-123.92485396220374,55.91401508602144],[-123.90745079559849,55.9187602940432],[-123.89664094464099,55.91898596998378],[-123.87469188045048,55.92698237036641],[-123.86872707154868,55.934396383905174],[-123.86003789753838,55.95813897231511],[-123.85713845587568,55.97204295874761],[-123.85145622951822,55.97750733881479],[-123.84228781013833,55.98280136835498],[-123.83060869827767,55.98328150225897],[-123.81591529020659,55.98030408817933],[-123.82716671176819,55.993414844692424],[-123.8169004105256,56.006270521405156],[-123.80224915467917,56.019050797560695],[-123.79384410699377,56.031895982259286],[-123.78623963980712,56.03892888053471],[-123.77385622373316,56.046892340423625],[-123.76410535048632,56.05003843695037],[-123.7368616421806,56.04266492864695],[-123.71865360201252,56.04443112161732],[-123.69515817977832,56.050683461128536],[-123.68386193116997,56.05065659320503],[-123.65830331356798,56.047203904949036],[-123.64186814126296,56.03949139903617],[-123.5787372609414,56.035922478944634],[-123.5006846682438,56.028115456929825],[-123.46862322076096,56.021703884301076],[-123.39483014521646,56.01844580710077],[-123.3644073509767,56.01529687531433],[-123.33623557845006,56.00775469036652],[-123.32063296358356,55.99612130039279],[-123.28269796458062,55.98332754891983],[-123.24738108691106,55.97974556962063],[-123.20217787021824,55.98142836004136],[-123.16273224614474,55.986368945556336],[-123.12994209545359,55.99427623782819],[-123.11728574554314,56.00193466143678],[-123.07686561202739,56.031941439542976],[-123.0623989327792,56.06114281624835],[-123.04984025579037,56.0696378668157],[-123.03349550606157,56.0759727303296],[-123.0055552218368,56.08257806380512],[-122.90473867042667,56.093857572564424],[-122.78100231052976,56.08932866649285],[-122.74038871379466,56.090515087866955],[-122.70016379589893,56.098301725840685],[-122.67066573784757,56.1095107500831],[-122.62863338995864,56.13111134684619],[-122.60634226602004,56.13911129930378],[-122.59046198736326,56.142897480504416],[-122.55557220337383,56.144851936797615],[-122.53166658801648,56.14139993122102],[-122.50847357971594,56.13243468688617],[-122.4379100687932,56.11275884537037],[-122.3425983268061,56.09405766452113],[-122.30448316304779,56.08311149314448],[-122.3056530062759,56.096727427221744],[-122.28801276192361,56.09514811291232],[-122.28874880956725,56.11404894837151],[-122.25147706976004,56.1156480018571],[-122.23342298121786,56.13980266847385],[-122.15636038254688,56.14465636116095],[-122.09096184011784,56.142381086046605],[-121.95924576406247,56.141455831756005],[-121.95823055267147,56.15889991602617],[-121.97534262043672,56.37763584166366],[-121.97805963197246,56.49842820348415],[-121.97999518093026,56.50951847969211],[-121.97769710457943,56.523108298973995],[-121.90156269575057,56.522508567469835],[-121.90159915427353,56.52134351189864],[-121.89106404687301,56.51652468565456],[-121.87517328991443,56.51432764847298],[-121.86814645039496,56.514243625363946],[-121.86240133134082,56.516904446459144],[-121.84892901756275,56.514485750213886],[-121.83110637388563,56.51505341251281],[-121.8235304336534,56.513744912856694],[-121.81329659866182,56.521965612506925],[-121.81051365971413,56.52913786443664],[-121.799295251968,56.52904987076866],[-121.78919712878776,56.52533193161043],[-121.78555845894964,56.52248154541753],[-121.77870129262598,56.520891731638706],[-121.7729718520796,56.525246176387675],[-121.76523381968605,56.5274189929641],[-121.75775956558905,56.5369505095653],[-121.76028009933057,56.540427444653986],[-121.75978639045212,56.54480777171655],[-121.75347113978255,56.54558059059558],[-121.75263196842961,56.54969364091451],[-121.75475321708974,56.55399067034658],[-121.75768083887603,56.5731976260237],[-121.76164404101966,56.578858962573484],[-121.77341661160466,56.587012493066545],[-121.78034182311825,56.59880829619748],[-121.77644130183405,56.61875152790954],[-121.75260537935557,56.6394973788758],[-121.72388301210835,56.65303297562831],[-121.71148628755327,56.65705671700131],[-121.70750777443995,56.66742090222207],[-121.6934009999877,56.67345594553274],[-121.70974037039453,56.701787041834585],[-121.71267382782841,56.704064730327005],[-121.79020565035502,56.719061924521014],[-121.79783487005777,56.72187124922096],[-121.8091167775689,56.73009883291544],[-121.85604784709524,56.74809603298709],[-121.89312317527569,56.79217303174944],[-121.95408308882224,56.82397427036909],[-121.98699534120219,56.852259665331516],[-121.99322660860472,56.87083342644214],[-121.98962127251603,56.87813345680305],[-122.00000229909512,56.89110960480761],[-122.03166932175267,56.91261210609305],[-122.04644548783618,56.919730320929716],[-122.0624619617927,56.930709874414376],[-122.081539679481,56.93796674833627],[-122.1111936301175,56.97360529218168],[-122.13603531242885,56.977322438118605],[-122.15334173429592,56.98879223347045],[-122.17748650819415,56.99098392789712],[-122.18312504888436,56.989942117168944],[-122.18941770736481,56.986474664507924],[-122.20353611341763,56.983865075766154],[-122.23886908631576,56.988264891073456],[-122.26021415786518,56.984707266173466],[-122.27241176159943,56.977575375140255],[-122.27683275665527,56.97713634237265],[-122.2882285719217,56.9795406703693],[-122.30835844377427,56.9911094730369],[-122.32908419187098,56.998514862031094],[-122.33872827440258,57.00378137215909],[-122.34982855510826,57.00578626763319],[-122.35852857437327,57.00476805883406],[-122.38816397589005,56.994740358540504],[-122.39736018943637,56.99525574395412],[-122.41265000777382,57.003038851853375],[-122.42973530768774,57.00568296092566],[-122.4574991225886,57.03736675369895],[-122.50729195039199,57.03924004545903],[-122.51801243130699,57.04563243342722],[-122.55035724270759,57.05779173428398],[-122.56107945809921,57.065923436063905],[-122.59618923491375,57.08621265382643],[-122.64388206323929,57.09317819336331],[-122.67810960651921,57.10743572419029],[-122.6830172969705,57.11128620802613],[-122.68865385149216,57.120911617023175],[-122.69962207598944,57.16359748746745],[-122.70538946666173,57.17146381175298],[-122.71807115848667,57.17978710639707],[-122.73312723802485,57.19960374482526],[-122.73108813892576,57.20321332912586],[-122.70683715920767,57.2249290187739],[-122.68660961592994,57.230328828060614],[-122.68452224367171,57.232040643448926],[-122.6841978668692,57.23708492533702],[-122.69810984563227,57.238449219946695],[-122.70469616162481,57.241595219905285],[-122.71583400465242,57.24331517093836],[-122.8260507318685,57.28499516027023],[-122.83306255568604,57.290684744245794],[-122.8369570966159,57.30494574965102],[-122.81931291399805,57.32642655834117],[-122.8205028372489,57.328822557421475],[-122.85674815904285,57.35847949820273],[-122.85406843991915,57.37480978836644],[-122.85288574831128,57.3996245016084],[-122.8665081699174,57.42014021533921],[-122.89017831767627,57.439379838456105],[-122.91713126898729,57.480003545346264],[-122.9212959517149,57.494430487013716],[-122.9507241874923,57.56836496256427],[-122.9549606687872,57.57504109592007],[-122.97196679996357,57.591234427222],[-123.01821277117206,57.67151417805646],[-123.0098982479413,57.69511265681128],[-122.88852675917752,57.78812255994445],[-122.87804900903042,57.81350799643849],[-122.85915263372178,57.83205521479805],[-122.84738294577068,57.86617769252586],[-122.82770583574822,57.887058581138476],[-122.81772496515825,57.89330412684435],[-122.81297788136789,57.8991311603343],[-122.81231125728438,57.90894900104326],[-122.82177930713793,57.9318203299874],[-122.81339662542672,57.946848041021],[-122.77756053105537,57.96754783087107],[-122.7611422601565,57.974226684981815],[-122.75701097766549,57.979078183813186],[-122.75592709848233,57.98685194859338],[-122.74697223594823,57.9961887460509],[-122.73984152687883,58.00058827485918],[-122.75557682596981,58.002760232237364],[-122.75786912341177,57.99853442299123],[-123.00645656333596,57.999804096108505],[-124.94838374266286,57.99987587031092],[-124.93916937770007,57.99384448889984],[-124.91900837717276,57.98624840605927],[-124.92423683058992,57.984333020926904],[-124.98236774401633,57.98143038562956],[-125.00526276002805,57.987397216337165],[-125.03448287179876,58.00188817892296],[-125.09471986294338,58.019107576023536],[-125.14535897348837,58.02369018616728],[-125.15751503884003,58.02230912239147],[-125.1722634623296,58.023756471714144],[-125.20392620665488,58.02236187284037],[-125.22762092335971,58.01589379300917],[-125.25084987732544,58.005423465535486],[-125.3295702784071,57.99460590900949],[-125.3865993537665,57.98871966935049],[-125.42499589806451,57.97986710305043],[-125.45105146371026,57.97156824538594],[-125.46355375830295,57.96071422098575],[-125.49162077007935,57.9489270718505],[-125.4889948733492,57.941197043758244],[-125.49600952500329,57.93514020639847],[-125.50423702951728,57.93596425747215],[-125.56355275234924,57.91822128311365],[-125.59384708918336,57.914257978072825],[-125.60400832045029,57.92877339762623],[-125.60870760426366,57.933029393052784],[-125.61999129871002,57.93705312433168],[-125.64002206335344,57.929524587735216],[-125.65346251181056,57.92222651782715],[-125.66257474557514,57.91056790775525],[-125.66424310674654,57.90278628607904],[-125.65704123091282,57.89492427154668],[-125.661386946944,57.89045644415004],[-125.67471278146735,57.888377118776255],[-125.6798440194189,57.884181238263764],[-125.68636079828666,57.87527181875288],[-125.69962037034342,57.868275644569025],[-125.73616777858724,57.862042935121266],[-125.7473774113138,57.86555422687342],[-125.75628558106023,57.87447461379327],[-125.76642289319801,57.88978241308058],[-125.76908901236143,57.902752195979126],[-125.766790730819,57.90816538734391],[-125.78966850849282,57.922602690315045],[-125.78517044304043,57.931315519934415],[-125.79775695859449,57.94351707986139],[-125.79737531449923,57.96605196109858],[-125.8074192053296,57.973974585112316],[-125.82326378533237,57.97500040437048],[-125.83747889929118,57.97939967950929],[-125.84572545468362,57.98020029058425],[-125.85983497784498,57.97526150566712],[-125.87592536628338,57.97386106090451],[-125.89049812232837,57.97944691811029],[-125.90810971480056,57.97808593585298],[-125.91641432890489,57.98068817168321],[-125.97475559032794,57.96703804577567],[-125.99144818502594,57.97142568246447],[-126.04411036202212,57.96694408941192],[-126.0647892317175,57.959115470419526],[-126.06896179395254,57.952329567796674],[-126.0635533939438,57.941807592288875],[-126.05397738607206,57.930216579031224],[-126.06716109913994,57.91634304918521],[-126.07796175903817,57.91367373516999],[-126.12444981146511,57.91885887345199],[-126.1401133120239,57.92237284152884],[-126.1631819709191,57.93865976673176],[-126.18292846749692,57.94456505519554],[-126.21419912039936,57.94350041421878],[-126.22876736732685,57.933745629387886],[-126.23375874857912,57.922253516205345],[-126.22970295530064,57.911700988733905],[-126.24352264385884,57.90146726122346],[-126.25741979775864,57.867212479448675],[-126.26315650104534,57.85968252266413],[-126.26873098683072,57.855709734810766],[-126.28896751761596,57.85452431115232],[-126.3159529026557,57.86192116427884],[-126.32326291782243,57.87403585234658],[-126.33793401581889,57.88484134191873],[-126.3538808086278,57.90023462625387],[-126.36549432254816,57.9143917441231],[-126.37800944055327,57.92326426233392],[-126.38527002351742,57.926197533005585],[-126.3978010805446,57.926404561308516],[-126.42219667562776,57.92362723795252],[-126.43477616296381,57.93452736786884]],[[-125.60565569382237,57.41664839772884],[-125.65072255455378,57.42424089976653],[-125.66190927703734,57.42943489952801],[-125.67371452937189,57.42972790977934],[-125.63884913957088,57.43496691263898],[-125.61941877404286,57.4358460051383],[-125.61467517989577,57.432963412840884],[-125.6168437217108,57.426369677083],[-125.6156041482212,57.42388299909414],[-125.60908273753503,57.42414053511213],[-125.60925905773563,57.42173757019122],[-125.60410885259651,57.41773291064352],[-125.60395815380141,57.416604902906684],[-125.60565569382237,57.41664839772884]],[[-125.44582660911631,56.37872098555816],[-125.4096340928732,56.37321350512017],[-125.38885644340867,56.35642389708409],[-125.39151422828431,56.35437044964435],[-125.38701269257108,56.3508001442996],[-125.39779474782638,56.35159399588411],[-125.40051594340271,56.35342839805222],[-125.4015963517813,56.35693911425514],[-125.40729573235222,56.35695481283954],[-125.41377867028923,56.36192520818634],[-125.41698774844737,56.36020761888695],[-125.41997217639796,56.361300003596114],[-125.42360314090193,56.36598421094859],[-125.43049824010129,56.368976507861504],[-125.44415098020825,56.366964102339736],[-125.44904874789063,56.36933970407068],[-125.45307227511606,56.36920578889818],[-125.44582660911631,56.37872098555816]],[[-124.92861614258484,56.7868970460325],[-124.9298975071608,56.78862352992358],[-124.9278253595577,56.79651528326266],[-124.92374154769115,56.8043847244443],[-124.9084716374887,56.81188945075617],[-124.90227104416972,56.80857727916938],[-124.89408136534072,56.80826118169873],[-124.89727117058884,56.8032792847861],[-124.88086884135886,56.78942029551916],[-124.88409148964864,56.78693166890162],[-124.9159934435615,56.78626986383813],[-124.92571046189391,56.78307664279114],[-124.92861614258484,56.7868970460325]],[[-124.97518117103867,56.923436482968384],[-124.95607813523742,56.925324074485964],[-124.95046191861775,56.91123289434557],[-124.95717972206886,56.89991329131764],[-124.95763491047023,56.89261848600129],[-124.96208909520054,56.88615967171175],[-124.97349641861567,56.877731260399315],[-124.97750351478139,56.88119918600258],[-124.98394791089875,56.881690573324896],[-124.9842240663941,56.88831356561702],[-124.9806917678351,56.89051562095201],[-124.98877072687036,56.89026706139319],[-124.99246343567906,56.89240916901032],[-124.99334251083188,56.8984430276381],[-124.99378366377047,56.91718939291221],[-124.9736873602512,56.91897502676664],[-124.97518117103867,56.923436482968384]]]}},{"type":"Feature","properties":{"id":"59550252","boundaryCode":"59550252","boundaryName":"DA 59550252","boundarySource":"census","boundaryLevel":"bcDaSimplified","boundaryDetail":"overview","DAUID":"59550252","DGUID":"2021S051259550252","PRUID":"59","CDUID":null,"CSDUID":null,"CTUID":null,"LANDAREA":4.2687,"areaKm2":4.411428407439093},"geometry":{"type":"Polygon","coordinates":[[[-125.44582660911631,56.37872098555816],[-125.45307227511606,56.36920578889818],[-125.44904874789063,56.36933970407068],[-125.44437836595914,56.366968387188656],[-125.43058088004956,56.36898360852017],[-125.42303275426835,56.36565381396507],[-125.42023926339047,56.361421111730046],[-125.41617064982213,56.36035861094773],[-125.41446112968809,56.36223430452844],[-125.40694132866405,56.35674540238775],[-125.40148235218555,56.356941897491275],[-125.4004345406464,56.35338570406748],[-125.3976959232829,56.351541299459164],[-125.38701269257108,56.3508001442996],[-125.39151422828431,56.35437044964435],[-125.38885644340867,56.35642389708409],[-125.4096340928732,56.37321350512017],[-125.44582660911631,56.37872098555816]]]}}]}