{"type":"FeatureCollection","features":[{"type":"Feature","geometry":{"type":"Polygon","coordinates":[[[-128.63052,60.06268],[-128.67856,60.07618],[-128.70839,60.0781],[-128.71018,60.10634],[-128.80158,60.12894],[-128.88626,60.14507],[-128.90042,60.08117],[-128.81953,60.05612],[-128.72744,60.02263],[-128.67057,60.02907],[-128.63677,60.01581],[-128.62616,60.02291],[-128.61548,60.02276],[-128.60906,60.02029],[-128.60826,60.01374],[-128.60308,60.00821],[-128.57639,60.01681],[-128.55741,60.03718],[-128.63052,60.06268]]]},"properties":{"id":"6001003","boundaryId":"census:csd:6001003","boundaryCode":"6001003","boundaryName":"Watson Lake","boundarySource":"census","boundaryLevel":"csd","CSDUID":"6001003","CSDNAME":"Watson Lake","CSDTYPE":"T","CDUID":"6001","PRUID":"60","DGUID":"2021A00056001003","LANDAREA":109.7659,"areaKm2":109.7659}},{"type":"Feature","geometry":{"type":"Polygon","coordinates":[[[-133.19903,62.17055],[-133.19874,62.27112],[-133.51231,62.27435],[-133.50925,62.15548],[-133.19907,62.15535],[-133.19903,62.17055]]]},"properties":{"id":"6001004","boundaryId":"census:csd:6001004","boundaryCode":"6001004","boundaryName":"Faro","boundarySource":"census","boundaryLevel":"csd","CSDUID":"6001004","CSDNAME":"Faro","CSDTYPE":"T","CDUID":"6001","PRUID":"60","DGUID":"2021A00056001004","LANDAREA":199.8869,"areaKm2":199.8869}},{"type":"Feature","geometry":{"type":"Polygon","coordinates":[[[-132.69887,60.18215],[-132.72636,60.18417],[-132.74047,60.16435],[-132.72426,60.15988],[-132.71951,60.16658],[-132.7055,60.16711],[-132.71162,60.17322],[-132.68498,60.17693],[-132.69887,60.18215]]]},"properties":{"id":"6001006","boundaryId":"census:csd:6001006","boundaryCode":"6001006","boundaryName":"Teslin","boundarySource":"census","boundaryLevel":"csd","CSDUID":"6001006","CSDNAME":"Teslin","CSDTYPE":"VL","CDUID":"6001","PRUID":"60","DGUID":"2021A00056001006","LANDAREA":3.7741000000000002,"areaKm2":3.7741000000000002}},{"type":"Feature","geometry":{"type":"Polygon","coordinates":[[[-132.73853,60.16708],[-132.73181,60.17652],[-132.75412,60.1787],[-132.76442,60.17096],[-132.74047,60.16435],[-132.73853,60.16708]]]},"properties":{"id":"6001007","boundaryId":"census:csd:6001007","boundaryCode":"6001007","boundaryName":"Teslin Post 13","boundarySource":"census","boundaryLevel":"csd","CSDUID":"6001007","CSDNAME":"Teslin Post 13","CSDTYPE":"SG","CDUID":"6001","PRUID":"60","DGUID":"2021A00056001007","LANDAREA":1.1738,"areaKm2":1.1738}},{"type":"Feature","geometry":{"type":"Polygon","coordinates":[[[-134.67403,60.15358],[-134.67401,60.15825],[-134.69151,60.16439],[-134.69151,60.15875],[-134.6834,60.15873],[-134.68332,60.15329],[-134.67403,60.15358]]]},"properties":{"id":"6001008","boundaryId":"census:csd:6001008","boundaryCode":"6001008","boundaryName":"Carcross 4","boundarySource":"census","boundaryLevel":"csd","CSDUID":"6001008","CSDNAME":"Carcross 4","CSDTYPE":"SG","CDUID":"6001","PRUID":"60","DGUID":"2021A00056001008","LANDAREA":0.5774,"areaKm2":0.5774}},{"type":"Feature","geometry":{"type":"Polygon","coordinates":[[[-135.26574,60.83711],[-135.27867,60.83869],[-135.27183,60.78323],[-135.17811,60.66357],[-135.1229,60.61862],[-135.02644,60.55364],[-134.92282,60.5659],[-134.85675,60.58983],[-134.86135,60.64583],[-134.90035,60.65826],[-134.94146,60.70298],[-134.9649,60.74964],[-135.0017,60.78297],[-135.08146,60.84014],[-135.18973,60.84214],[-135.19412,60.84106],[-135.19461,60.83687],[-135.20454,60.83704],[-135.2253,60.82792],[-135.22733,60.83016],[-135.2237,60.83368],[-135.22779,60.83692],[-135.21994,60.83928],[-135.23064,60.84577],[-135.23498,60.84449],[-135.23257,60.84091],[-135.23659,60.83729],[-135.23027,60.83533],[-135.23226,60.83372],[-135.25728,60.84228],[-135.26574,60.83711]]]},"properties":{"id":"6001009","boundaryId":"census:csd:6001009","boundaryCode":"6001009","boundaryName":"Whitehorse","boundarySource":"census","boundaryLevel":"csd","CSDUID":"6001009","CSDNAME":"Whitehorse","CSDTYPE":"CY","CDUID":"6001","PRUID":"60","DGUID":"2021A00056001009","LANDAREA":413.9359,"areaKm2":413.9359}},{"type":"Feature","geometry":{"type":"Polygon","coordinates":[[[-135.11624,60.98958],[-135.13762,60.98982],[-135.13869,60.97271],[-135.11584,60.9721],[-135.11624,60.98958]]]},"properties":{"id":"6001010","boundaryId":"census:csd:6001010","boundaryCode":"6001010","boundaryName":"Lake Laberge 1","boundarySource":"census","boundaryLevel":"csd","CSDUID":"6001010","CSDNAME":"Lake Laberge 1","CSDTYPE":"SG","CDUID":"6001","PRUID":"60","DGUID":"2021A00056001010","LANDAREA":1.1740000000000002,"areaKm2":1.1740000000000002}},{"type":"Feature","geometry":{"type":"Polygon","coordinates":[[[-136.22613,62.12631],[-136.23518,62.12697],[-136.23521,62.1298],[-136.26242,62.12967],[-136.27549,62.12569],[-136.32517,62.12555],[-136.32489,62.06746],[-136.23451,62.06754],[-136.23481,62.09397],[-136.15162,62.09496],[-136.15456,62.11414],[-136.17457,62.11497],[-136.22613,62.12631]]]},"properties":{"id":"6001012","boundaryId":"census:csd:6001012","boundaryCode":"6001012","boundaryName":"Carmacks","boundarySource":"census","boundaryLevel":"csd","CSDUID":"6001012","CSDNAME":"Carmacks","CSDTYPE":"VL","CDUID":"6001","PRUID":"60","DGUID":"2021A00056001012","LANDAREA":36.8718,"areaKm2":36.8718}},{"type":"Feature","geometry":{"type":"Polygon","coordinates":[[[-137.52912,60.79333],[-137.56681,60.79413],[-137.58092,60.79089],[-137.58399,60.7874],[-137.5809,60.786],[-137.59003,60.77306],[-137.55848,60.76447],[-137.54163,60.75677],[-137.54341,60.75349],[-137.51835,60.74896],[-137.50687,60.74169],[-137.45137,60.74064],[-137.45242,60.79281],[-137.51473,60.79314],[-137.50562,60.79827],[-137.51292,60.80097],[-137.52439,60.79914],[-137.52912,60.79333]]]},"properties":{"id":"6001018","boundaryId":"census:csd:6001018","boundaryCode":"6001018","boundaryName":"Haines Junction","boundarySource":"census","boundaryLevel":"csd","CSDUID":"6001018","CSDNAME":"Haines Junction","CSDTYPE":"VL","CDUID":"6001","PRUID":"60","DGUID":"2021A00056001018","LANDAREA":34.3039,"areaKm2":34.3039}},{"type":"Feature","geometry":{"type":"MultiPolygon","coordinates":[[[[-137.85719,60.92845],[-137.85999,60.92827],[-137.85704,60.92758],[-137.85719,60.92845]]],[[[-137.85596,60.99782],[-137.9923,60.9813],[-137.94151,60.95433],[-137.9799,60.93824],[-137.9608,60.93178],[-137.88438,60.92233],[-137.86143,60.92463],[-137.8577,60.93851],[-137.86193,60.94883],[-137.88839,60.94584],[-137.89802,60.94804],[-137.87756,60.95699],[-137.86271,60.97171],[-137.86751,60.9766],[-137.86218,60.98031],[-137.86372,60.983],[-137.8583,60.98404],[-137.8603,60.9867],[-137.85524,60.98802],[-137.85879,60.98949],[-137.85235,60.99438],[-137.85767,60.99655],[-137.85294,60.99815],[-137.85596,60.99782]]]]},"properties":{"id":"6001019","boundaryId":"census:csd:6001019","boundaryCode":"6001019","boundaryName":"Kloo Lake","boundarySource":"census","boundaryLevel":"csd","CSDUID":"6001019","CSDNAME":"Kloo Lake","CSDTYPE":"S-É","CDUID":"6001","PRUID":"60","DGUID":"2021A00056001019","LANDAREA":33.4516,"areaKm2":33.4516}},{"type":"Feature","geometry":{"type":"Polygon","coordinates":[[[-135.8858,63.59107],[-135.89104,63.59364],[-135.89098,63.60365],[-135.90344,63.6037],[-135.90269,63.59052],[-135.89096,63.58835],[-135.8858,63.59107]]]},"properties":{"id":"6001022","boundaryId":"census:csd:6001022","boundaryCode":"6001022","boundaryName":"Mayo","boundarySource":"census","boundaryLevel":"csd","CSDUID":"6001022","CSDNAME":"Mayo","CSDTYPE":"VL","CDUID":"6001","PRUID":"60","DGUID":"2021A00056001022","LANDAREA":0.9820000000000001,"areaKm2":0.9820000000000001}},{"type":"Feature","geometry":{"type":"Polygon","coordinates":[[[-139.42849,64.09008],[-139.45668,64.0903],[-139.44646,64.08931],[-139.44113,64.08301],[-139.45216,64.08206],[-139.4446,64.07807],[-139.45853,64.05164],[-139.46689,64.04877],[-139.47507,64.03464],[-139.48815,64.02735],[-139.47938,64.02295],[-139.45051,64.02824],[-139.2795,64.02446],[-139.27775,64.05067],[-139.378,64.05379],[-139.37713,64.05845],[-139.41147,64.06919],[-139.41581,64.08999],[-139.42849,64.09008]]]},"properties":{"id":"6001029","boundaryId":"census:csd:6001029","boundaryCode":"6001029","boundaryName":"Dawson","boundarySource":"census","boundaryLevel":"csd","CSDUID":"6001029","CSDNAME":"Dawson","CSDTYPE":"T","CDUID":"6001","PRUID":"60","DGUID":"2021A00056001029","LANDAREA":30.9054,"areaKm2":30.9054}},{"type":"Feature","geometry":{"type":"Polygon","coordinates":[[[-139.38791,64.10646],[-139.40589,64.12653],[-139.46815,64.11456],[-139.45496,64.1043],[-139.44776,64.09153],[-139.38242,64.10033],[-139.38791,64.10646]]]},"properties":{"id":"6001031","boundaryId":"census:csd:6001031","boundaryCode":"6001031","boundaryName":"Moosehide Creek 2","boundarySource":"census","boundaryLevel":"csd","CSDUID":"6001031","CSDNAME":"Moosehide Creek 2","CSDTYPE":"SG","CDUID":"6001","PRUID":"60","DGUID":"2021A00056001031","LANDAREA":8.5001,"areaKm2":8.5001}},{"type":"Feature","geometry":{"type":"Polygon","coordinates":[[[-128.89553,60.04407],[-128.89064,60.04655],[-128.89232,60.05349],[-128.90558,60.06518],[-128.92944,60.06405],[-128.93647,60.06139],[-128.94426,60.05159],[-128.93891,60.04615],[-128.92722,60.04195],[-128.89553,60.04407]]]},"properties":{"id":"6001032","boundaryId":"census:csd:6001032","boundaryCode":"6001032","boundaryName":"Upper Liard","boundarySource":"census","boundaryLevel":"csd","CSDUID":"6001032","CSDNAME":"Upper Liard","CSDTYPE":"SÉ","CDUID":"6001","PRUID":"60","DGUID":"2021A00056001032","LANDAREA":5.5596000000000005,"areaKm2":5.5596000000000005}},{"type":"Feature","geometry":{"type":"Polygon","coordinates":[[[-134.24015,60.32093],[-134.24188,60.32841],[-134.34126,60.32618],[-134.32914,60.2638],[-134.33406,60.22501],[-134.32844,60.22096],[-134.30288,60.22625],[-134.29222,60.24114],[-134.26947,60.23985],[-134.22553,60.2577],[-134.24015,60.32093]]]},"properties":{"id":"6001036","boundaryId":"census:csd:6001036","boundaryCode":"6001036","boundaryName":"Tagish","boundarySource":"census","boundaryLevel":"csd","CSDUID":"6001036","CSDNAME":"Tagish","CSDTYPE":"SÉ","CDUID":"6001","PRUID":"60","DGUID":"2021A00056001036","LANDAREA":45.258,"areaKm2":45.258}},{"type":"Feature","geometry":{"type":"Polygon","coordinates":[[[-132.42319,61.98227],[-132.44759,62.00281],[-132.50835,61.98762],[-132.45392,61.94061],[-132.3926,61.95648],[-132.42319,61.98227]]]},"properties":{"id":"6001037","boundaryId":"census:csd:6001037","boundaryCode":"6001037","boundaryName":"Ross River","boundarySource":"census","boundaryLevel":"csd","CSDUID":"6001037","CSDNAME":"Ross River","CSDTYPE":"SÉ","CDUID":"6001","PRUID":"60","DGUID":"2021A00056001037","LANDAREA":20.480800000000002,"areaKm2":20.480800000000002}},{"type":"Feature","geometry":{"type":"Polygon","coordinates":[[[-136.45343,60.78188],[-136.45542,60.79111],[-136.47443,60.79803],[-136.48812,60.79646],[-136.49772,60.78828],[-136.49315,60.7813],[-136.47661,60.7711],[-136.45343,60.78188]]]},"properties":{"id":"6001038","boundaryId":"census:csd:6001038","boundaryCode":"6001038","boundaryName":"Champagne Landing 10","boundarySource":"census","boundaryLevel":"csd","CSDUID":"6001038","CSDNAME":"Champagne Landing 10","CSDTYPE":"S-É","CDUID":"6001","PRUID":"60","DGUID":"2021A00056001038","LANDAREA":4.816800000000001,"areaKm2":4.816800000000001}},{"type":"Feature","geometry":{"type":"Polygon","coordinates":[[[-138.96085,61.32166],[-138.92524,61.33926],[-139.03955,61.38878],[-139.09437,61.36338],[-138.97696,61.31368],[-138.96085,61.32166]]]},"properties":{"id":"6001039","boundaryId":"census:csd:6001039","boundaryCode":"6001039","boundaryName":"Burwash Landing","boundarySource":"census","boundaryLevel":"csd","CSDUID":"6001039","CSDNAME":"Burwash Landing","CSDTYPE":"SÉ","CDUID":"6001","PRUID":"60","DGUID":"2021A00056001039","LANDAREA":30.4418,"areaKm2":30.4418}},{"type":"Feature","geometry":{"type":"Polygon","coordinates":[[[-136.5334,62.82395],[-136.55738,62.85821],[-136.64678,62.84542],[-136.60419,62.78365],[-136.51379,62.79586],[-136.5334,62.82395]]]},"properties":{"id":"6001041","boundaryId":"census:csd:6001041","boundaryCode":"6001041","boundaryName":"Pelly Crossing","boundarySource":"census","boundaryLevel":"csd","CSDUID":"6001041","CSDNAME":"Pelly Crossing","CSDTYPE":"SÉ","CDUID":"6001","PRUID":"60","DGUID":"2021A00056001041","LANDAREA":32.2768,"areaKm2":32.2768}},{"type":"Feature","geometry":{"type":"Polygon","coordinates":[[[-140.83563,62.3698],[-140.83262,62.37459],[-140.84121,62.38998],[-140.85947,62.39939],[-140.87913,62.40475],[-140.92545,62.40316],[-140.94139,62.3958],[-140.95038,62.38765],[-140.95293,62.37996],[-140.94904,62.37273],[-140.92675,62.3604],[-140.89539,62.35364],[-140.86639,62.35693],[-140.83563,62.3698]]]},"properties":{"id":"6001042","boundaryId":"census:csd:6001042","boundaryCode":"6001042","boundaryName":"Beaver Creek","boundarySource":"census","boundaryLevel":"csd","CSDUID":"6001042","CSDNAME":"Beaver Creek","CSDTYPE":"SÉ","CDUID":"6001","PRUID":"60","DGUID":"2021A00056001042","LANDAREA":26.660700000000002,"areaKm2":26.660700000000002}},{"type":"Feature","geometry":{"type":"Polygon","coordinates":[[[-139.77705,67.55768],[-139.76838,67.56078],[-139.76643,67.57389],[-139.78524,67.58641],[-139.80343,67.59138],[-139.85481,67.58767],[-139.8801,67.57899],[-139.88243,67.57123],[-139.86937,67.55799],[-139.83644,67.5489],[-139.80439,67.54953],[-139.77705,67.55768]]]},"properties":{"id":"6001043","boundaryId":"census:csd:6001043","boundaryCode":"6001043","boundaryName":"Old Crow","boundarySource":"census","boundaryLevel":"csd","CSDUID":"6001043","CSDNAME":"Old Crow","CSDTYPE":"SÉ","CDUID":"6001","PRUID":"60","DGUID":"2021A00056001043","LANDAREA":13.5097,"areaKm2":13.5097}},{"type":"Feature","geometry":{"type":"Polygon","coordinates":[[[-134.82416,60.48702],[-134.83657,60.53158],[-134.83792,60.54875],[-134.82912,60.56241],[-134.81436,60.57331],[-134.8969,60.56785],[-134.92047,60.55548],[-134.92705,60.54962],[-134.9226,60.54064],[-134.8948,60.51171],[-134.91136,60.49703],[-134.90674,60.49135],[-134.89246,60.48714],[-134.86338,60.46345],[-134.87965,60.46405],[-134.87961,60.46848],[-134.90211,60.46826],[-134.90135,60.45783],[-134.91717,60.4592],[-134.91962,60.44794],[-134.93441,60.43788],[-134.93586,60.43051],[-134.96766,60.41493],[-134.98527,60.40005],[-135.0137,60.38856],[-135.0347,60.37149],[-135.04928,60.35057],[-135.05075,60.34],[-135.04802,60.32746],[-135.05831,60.3175],[-135.05461,60.30316],[-135.05819,60.29284],[-135.07503,60.27756],[-135.07402,60.27091],[-135.06544,60.26649],[-135.0346,60.28162],[-135.01099,60.28662],[-134.98764,60.28374],[-134.97363,60.27754],[-134.97197,60.31287],[-134.98401,60.31695],[-134.97696,60.31899],[-134.97825,60.3259],[-134.98697,60.32513],[-134.98498,60.32946],[-134.99453,60.33797],[-134.9421,60.34159],[-134.93733,60.35199],[-134.93104,60.35692],[-134.90923,60.36237],[-134.89379,60.37073],[-134.88627,60.39041],[-134.86635,60.40459],[-134.8586,60.40128],[-134.84146,60.40423],[-134.84206,60.40883],[-134.84734,60.40772],[-134.84445,60.41235],[-134.85778,60.41557],[-134.85845,60.42279],[-134.85417,60.42873],[-134.80279,60.4361],[-134.82342,60.46638],[-134.82416,60.48702]]]},"properties":{"id":"6001044","boundaryId":"census:csd:6001044","boundaryCode":"6001044","boundaryName":"Mt. Lorne","boundarySource":"census","boundaryLevel":"csd","CSDUID":"6001044","CSDNAME":"Mt. Lorne","CSDTYPE":"HAM","CDUID":"6001","PRUID":"60","DGUID":"2021A00056001044","LANDAREA":159.2286,"areaKm2":159.2286}},{"type":"Feature","geometry":{"type":"Polygon","coordinates":[[[-140.6901,68.68061],[-140.71304,68.66795],[-140.71456,68.65996],[-140.71311,68.65574],[-140.70704,68.65387],[-140.70771,68.64768],[-140.74033,68.63896],[-140.73769,68.63083],[-140.77757,68.61979],[-140.80736,68.61779],[-140.80974,68.60456],[-140.80137,68.6019],[-140.81364,68.59029],[-140.81098,68.58524],[-140.81325,68.58382],[-140.84381,68.57544],[-140.86019,68.57496],[-140.87951,68.5644],[-140.89131,68.56478],[-140.89569,68.56906],[-140.90996,68.56449],[-140.91493,68.57008],[-140.9248,68.57293],[-140.95663,68.55893],[-141.01343,68.55774],[-141.01417,67.86277],[-141.00298,66.85797],[-141.00823,65.75213],[-141.0079,65.0912],[-140.99873,64.68225],[-141.00447,64.4812],[-141.00359,63.3215],[-140.99896,62.57042],[-141.00109,62.08198],[-140.99799,60.30804],[-140.51711,60.22017],[-140.448,60.30796],[-139.9717,60.18389],[-139.68008,60.33572],[-139.05209,60.35373],[-139.04854,60.3259],[-139.17704,60.08286],[-139.05682,60.00005],[-135.59804,60.00006],[-135.53648,60.18416],[-135.48275,60.36058],[-135.48612,60.55604],[-135.9417,60.77434],[-135.95425,60.77429],[-135.95709,60.78137],[-135.97196,60.77734],[-135.98058,60.78148],[-135.99026,60.78144],[-135.9919,60.7785],[-135.9888,60.77252],[-136.00199,60.76637],[-136.00406,60.79719],[-136.02453,60.80222],[-136.02365,60.81465],[-136.00455,60.81379],[-136.00576,60.8202],[-135.98873,60.82554],[-135.98424,60.89037],[-135.90247,61.01834],[-135.73086,61.15568],[-135.5506,61.23133],[-135.15346,61.27002],[-134.98772,61.24903],[-134.85542,61.20956],[-134.73197,61.13772],[-134.6768,61.03508],[-134.65644,60.93893],[-134.52843,60.86015],[-134.47904,60.83638],[-134.47186,60.81955],[-133.88281,60.51168],[-134.20986,60.38738],[-134.33388,60.33383],[-134.41959,60.2909],[-134.98616,60.19361],[-134.99048,60.08847],[-134.98625,60.00002],[-131.20317,60.00004],[-131.19693,60.02156],[-131.15349,60.03723],[-131.12772,60.03883],[-131.10292,60.0339],[-131.08929,60.02525],[-131.08574,60.01703],[-131.08546,60.00006],[-123.78934,60.00004],[-124.00055,60.1092],[-124.02998,60.14816],[-124.06871,60.1687],[-124.12385,60.20601],[-124.12029,60.23863],[-124.1559,60.26695],[-124.15935,60.29106],[-124.18239,60.30676],[-124.2037,60.35033],[-124.21449,60.36458],[-124.20066,60.39734],[-124.19788,60.44592],[-124.23499,60.45395],[-124.31247,60.45926],[-124.38917,60.45846],[-124.39379,60.51891],[-124.43318,60.54215],[-124.44722,60.57282],[-124.49055,60.592],[-124.57109,60.64142],[-124.59947,60.68787],[-124.56277,60.69566],[-124.54148,60.71795],[-124.4918,60.7284],[-124.44924,60.76469],[-124.45054,60.78655],[-124.47628,60.79142],[-124.49627,60.80251],[-124.49847,60.82612],[-124.5115,60.83945],[-124.5108,60.86499],[-124.53671,60.91415],[-124.5394,60.93861],[-124.59278,60.94584],[-124.63325,60.9268],[-124.6654,60.93867],[-124.72818,60.939],[-124.76617,60.95807],[-124.7884,60.95451],[-124.79527,60.93251],[-124.81922,60.91925],[-124.83745,60.89932],[-124.82146,60.85366],[-124.82582,60.83705],[-124.90597,60.83986],[-124.96752,60.84925],[-124.99248,60.84005],[-125.05415,60.83289],[-125.1479,60.83251],[-125.17137,60.80967],[-125.2228,60.79633],[-125.26409,60.76835],[-125.37493,60.76639],[-125.46703,60.78871],[-125.53381,60.81236],[-125.56893,60.80151],[-125.62537,60.80971],[-125.66966,60.80311],[-125.71412,60.83078],[-125.75538,60.84533],[-125.79252,60.8682],[-125.83225,60.88129],[-125.92084,60.8486],[-125.93856,60.83002],[-125.94051,60.80462],[-125.96682,60.78925],[-126.05658,60.79525],[-126.08333,60.81379],[-126.07051,60.83205],[-126.06337,60.85137],[-126.18126,60.84177],[-126.21068,60.83444],[-126.18977,60.81182],[-126.1847,60.79693],[-126.19795,60.78224],[-126.23466,60.76926],[-126.28352,60.75883],[-126.38711,60.76555],[-126.48639,60.80015],[-126.53345,60.78224],[-126.60825,60.73977],[-126.63906,60.73079],[-126.65986,60.75119],[-126.68262,60.75382],[-126.69267,60.76904],[-126.76351,60.76319],[-126.76986,60.74864],[-126.81277,60.75857],[-126.84516,60.77498],[-126.82527,60.8315],[-126.8499,60.8326],[-126.87706,60.8479],[-126.85639,60.87034],[-126.86606,60.89594],[-126.85361,60.93164],[-126.8735,60.96473],[-126.90685,61.00715],[-126.8968,61.04099],[-126.96614,61.05007],[-126.99952,61.02618],[-127.04704,61.01728],[-127.04236,61.03095],[-127.07246,61.0666],[-127.04267,61.08209],[-127.04107,61.10282],[-126.98412,61.12141],[-127.01212,61.13767],[-126.96076,61.16793],[-126.9759,61.17772],[-126.95295,61.21497],[-126.99643,61.22214],[-126.99961,61.25111],[-127.02007,61.28793],[-127.03342,61.32241],[-127.02104,61.33796],[-127.02926,61.36126],[-127.09078,61.36809],[-127.08516,61.3876],[-127.09405,61.43766],[-127.10298,61.45816],[-127.16801,61.45621],[-127.19172,61.46114],[-127.20244,61.49002],[-127.23786,61.50018],[-127.31644,61.50012],[-127.36356,61.49125],[-127.38871,61.49668],[-127.4224,61.4968],[-127.46921,61.48516],[-127.56988,61.5239],[-127.62274,61.53223],[-127.6291,61.547],[-127.66857,61.58256],[-127.719,61.58405],[-127.76683,61.59414],[-127.83289,61.62971],[-127.88187,61.66756],[-127.91191,61.66945],[-128.04748,61.72873],[-128.01264,61.7532],[-128.01761,61.76699],[-127.98602,61.79158],[-128.014,61.8049],[-128.02068,61.82354],[-128.05406,61.83269],[-128.10659,61.83095],[-128.14967,61.83786],[-128.18837,61.82842],[-128.2083,61.88703],[-128.2486,61.93704],[-128.30485,61.94915],[-128.30697,61.96756],[-128.35012,61.97351],[-128.35689,61.99081],[-128.34796,62.01484],[-128.38845,62.02011],[-128.4102,62.04281],[-128.43731,62.05494],[-128.5114,62.10036],[-128.54966,62.11626],[-128.5978,62.10719],[-128.63519,62.11821],[-128.66905,62.10908],[-128.6876,62.08688],[-128.71941,62.06919],[-128.73038,62.04315],[-128.80906,62.04834],[-128.81982,62.08748],[-128.85163,62.09937],[-128.92057,62.0955],[-128.94469,62.11909],[-128.97252,62.11693],[-128.9991,62.10789],[-129.03401,62.11181],[-129.07303,62.09831],[-129.12889,62.09946],[-129.19981,62.13945],[-129.23573,62.13805],[-129.23726,62.15107],[-129.1939,62.16807],[-129.16335,62.20398],[-129.20504,62.20923],[-129.22177,62.23637],[-129.26969,62.25799],[-129.24597,62.28218],[-129.26456,62.29989],[-129.2563,62.32796],[-129.21424,62.35244],[-129.18952,62.36156],[-129.26309,62.3743],[-129.28488,62.39973],[-129.23851,62.41406],[-129.24393,62.43087],[-129.22274,62.44111],[-129.1741,62.44501],[-129.1597,62.47862],[-129.18626,62.47932],[-129.21249,62.50451],[-129.3243,62.52461],[-129.35659,62.55309],[-129.38698,62.57131],[-129.43937,62.57794],[-129.45367,62.56472],[-129.48243,62.55108],[-129.52242,62.55221],[-129.52267,62.5754],[-129.48499,62.58486],[-129.46461,62.59515],[-129.46237,62.62039],[-129.50501,62.64038],[-129.48524,62.66243],[-129.52668,62.66872],[-129.53042,62.68203],[-129.56672,62.68118],[-129.59015,62.70102],[-129.608,62.7495],[-129.66559,62.79573],[-129.66528,62.81421],[-129.70215,62.82212],[-129.74328,62.83837],[-129.75006,62.88107],[-129.68426,62.87595],[-129.7097,62.90766],[-129.67525,62.92646],[-129.67873,62.94117],[-129.64938,62.95299],[-129.63734,62.97897],[-129.60797,63.01007],[-129.58861,63.04217],[-129.61323,63.07305],[-129.67358,63.06162],[-129.74074,63.06052],[-129.77376,63.07658],[-129.82102,63.08239],[-129.81352,63.10368],[-129.86853,63.15755],[-129.87049,63.17184],[-129.89575,63.17849],[-129.91051,63.19211],[-129.94262,63.18306],[-129.98761,63.1989],[-130.01392,63.23645],[-130.0488,63.25236],[-130.10406,63.24406],[-130.15779,63.24236],[-130.13002,63.26682],[-130.14529,63.28879],[-130.10833,63.30562],[-130.058,63.30416],[-130.04086,63.32995],[-129.99037,63.32757],[-129.92372,63.34429],[-129.86624,63.36708],[-129.90855,63.41764],[-129.88571,63.43597],[-129.87435,63.45749],[-129.78495,63.44597],[-129.87056,63.52174],[-129.8974,63.55287],[-129.96035,63.56576],[-129.9281,63.59201],[-129.96248,63.60981],[-130.0103,63.61337],[-130.04273,63.60429],[-130.08139,63.60803],[-130.0993,63.63265],[-130.09157,63.66057],[-130.07254,63.68287],[-130.10621,63.68849],[-130.23217,63.64756],[-130.26866,63.64479],[-130.30778,63.66551],[-130.30973,63.678],[-130.33969,63.69089],[-130.31804,63.7138],[-130.26951,63.71351],[-130.2157,63.7178],[-130.18963,63.742],[-130.12198,63.74322],[-130.10125,63.75418],[-130.10629,63.78736],[-130.13769,63.7993],[-130.12935,63.81079],[-130.13272,63.82927],[-130.10939,63.83942],[-130.14426,63.86143],[-130.18592,63.85421],[-130.2186,63.86932],[-130.2399,63.85557],[-130.24571,63.83623],[-130.33939,63.81328],[-130.36917,63.84853],[-130.3944,63.85299],[-130.41162,63.86963],[-130.44292,63.89115],[-130.53826,63.92569],[-130.55724,63.91668],[-130.5921,63.92174],[-130.63061,63.94764],[-130.68869,63.94631],[-130.71813,63.96374],[-130.77573,63.97626],[-130.77175,64.00887],[-130.72335,64.02657],[-130.80901,64.04046],[-130.87037,64.03189],[-130.8835,64.08204],[-130.95544,64.11333],[-130.96779,64.13005],[-130.95283,64.14107],[-130.90511,64.14597],[-130.85908,64.17197],[-130.87084,64.18567],[-130.94399,64.18579],[-130.93821,64.20037],[-130.94722,64.22302],[-130.98267,64.25075],[-131.07373,64.27288],[-131.07914,64.28498],[-131.02664,64.3047],[-131.06289,64.32826],[-131.0682,64.36132],[-131.11041,64.37647],[-131.14738,64.4038],[-131.22514,64.42161],[-131.29555,64.44679],[-131.38051,64.43569],[-131.37239,64.45088],[-131.43198,64.43793],[-131.41963,64.41146],[-131.45106,64.39187],[-131.50358,64.38975],[-131.51801,64.3792],[-131.55949,64.38334],[-131.57878,64.36993],[-131.62354,64.35367],[-131.67635,64.3772],[-131.7214,64.3703],[-131.76546,64.37985],[-131.80845,64.36882],[-131.85833,64.38128],[-131.82842,64.40115],[-131.82488,64.4247],[-131.71607,64.4755],[-131.67606,64.48551],[-131.70749,64.50819],[-131.68467,64.52138],[-131.80642,64.53394],[-131.83874,64.52535],[-131.8554,64.53783],[-131.83013,64.54878],[-131.89643,64.56628],[-131.93812,64.59035],[-131.98201,64.63184],[-132.03774,64.69643],[-132.12429,64.70375],[-132.21627,64.74288],[-132.29912,64.76122],[-132.35699,64.78317],[-132.42206,64.7778],[-132.46426,64.7887],[-132.51194,64.77449],[-132.54605,64.77025],[-132.55925,64.79613],[-132.62767,64.82969],[-132.58692,64.83459],[-132.51116,64.86623],[-132.48171,64.88403],[-132.46232,64.90157],[-132.4913,64.93557],[-132.49034,64.96241],[-132.41421,64.98439],[-132.40562,65.01001],[-132.33775,65.03831],[-132.33613,65.06072],[-132.45949,65.08112],[-132.51939,65.08152],[-132.54277,65.08991],[-132.53449,65.12119],[-132.50936,65.17352],[-132.55479,65.17124],[-132.59666,65.14628],[-132.65674,65.14081],[-132.7269,65.15839],[-132.77275,65.18305],[-132.76399,65.19647],[-132.70671,65.19929],[-132.74792,65.22737],[-132.66938,65.25967],[-132.65703,65.27813],[-132.56645,65.28405],[-132.55512,65.31516],[-132.53717,65.35047],[-132.50464,65.36862],[-132.44628,65.38821],[-132.37646,65.40236],[-132.34941,65.42943],[-132.31498,65.44724],[-132.2754,65.45771],[-132.28339,65.50056],[-132.2149,65.55312],[-132.19106,65.57483],[-132.16835,65.60243],[-132.19884,65.6186],[-132.24472,65.6667],[-132.29864,65.68597],[-132.28325,65.7047],[-132.31349,65.73986],[-132.35451,65.74693],[-132.37551,65.76643],[-132.41441,65.78878],[-132.48467,65.80119],[-132.51973,65.81958],[-132.56371,65.83017],[-132.59639,65.85671],[-132.57793,65.87556],[-132.53089,65.9059],[-132.46092,65.93051],[-132.35015,65.95232],[-132.37791,65.98904],[-132.46029,65.97464],[-132.49457,65.97199],[-132.51923,65.99907],[-132.54047,66.01503],[-132.56829,66.02288],[-132.61617,66.02231],[-132.65662,66.01584],[-132.7063,65.98903],[-132.79936,65.95052],[-132.80531,65.92058],[-132.83721,65.90037],[-132.90924,65.88405],[-132.9965,65.90872],[-133.02151,65.91882],[-132.962,65.96055],[-132.91229,66.00155],[-132.92117,66.02043],[-133.00521,66.01682],[-133.05586,66.01923],[-133.1281,66.03094],[-133.15286,66.01941],[-133.19628,66.00688],[-133.26861,65.99585],[-133.32347,65.97027],[-133.40521,65.93886],[-133.44695,65.93347],[-133.52584,65.95431],[-133.55555,65.95184],[-133.59499,65.93587],[-133.62147,65.94207],[-133.65836,65.95969],[-133.66282,65.9813],[-133.63445,65.9947],[-133.62208,66.01571],[-133.60306,66.0382],[-133.59858,66.05652],[-133.63812,66.06031],[-133.68128,66.05915],[-133.69073,66.07118],[-133.67963,66.09765],[-133.65788,66.12181],[-133.60171,66.13434],[-133.57119,66.1498],[-133.54894,66.16999],[-133.5555,66.18805],[-133.56799,66.209],[-133.56635,66.23589],[-133.55356,66.25701],[-133.58054,66.28614],[-133.62625,66.29862],[-133.78579,66.29538],[-133.82194,66.30304],[-133.83545,66.31722],[-133.81135,66.34122],[-133.7681,66.36619],[-133.76499,66.39192],[-133.76641,66.41777],[-133.73422,66.44036],[-133.63934,66.43002],[-133.60985,66.43607],[-133.69347,66.50349],[-133.69008,66.52791],[-133.58821,66.54998],[-133.58239,66.56226],[-133.6768,66.58318],[-133.69651,66.59549],[-133.71761,66.62501],[-133.76208,66.63444],[-133.7934,66.64945],[-133.76209,66.66421],[-133.74809,66.67897],[-133.7621,66.69241],[-133.80532,66.70544],[-133.84636,66.7228],[-133.8322,66.73389],[-133.80383,66.7432],[-133.77596,66.76521],[-133.75969,66.80103],[-133.7875,66.81708],[-133.83305,66.82597],[-133.85329,66.84192],[-133.85031,66.85495],[-133.88956,66.8691],[-133.89049,66.8835],[-133.94332,66.90527],[-134.00071,66.90942],[-134.09174,66.93691],[-134.11787,66.95692],[-134.06723,66.97521],[-134.01424,66.98585],[-133.90129,66.98185],[-133.84691,66.98367],[-133.82966,67],[-136.16444,67],[-136.18182,67.03468],[-136.21629,67.05098],[-136.20034,67.06143],[-136.23248,67.1067],[-136.19155,67.14391],[-136.22132,67.1539],[-136.23512,67.17255],[-136.13752,67.23264],[-136.12726,67.2735],[-136.11085,67.28875],[-136.08659,67.30071],[-136.13554,67.32999],[-136.14622,67.34538],[-136.14006,67.36644],[-136.1689,67.37798],[-136.18724,67.3934],[-136.22208,67.40548],[-136.20157,67.41846],[-136.2043,67.43931],[-136.1787,67.45773],[-136.20215,67.48188],[-136.16995,67.50385],[-136.21874,67.51341],[-136.21839,67.53138],[-136.20001,67.56167],[-136.24138,67.61089],[-136.2793,67.62113],[-136.28992,67.63424],[-136.35941,67.62836],[-136.37807,67.63921],[-136.41624,67.64015],[-136.4488,67.64948],[-136.45237,67.71067],[-136.47715,67.72163],[-136.47914,67.72538],[-136.47441,67.73256],[-136.47595,67.73677],[-136.48648,67.7439],[-136.49086,67.75432],[-136.50802,67.76177],[-136.50645,67.77346],[-136.52903,67.79173],[-136.52301,67.79891],[-136.5287,67.80707],[-136.55549,67.81076],[-136.56478,67.81802],[-136.56288,67.82952],[-136.53682,67.83346],[-136.53137,67.83951],[-136.53333,67.84512],[-136.53871,67.84779],[-136.56495,67.84854],[-136.56659,67.85113],[-136.56231,67.85783],[-136.58154,67.86339],[-136.57861,67.87443],[-136.6298,67.87688],[-136.63258,67.886],[-136.65348,67.89076],[-136.65905,67.89834],[-136.6753,67.90121],[-136.67017,67.90657],[-136.67537,67.91423],[-136.67056,67.9187],[-136.67471,67.92652],[-136.6899,67.93506],[-136.69005,67.94034],[-136.69799,67.94565],[-136.69925,67.95444],[-136.68515,67.96791],[-136.65533,67.964],[-136.64494,67.96852],[-136.64714,67.97103],[-136.6404,67.97775],[-136.61106,67.981],[-136.61184,67.98936],[-136.6249,67.9926],[-136.6285,68.00152],[-136.63564,68.00415],[-136.63223,68.01047],[-136.63495,68.01479],[-136.66303,68.01898],[-136.67512,68.02651],[-136.68612,68.02426],[-136.6931,68.03183],[-136.70799,68.03717],[-136.72182,68.03705],[-136.74962,68.04421],[-136.74886,68.04829],[-136.72975,68.05541],[-136.72817,68.05873],[-136.73134,68.06303],[-136.72555,68.06975],[-136.74422,68.07448],[-136.74951,68.08104],[-136.76521,68.08317],[-136.7504,68.09393],[-136.76027,68.10043],[-136.76284,68.11523],[-136.79935,68.10942],[-136.85543,68.11231],[-136.86263,68.1165],[-136.87187,68.12836],[-136.88453,68.13082],[-136.89008,68.13881],[-136.89689,68.13986],[-136.91491,68.15103],[-136.9261,68.16528],[-136.92446,68.18468],[-136.94869,68.18957],[-136.94388,68.20143],[-136.95123,68.20431],[-136.95133,68.20718],[-136.9474,68.21566],[-136.9298,68.22792],[-136.9311,68.23106],[-136.93677,68.23421],[-136.9529,68.23485],[-136.96423,68.24036],[-136.97358,68.25874],[-136.97015,68.26936],[-136.98957,68.28386],[-137.00462,68.28376],[-137.01121,68.27761],[-137.02214,68.27485],[-137.02159,68.27027],[-137.00829,68.26635],[-137.00926,68.25541],[-137.04327,68.24439],[-137.06679,68.24259],[-137.08825,68.25161],[-137.11852,68.24499],[-137.13831,68.24522],[-137.14985,68.24883],[-137.18498,68.24833],[-137.18974,68.2423],[-137.22222,68.23554],[-137.21977,68.23081],[-137.22543,68.22487],[-137.24258,68.2189],[-137.26291,68.2212],[-137.30541,68.21091],[-137.32297,68.22385],[-137.34335,68.21436],[-137.37396,68.21584],[-137.38064,68.20834],[-137.39577,68.20429],[-137.41762,68.20519],[-137.46893,68.19942],[-137.46941,68.18396],[-137.48487,68.18164],[-137.49716,68.18353],[-137.51558,68.17757],[-137.53664,68.18444],[-137.57233,68.18472],[-137.58432,68.18815],[-137.63857,68.1872],[-137.68673,68.17958],[-137.72023,68.18406],[-137.72528,68.19338],[-137.71772,68.20008],[-137.72667,68.20523],[-137.72652,68.21118],[-137.74117,68.21813],[-137.75326,68.23555],[-137.76278,68.24126],[-137.76792,68.24059],[-137.77325,68.24849],[-137.80171,68.25011],[-137.82531,68.26267],[-137.83238,68.27443],[-137.83121,68.28456],[-137.85034,68.27847],[-137.92601,68.26686],[-137.97046,68.27562],[-138.02138,68.25706],[-138.04441,68.25925],[-138.04907,68.25256],[-138.04867,68.24341],[-138.05955,68.23897],[-138.06592,68.22356],[-138.07373,68.22108],[-138.08681,68.20997],[-138.10185,68.20854],[-138.14677,68.22006],[-138.15079,68.22456],[-138.15258,68.24233],[-138.17752,68.24328],[-138.20312,68.25242],[-138.20635,68.25841],[-138.20798,68.27945],[-138.21159,68.28449],[-138.25079,68.30752],[-138.26203,68.32751],[-138.29144,68.33237],[-138.29401,68.34007],[-138.32057,68.36387],[-138.33195,68.38049],[-138.33334,68.38564],[-138.33043,68.39261],[-138.33313,68.39813],[-138.34931,68.4087],[-138.34922,68.41298],[-138.33656,68.41688],[-138.31334,68.41774],[-138.29838,68.41408],[-138.2786,68.42316],[-138.27993,68.42773],[-138.27549,68.43175],[-138.27574,68.43735],[-138.29126,68.45075],[-138.28916,68.45781],[-138.30591,68.46685],[-138.27431,68.47066],[-138.27547,68.47554],[-138.2883,68.48389],[-138.28231,68.49721],[-138.2883,68.50064],[-138.30144,68.50245],[-138.31457,68.49636],[-138.33856,68.49417],[-138.4167,68.49959],[-138.42622,68.49541],[-138.44851,68.5026],[-138.45696,68.5172],[-138.48704,68.5232],[-138.49422,68.52887],[-138.5134,68.53338],[-138.51369,68.52596],[-138.5233,68.52301],[-138.54529,68.52586],[-138.55728,68.52272],[-138.56367,68.52842],[-138.58247,68.53168],[-138.59069,68.54004],[-138.62838,68.54128],[-138.6378,68.52263],[-138.66835,68.51606],[-138.69741,68.5252],[-138.73262,68.51986],[-138.74744,68.52653],[-138.75011,68.53805],[-138.75915,68.53995],[-138.78133,68.535],[-138.79934,68.52715],[-138.84196,68.54328],[-138.87565,68.54985],[-138.92847,68.5547],[-138.99605,68.55061],[-139.00243,68.5548],[-139.01642,68.55423],[-139.02889,68.55832],[-139.06325,68.5567],[-139.07191,68.55061],[-139.05144,68.54604],[-139.02116,68.54503],[-139.01413,68.53862],[-139.00309,68.50911],[-139.03357,68.50402],[-139.05297,68.49636],[-139.08123,68.4935],[-139.09228,68.49978],[-139.12654,68.49931],[-139.15452,68.50692],[-139.16861,68.52263],[-139.18979,68.52411],[-139.18812,68.54775],[-139.2008,68.54908],[-139.20411,68.55527],[-139.23284,68.55604],[-139.26521,68.56746],[-139.28501,68.55613],[-139.30721,68.55228],[-139.31233,68.54376],[-139.30814,68.53452],[-139.31277,68.52057],[-139.3306,68.51663],[-139.41959,68.51463],[-139.47984,68.52063],[-139.50992,68.52805],[-139.53543,68.52539],[-139.57255,68.52938],[-139.58168,68.53215],[-139.58706,68.53802],[-139.58977,68.55137],[-139.58394,68.56024],[-139.58468,68.56384],[-139.59986,68.56536],[-139.60614,68.56946],[-139.64298,68.57288],[-139.6464,68.58126],[-139.67324,68.58345],[-139.67572,68.58868],[-139.67334,68.59306],[-139.68105,68.5981],[-139.68257,68.60914],[-139.6997,68.61],[-139.73416,68.6239],[-139.75548,68.62209],[-139.76747,68.62761],[-139.79002,68.62524],[-139.82439,68.64027],[-139.85218,68.6436],[-139.8597,68.64817],[-139.86103,68.65645],[-139.87388,68.65902],[-139.8932,68.67034],[-139.91623,68.67177],[-139.92137,68.68319],[-139.94831,68.68338],[-139.95105,68.68574],[-139.95103,68.69542],[-139.94374,68.70232],[-139.95293,68.70472],[-139.97873,68.70586],[-140.01023,68.70177],[-140.01661,68.69577],[-140.04229,68.69556],[-140.04469,68.68588],[-140.05433,68.67506],[-140.03345,68.67169],[-140.02431,68.66764],[-140.02355,68.66438],[-140.03764,68.65625],[-140.04459,68.63657],[-140.07439,68.62921],[-140.08285,68.62125],[-140.09808,68.61569],[-140.16393,68.61084],[-140.1711,68.61168],[-140.17223,68.61728],[-140.21317,68.61676],[-140.23685,68.61035],[-140.25781,68.61565],[-140.29055,68.61593],[-140.32961,68.63793],[-140.33904,68.63925],[-140.35075,68.63259],[-140.36958,68.63313],[-140.37664,68.63782],[-140.39305,68.63919],[-140.403,68.64411],[-140.41442,68.63877],[-140.42091,68.62876],[-140.45069,68.62726],[-140.4622,68.63202],[-140.478,68.62497],[-140.49076,68.6126],[-140.54669,68.59701],[-140.56158,68.59718],[-140.57325,68.60107],[-140.57985,68.60903],[-140.58774,68.62803],[-140.62119,68.63207],[-140.62329,68.64073],[-140.63832,68.64292],[-140.63737,68.64901],[-140.64927,68.6551],[-140.65536,68.66405],[-140.66805,68.66705],[-140.66716,68.671],[-140.67392,68.67747],[-140.6901,68.68061]],[[-137.85962,60.92746],[-137.85999,60.92827],[-137.85719,60.92845],[-137.85962,60.92746]],[[-135.88601,63.58993],[-135.90269,63.59052],[-135.90344,63.6037],[-135.89098,63.60365],[-135.89104,63.59364],[-135.88601,63.58993]],[[-136.47661,60.7711],[-136.49684,60.78477],[-136.49772,60.78828],[-136.49348,60.7939],[-136.47443,60.79803],[-136.45542,60.79111],[-136.45272,60.78555],[-136.45644,60.77895],[-136.47661,60.7711]],[[-132.74047,60.16435],[-132.76442,60.17096],[-132.75412,60.1787],[-132.73181,60.17652],[-132.72636,60.18417],[-132.69887,60.18215],[-132.68498,60.17693],[-132.71162,60.17322],[-132.7055,60.16711],[-132.71951,60.16658],[-132.72426,60.15988],[-132.74047,60.16435]],[[-128.92578,60.0648],[-128.90558,60.06518],[-128.89417,60.05652],[-128.89064,60.04655],[-128.91328,60.04132],[-128.93891,60.04615],[-128.94426,60.05159],[-128.94109,60.05682],[-128.92578,60.0648]],[[-139.45041,64.0968],[-139.45496,64.1043],[-139.46815,64.11456],[-139.40589,64.12653],[-139.38242,64.10033],[-139.44776,64.09153],[-139.45041,64.0968]],[[-139.78,67.55668],[-139.80439,67.54953],[-139.83644,67.5489],[-139.86937,67.55799],[-139.88243,67.57123],[-139.8801,67.57899],[-139.85481,67.58767],[-139.80343,67.59138],[-139.78524,67.58641],[-139.76643,67.57389],[-139.76838,67.56078],[-139.78,67.55668]],[[-138.79471,61.2323],[-138.86511,61.26427],[-138.82704,61.2828],[-138.7297,61.23932],[-138.76976,61.22095],[-138.79471,61.2323]],[[-132.40309,61.95377],[-132.45392,61.94061],[-132.50835,61.98762],[-132.44759,62.00281],[-132.3926,61.95648],[-132.40309,61.95377]],[[-134.67391,60.18968],[-134.67403,60.15329],[-134.75552,60.15323],[-134.75472,60.19929],[-134.67388,60.199],[-134.67391,60.18968]],[[-133.26782,60.47168],[-133.29631,60.46585],[-133.31398,60.46486],[-133.3281,60.46811],[-133.33856,60.47488],[-133.34496,60.48472],[-133.34372,60.50079],[-133.33185,60.50893],[-133.31235,60.51327],[-133.29773,60.51446],[-133.26343,60.50863],[-133.24935,60.49969],[-133.24349,60.49101],[-133.25448,60.47759],[-133.26782,60.47168]],[[-132.75789,60.19052],[-132.79697,60.19662],[-132.80865,60.23428],[-132.76295,60.26719],[-132.74551,60.25731],[-132.7371,60.22934],[-132.72522,60.21346],[-132.72734,60.19924],[-132.74775,60.19603],[-132.75789,60.19052]],[[-140.85648,62.35976],[-140.87842,62.35444],[-140.91706,62.35644],[-140.94904,62.37273],[-140.95293,62.37996],[-140.95038,62.38765],[-140.94139,62.3958],[-140.92545,62.40316],[-140.90162,62.40557],[-140.86936,62.40294],[-140.84121,62.38998],[-140.83262,62.37459],[-140.84493,62.36382],[-140.85648,62.35976]],[[-136.69842,63.39719],[-136.65089,63.39961],[-136.62963,63.34549],[-136.72907,63.34023],[-136.75081,63.39449],[-136.69842,63.39719]],[[-139.01248,61.32874],[-139.09437,61.36338],[-139.03955,61.38878],[-138.92524,61.33926],[-138.97696,61.31368],[-139.01248,61.32874]],[[-136.53331,62.79323],[-136.60419,62.78365],[-136.64678,62.84542],[-136.55738,62.85821],[-136.51379,62.79586],[-136.53331,62.79323]],[[-137.50687,60.74169],[-137.51835,60.74896],[-137.54341,60.75349],[-137.54163,60.75677],[-137.55848,60.76447],[-137.59003,60.77306],[-137.5809,60.786],[-137.58382,60.78795],[-137.56681,60.79413],[-137.52793,60.79352],[-137.52439,60.79914],[-137.51292,60.80097],[-137.50562,60.79827],[-137.51473,60.79314],[-137.45242,60.79281],[-137.45137,60.74064],[-137.50687,60.74169]],[[-139.44718,64.09023],[-139.41581,64.08999],[-139.41147,64.06919],[-139.37713,64.05845],[-139.378,64.05379],[-139.27775,64.05067],[-139.2795,64.02446],[-139.45051,64.02824],[-139.47938,64.02295],[-139.48815,64.02735],[-139.47507,64.03464],[-139.46689,64.04877],[-139.45853,64.05164],[-139.4446,64.07807],[-139.45216,64.08206],[-139.44113,64.08301],[-139.44646,64.08931],[-139.45668,64.0903],[-139.44718,64.09023]],[[-137.9923,60.9813],[-137.85336,60.99835],[-137.85767,60.99655],[-137.85235,60.99438],[-137.85819,60.99095],[-137.85524,60.98802],[-137.8603,60.9867],[-137.8583,60.98404],[-137.86372,60.983],[-137.86218,60.98031],[-137.8674,60.97701],[-137.86271,60.97171],[-137.87756,60.95699],[-137.89802,60.94804],[-137.88839,60.94584],[-137.86193,60.94883],[-137.8577,60.93851],[-137.86236,60.928],[-137.8606,60.92522],[-137.88438,60.92233],[-137.97871,60.93585],[-137.97749,60.94023],[-137.9692,60.94103],[-137.94151,60.95433],[-137.9923,60.9813]],[[-136.32502,62.09416],[-136.32517,62.12555],[-136.27549,62.12569],[-136.26242,62.12967],[-136.23521,62.1298],[-136.23518,62.12697],[-136.17457,62.11497],[-136.15456,62.11414],[-136.15162,62.09496],[-136.23481,62.09397],[-136.23451,62.06754],[-136.32489,62.06746],[-136.32502,62.09416]],[[-135.35789,63.91586],[-135.33934,63.92252],[-135.36389,63.93807],[-135.35455,63.94798],[-135.33357,63.93723],[-135.3084,63.94203],[-135.28098,63.95885],[-135.24759,63.96843],[-135.23546,63.96014],[-135.25706,63.94821],[-135.18722,63.94321],[-135.15373,63.92617],[-135.15742,63.91318],[-135.33525,63.88465],[-135.35754,63.8933],[-135.36397,63.90478],[-135.35789,63.91586]],[[-134.34126,60.32618],[-134.24188,60.32841],[-134.22553,60.2577],[-134.26947,60.23985],[-134.29222,60.24114],[-134.30288,60.22625],[-134.32844,60.22096],[-134.33406,60.22501],[-134.32914,60.2638],[-134.34126,60.32618]],[[-128.90042,60.08117],[-128.88626,60.14507],[-128.80158,60.12894],[-128.71018,60.10634],[-128.70839,60.0781],[-128.67856,60.07618],[-128.55741,60.03718],[-128.57639,60.01681],[-128.60308,60.00821],[-128.60826,60.01374],[-128.60906,60.02029],[-128.61548,60.02276],[-128.62616,60.02291],[-128.63677,60.01581],[-128.67057,60.02907],[-128.72744,60.02263],[-128.81953,60.05612],[-128.90042,60.08117]],[[-133.20075,62.15535],[-133.50925,62.15548],[-133.51231,62.27435],[-133.19874,62.27112],[-133.20075,62.15535]]]},"properties":{"id":"6001045","boundaryId":"census:csd:6001045","boundaryCode":"6001045","boundaryName":"Yukon, Unorganized","boundarySource":"census","boundaryLevel":"csd","CSDUID":"6001045","CSDNAME":"Yukon, Unorganized","CSDTYPE":"NO","CDUID":"6001","PRUID":"60","DGUID":"2021A00056001045","LANDAREA":445269.8101,"areaKm2":445269.8101}},{"type":"Feature","geometry":{"type":"Polygon","coordinates":[[[-131.08566,60.01265],[-131.08929,60.02525],[-131.10292,60.0339],[-131.12772,60.03883],[-131.15349,60.03723],[-131.19693,60.02156],[-131.20317,60.00004],[-131.08546,60.00006],[-131.08566,60.01265]]]},"properties":{"id":"6001046","boundaryId":"census:csd:6001046","boundaryCode":"6001046","boundaryName":"Swift River","boundarySource":"census","boundaryLevel":"csd","CSDUID":"6001046","CSDNAME":"Swift River","CSDTYPE":"SÉ","CDUID":"6001","PRUID":"60","DGUID":"2021A00056001046","LANDAREA":22.8773,"areaKm2":22.8773}},{"type":"Feature","geometry":{"type":"Polygon","coordinates":[[[-133.25448,60.47759],[-133.24349,60.49101],[-133.24935,60.49969],[-133.26343,60.50863],[-133.27667,60.51154],[-133.29773,60.51446],[-133.33185,60.50893],[-133.34372,60.50079],[-133.34584,60.4926],[-133.34496,60.48472],[-133.33856,60.47488],[-133.3281,60.46811],[-133.31398,60.46486],[-133.27452,60.46933],[-133.25448,60.47759]]]},"properties":{"id":"6001047","boundaryId":"census:csd:6001047","boundaryCode":"6001047","boundaryName":"Johnsons Crossing","boundarySource":"census","boundaryLevel":"csd","CSDUID":"6001047","CSDNAME":"Johnsons Crossing","CSDTYPE":"SÉ","CDUID":"6001","PRUID":"60","DGUID":"2021A00056001047","LANDAREA":21.9758,"areaKm2":21.9758}},{"type":"Feature","geometry":{"type":"Polygon","coordinates":[[[-134.67396,60.17313],[-134.67388,60.199],[-134.75472,60.19929],[-134.75552,60.15323],[-134.68332,60.15329],[-134.6834,60.15873],[-134.69151,60.15875],[-134.69151,60.16439],[-134.67401,60.15825],[-134.67396,60.17313]]]},"properties":{"id":"6001048","boundaryId":"census:csd:6001048","boundaryCode":"6001048","boundaryName":"Carcross","boundarySource":"census","boundaryLevel":"csd","CSDUID":"6001048","CSDNAME":"Carcross","CSDTYPE":"SÉ","CDUID":"6001","PRUID":"60","DGUID":"2021A00056001048","LANDAREA":15.561300000000001,"areaKm2":15.561300000000001}},{"type":"Feature","geometry":{"type":"Polygon","coordinates":[[[-138.75443,61.22798],[-138.7297,61.23932],[-138.82704,61.2828],[-138.86511,61.26427],[-138.76976,61.22095],[-138.75443,61.22798]]]},"properties":{"id":"6001049","boundaryId":"census:csd:6001049","boundaryCode":"6001049","boundaryName":"Destruction Bay","boundarySource":"census","boundaryLevel":"csd","CSDUID":"6001049","CSDNAME":"Destruction Bay","CSDTYPE":"SÉ","CDUID":"6001","PRUID":"60","DGUID":"2021A00056001049","LANDAREA":13.900300000000001,"areaKm2":13.900300000000001}},{"type":"Feature","geometry":{"type":"Polygon","coordinates":[[[-136.63895,63.36924],[-136.65089,63.39961],[-136.75081,63.39449],[-136.72907,63.34023],[-136.62963,63.34549],[-136.63895,63.36924]]]},"properties":{"id":"6001050","boundaryId":"census:csd:6001050","boundaryCode":"6001050","boundaryName":"Stewart Crossing","boundarySource":"census","boundaryLevel":"csd","CSDUID":"6001050","CSDNAME":"Stewart Crossing","CSDTYPE":"SÉ","CDUID":"6001","PRUID":"60","DGUID":"2021A00056001050","LANDAREA":28.678900000000002,"areaKm2":28.678900000000002}},{"type":"Feature","geometry":{"type":"Polygon","coordinates":[[[-135.33357,63.93723],[-135.35455,63.94798],[-135.36389,63.93807],[-135.33934,63.92252],[-135.35789,63.91586],[-135.36397,63.90478],[-135.35754,63.8933],[-135.33525,63.88465],[-135.15742,63.91318],[-135.15373,63.92617],[-135.18722,63.94321],[-135.25706,63.94821],[-135.23546,63.96014],[-135.24759,63.96843],[-135.28098,63.95885],[-135.3084,63.94203],[-135.33357,63.93723]]]},"properties":{"id":"6001052","boundaryId":"census:csd:6001052","boundaryCode":"6001052","boundaryName":"Keno Hill","boundarySource":"census","boundaryLevel":"csd","CSDUID":"6001052","CSDNAME":"Keno Hill","CSDTYPE":"SÉ","CDUID":"6001","PRUID":"60","DGUID":"2021A00056001052","LANDAREA":53.884,"areaKm2":53.884}},{"type":"Feature","geometry":{"type":"Polygon","coordinates":[[[-136.02365,60.81465],[-136.02453,60.80222],[-136.00406,60.79719],[-136.00199,60.76637],[-135.9888,60.77252],[-135.99197,60.77912],[-135.98959,60.78157],[-135.98058,60.78148],[-135.97196,60.77734],[-135.95872,60.78166],[-135.95425,60.77429],[-135.94016,60.77494],[-135.92928,60.79096],[-135.91297,60.79562],[-135.92944,60.80447],[-135.92997,60.81019],[-135.92384,60.81399],[-135.89751,60.81602],[-135.87448,60.80775],[-135.86954,60.8102],[-135.86781,60.81793],[-135.84816,60.82684],[-135.83778,60.82407],[-135.83096,60.82801],[-135.8307,60.83136],[-135.82085,60.83353],[-135.82538,60.83735],[-135.82408,60.83941],[-135.8106,60.83474],[-135.80085,60.83828],[-135.78306,60.83722],[-135.79801,60.84302],[-135.7921,60.84724],[-135.77072,60.83723],[-135.76561,60.84022],[-135.75656,60.82684],[-135.71915,60.82801],[-135.71675,60.834],[-135.45004,60.83214],[-135.44183,60.82245],[-135.4402,60.81558],[-135.44649,60.80918],[-135.46494,60.79987],[-135.4379,60.78577],[-135.38888,60.78629],[-135.3704,60.79259],[-135.2729,60.79174],[-135.27867,60.83869],[-135.2938,60.83721],[-135.29116,60.84196],[-135.29414,60.84373],[-135.30661,60.84179],[-135.30551,60.8394],[-135.30886,60.83764],[-135.31682,60.83955],[-135.31951,60.84446],[-135.3356,60.84499],[-135.34488,60.84123],[-135.34809,60.8479],[-135.3715,60.85147],[-135.39076,60.86139],[-135.41291,60.85976],[-135.41292,60.86335],[-135.39798,60.86482],[-135.40511,60.87359],[-135.42276,60.87138],[-135.44309,60.8752],[-135.46774,60.86326],[-135.50072,60.86222],[-135.51388,60.85769],[-135.55375,60.86363],[-135.57162,60.85827],[-135.58401,60.8623],[-135.58076,60.86904],[-135.58494,60.87223],[-135.59666,60.86753],[-135.6088,60.86867],[-135.61081,60.87144],[-135.59919,60.87783],[-135.60837,60.8869],[-135.62124,60.88096],[-135.63867,60.8845],[-135.64917,60.89229],[-135.66149,60.89398],[-135.67686,60.8897],[-135.68275,60.8955],[-135.68858,60.89631],[-135.69264,60.89498],[-135.69496,60.88925],[-135.72682,60.88495],[-135.74176,60.87706],[-135.75818,60.87827],[-135.76883,60.88547],[-135.82395,60.87432],[-135.82987,60.85948],[-135.86253,60.85707],[-135.90104,60.84911],[-136.00576,60.8202],[-136.00455,60.81379],[-136.02365,60.81465]]]},"properties":{"id":"6001055","boundaryId":"census:csd:6001055","boundaryCode":"6001055","boundaryName":"Ibex Valley","boundarySource":"census","boundaryLevel":"csd","CSDUID":"6001055","CSDNAME":"Ibex Valley","CSDTYPE":"HAM","CDUID":"6001","PRUID":"60","DGUID":"2021A00056001055","LANDAREA":207.12820000000002,"areaKm2":207.12820000000002}},{"type":"Feature","geometry":{"type":"Polygon","coordinates":[[[-132.72693,60.20509],[-132.72602,60.21632],[-132.7371,60.22934],[-132.74551,60.25731],[-132.76295,60.26719],[-132.80865,60.23428],[-132.79697,60.19662],[-132.7584,60.19039],[-132.74775,60.19603],[-132.72765,60.19907],[-132.72693,60.20509]]]},"properties":{"id":"6001057","boundaryId":"census:csd:6001057","boundaryCode":"6001057","boundaryName":"Teslin","boundarySource":"census","boundaryLevel":"csd","CSDUID":"6001057","CSDNAME":"Teslin","CSDTYPE":"TL","CDUID":"6001","PRUID":"60","DGUID":"2021A00056001057","LANDAREA":25.934900000000003,"areaKm2":25.934900000000003}},{"type":"Feature","geometry":{"type":"Polygon","coordinates":[[[-134.70172,60.58281],[-134.70397,60.58158],[-134.68156,60.5777],[-134.67857,60.57145],[-134.65503,60.56126],[-134.62888,60.55524],[-134.49999,60.2764],[-134.41959,60.2909],[-134.33388,60.33383],[-134.20986,60.38738],[-133.88281,60.51168],[-134.20562,60.67932],[-134.33384,60.53153],[-134.37089,60.53798],[-134.40113,60.55908],[-134.41438,60.56059],[-134.41906,60.56632],[-134.45993,60.57],[-134.43655,60.60391],[-134.36467,60.61792],[-134.38007,60.6589],[-134.45576,60.65622],[-134.44958,60.62816],[-134.47978,60.60701],[-134.49775,60.56691],[-134.50298,60.56825],[-134.50835,60.56352],[-134.56417,60.59291],[-134.65679,60.58153],[-134.68794,60.58514],[-134.70172,60.58281]]]},"properties":{"id":"6001058","boundaryId":"census:csd:6001058","boundaryCode":"6001058","boundaryName":"Marsh Lake","boundarySource":"census","boundaryLevel":"csd","CSDUID":"6001058","CSDNAME":"Marsh Lake","CSDTYPE":"NO","CDUID":"6001","PRUID":"60","DGUID":"2021A00056001058","LANDAREA":817.1125000000001,"areaKm2":817.1125000000001}},{"type":"Feature","geometry":{"type":"Polygon","coordinates":[[[-134.98809,61.21148],[-134.98772,61.24903],[-135.15346,61.27002],[-135.5506,61.23133],[-135.73086,61.15568],[-135.90247,61.01834],[-135.98424,60.89037],[-135.98873,60.82554],[-135.90104,60.84911],[-135.86253,60.85707],[-135.82987,60.85948],[-135.82395,60.87432],[-135.76883,60.88547],[-135.75818,60.87827],[-135.74176,60.87706],[-135.72682,60.88495],[-135.69496,60.88925],[-135.69264,60.89498],[-135.68631,60.8962],[-135.67686,60.8897],[-135.66149,60.89398],[-135.64917,60.89229],[-135.63867,60.8845],[-135.62124,60.88096],[-135.60837,60.8869],[-135.59919,60.87783],[-135.61081,60.87144],[-135.6088,60.86867],[-135.59666,60.86753],[-135.58494,60.87223],[-135.58076,60.86904],[-135.58401,60.8623],[-135.57162,60.85827],[-135.55375,60.86363],[-135.51635,60.85774],[-135.50072,60.86222],[-135.47776,60.8611],[-135.46253,60.86486],[-135.44309,60.8752],[-135.42276,60.87138],[-135.40511,60.87359],[-135.39798,60.86482],[-135.41292,60.86335],[-135.41291,60.85976],[-135.39076,60.86139],[-135.3715,60.85147],[-135.34809,60.8479],[-135.34488,60.84123],[-135.3356,60.84499],[-135.31951,60.84446],[-135.31682,60.83955],[-135.30886,60.83764],[-135.30551,60.8394],[-135.30661,60.84179],[-135.29414,60.84373],[-135.29116,60.84196],[-135.2938,60.83721],[-135.26737,60.83702],[-135.25728,60.84228],[-135.23478,60.83341],[-135.23011,60.83473],[-135.23659,60.83729],[-135.23257,60.84091],[-135.23498,60.84449],[-135.23064,60.84577],[-135.21994,60.83928],[-135.22779,60.83692],[-135.2237,60.83368],[-135.22733,60.83016],[-135.2253,60.82792],[-135.20454,60.83704],[-135.19461,60.83687],[-135.19412,60.84106],[-135.18973,60.84214],[-135.08146,60.84014],[-135.0017,60.78297],[-134.9649,60.74964],[-134.98105,60.82536],[-134.98969,61.04361],[-134.98809,61.21148]],[[-135.13809,60.98224],[-135.13762,60.98982],[-135.11624,60.98958],[-135.11584,60.9721],[-135.13869,60.97271],[-135.13809,60.98224]]]},"properties":{"id":"6001059","boundaryId":"census:csd:6001059","boundaryCode":"6001059","boundaryName":"Macpherson-Grizzly Valley","boundarySource":"census","boundaryLevel":"csd","CSDUID":"6001059","CSDNAME":"Macpherson-Grizzly Valley","CSDTYPE":"NO","CDUID":"6001","PRUID":"60","DGUID":"2021A00056001059","LANDAREA":1834.2781,"areaKm2":1834.2781}},{"type":"Feature","geometry":{"type":"Polygon","coordinates":[[[-134.39933,60.78117],[-134.47186,60.81955],[-134.47904,60.83638],[-134.52843,60.86015],[-134.65644,60.93893],[-134.6768,61.03508],[-134.73197,61.13772],[-134.85542,61.20956],[-134.98772,61.24903],[-134.98969,61.04361],[-134.98105,60.82536],[-134.9649,60.74964],[-134.94146,60.70298],[-134.90035,60.65826],[-134.86135,60.64583],[-134.85675,60.58983],[-134.92282,60.5659],[-135.02644,60.55364],[-135.1229,60.61862],[-135.17811,60.66357],[-135.24701,60.74929],[-135.27183,60.78323],[-135.2729,60.79174],[-135.3704,60.79259],[-135.38888,60.78629],[-135.4379,60.78577],[-135.46494,60.79987],[-135.44649,60.80918],[-135.4402,60.81558],[-135.44183,60.82245],[-135.45004,60.83214],[-135.71675,60.834],[-135.71915,60.82801],[-135.75656,60.82684],[-135.76561,60.84022],[-135.77072,60.83723],[-135.79281,60.84716],[-135.79801,60.84302],[-135.78306,60.83722],[-135.80085,60.83828],[-135.8106,60.83474],[-135.82408,60.83941],[-135.82538,60.83735],[-135.82085,60.83353],[-135.8307,60.83136],[-135.83096,60.82801],[-135.83778,60.82407],[-135.84816,60.82684],[-135.86781,60.81793],[-135.86954,60.8102],[-135.87448,60.80775],[-135.89898,60.81619],[-135.92781,60.81229],[-135.92867,60.80346],[-135.91297,60.79562],[-135.92928,60.79096],[-135.9334,60.78161],[-135.9417,60.77434],[-135.48612,60.55604],[-135.48275,60.36058],[-135.53648,60.18416],[-135.59804,60.00006],[-134.98625,60.00002],[-134.99048,60.08847],[-134.98616,60.19361],[-134.72603,60.24006],[-134.49999,60.2764],[-134.62888,60.55524],[-134.65503,60.56126],[-134.67625,60.57024],[-134.68314,60.57841],[-134.70397,60.58158],[-134.68794,60.58514],[-134.65679,60.58153],[-134.56417,60.59291],[-134.50835,60.56352],[-134.50298,60.56825],[-134.49775,60.56691],[-134.47978,60.60701],[-134.44958,60.62816],[-134.45576,60.65622],[-134.38007,60.6589],[-134.36467,60.61792],[-134.43655,60.60391],[-134.45993,60.57],[-134.41906,60.56632],[-134.41438,60.56059],[-134.40113,60.55908],[-134.37089,60.53798],[-134.33384,60.53153],[-134.20562,60.67932],[-134.39933,60.78117]],[[-134.88402,60.48029],[-134.89337,60.48775],[-134.90674,60.49135],[-134.91136,60.49703],[-134.89489,60.51215],[-134.91482,60.53094],[-134.92705,60.54962],[-134.91308,60.56146],[-134.8969,60.56785],[-134.81436,60.57331],[-134.82912,60.56241],[-134.83541,60.55386],[-134.83838,60.54056],[-134.82416,60.48702],[-134.82342,60.46638],[-134.80279,60.4361],[-134.85417,60.42873],[-134.85845,60.42279],[-134.85778,60.41557],[-134.84445,60.41235],[-134.84734,60.40772],[-134.84206,60.40883],[-134.84146,60.40423],[-134.8586,60.40128],[-134.86635,60.40459],[-134.88627,60.39041],[-134.89379,60.37073],[-134.90923,60.36237],[-134.93104,60.35692],[-134.93733,60.35199],[-134.9421,60.34159],[-134.99453,60.33797],[-134.98498,60.32946],[-134.98697,60.32513],[-134.97825,60.3259],[-134.97696,60.31899],[-134.98401,60.31695],[-134.97197,60.31287],[-134.97363,60.27754],[-134.98764,60.28374],[-135.01099,60.28662],[-135.0346,60.28162],[-135.06544,60.26649],[-135.07402,60.27091],[-135.07503,60.27756],[-135.05819,60.29284],[-135.05461,60.30316],[-135.05831,60.3175],[-135.04802,60.32746],[-135.05075,60.34],[-135.04928,60.35057],[-135.0347,60.37149],[-135.0137,60.38856],[-134.98527,60.40005],[-134.96766,60.41493],[-134.93586,60.43051],[-134.93441,60.43788],[-134.91962,60.44794],[-134.91717,60.4592],[-134.90135,60.45783],[-134.90211,60.46826],[-134.87961,60.46848],[-134.87965,60.46405],[-134.86338,60.46345],[-134.88402,60.48029]]]},"properties":{"id":"6001060","boundaryId":"census:csd:6001060","boundaryCode":"6001060","boundaryName":"Whitehorse, Unorganized","boundarySource":"census","boundaryLevel":"csd","CSDUID":"6001060","CSDNAME":"Whitehorse, Unorganized","CSDTYPE":"NO","CDUID":"6001","PRUID":"60","DGUID":"2021A00056001060","LANDAREA":5032.3511,"areaKm2":5032.3511}},{"type":"Feature","geometry":{"type":"MultiPolygon","coordinates":[[[[-137.42689,68.99357],[-137.42712,68.99376],[-137.42781,68.99371],[-137.42689,68.99357]]],[[[-137.42487,68.99327],[-137.42556,68.99345],[-137.42621,68.99324],[-137.42487,68.99327]]],[[[-139.36916,69.53609],[-139.37055,69.53631],[-139.36988,69.53593],[-139.36916,69.53609]]],[[[-139.36958,69.5369],[-139.3704,69.53718],[-139.37113,69.53696],[-139.36958,69.5369]]],[[[-137.42953,68.99366],[-137.43144,68.99406],[-137.43036,68.99357],[-137.42953,68.99366]]],[[[-138.92331,69.36138],[-138.92423,69.3619],[-138.92453,69.36106],[-138.92331,69.36138]]],[[[-140.87725,69.61685],[-140.87883,69.61712],[-140.88086,69.6169],[-140.87725,69.61685]]],[[[-136.48216,68.89032],[-136.48388,68.88959],[-136.48164,68.89007],[-136.48216,68.89032]]],[[[-138.91429,69.36978],[-138.91356,69.37024],[-138.91574,69.37014],[-138.91429,69.36978]]],[[[-137.10623,68.9327],[-137.10742,68.9328],[-137.10946,68.93222],[-137.10623,68.9327]]],[[[-139.09412,69.47843],[-139.09455,69.47906],[-139.09584,69.47883],[-139.09412,69.47843]]],[[[-139.10706,69.51135],[-139.11047,69.51037],[-139.10948,69.51031],[-139.10706,69.51135]]],[[[-140.90088,69.6272],[-140.90451,69.6278],[-140.90303,69.6272],[-140.90088,69.6272]]],[[[-138.44169,69.27533],[-138.44405,69.27458],[-138.44047,69.27512],[-138.44169,69.27533]]],[[[-137.14372,68.93806],[-137.14341,68.93777],[-137.13983,68.9379],[-137.14372,68.93806]]],[[[-137.01536,68.9381],[-137.01507,68.93861],[-137.01736,68.93849],[-137.01536,68.9381]]],[[[-138.41173,69.28494],[-138.41473,69.28372],[-138.41368,69.2836],[-138.41173,69.28494]]],[[[-139.10159,69.48267],[-139.10303,69.48335],[-139.10451,69.48278],[-139.10159,69.48267]]],[[[-139.65051,69.56487],[-139.6529,69.56549],[-139.65206,69.56463],[-139.65051,69.56487]]],[[[-140.87074,69.61604],[-140.87185,69.61673],[-140.87496,69.61651],[-140.87074,69.61604]]],[[[-139.44927,69.54158],[-139.4513,69.54063],[-139.44877,69.54042],[-139.44927,69.54158]]],[[[-138.59239,69.25964],[-138.59349,69.26128],[-138.5951,69.25917],[-138.59239,69.25964]]],[[[-140.53081,69.59503],[-140.53271,69.59556],[-140.53337,69.59399],[-140.53081,69.59503]]],[[[-137.04701,68.94435],[-137.05092,68.94362],[-137.04633,68.94384],[-137.04701,68.94435]]],[[[-137.10626,68.9377],[-137.10759,68.93712],[-137.10586,68.93541],[-137.10626,68.9377]]],[[[-138.59741,69.26726],[-138.60045,69.26555],[-138.59816,69.2652],[-138.59741,69.26726]]],[[[-137.10207,68.94461],[-137.10291,68.94572],[-137.10435,68.94376],[-137.10207,68.94461]]],[[[-138.91737,69.36624],[-138.92116,69.36518],[-138.91553,69.36589],[-138.91737,69.36624]]],[[[-137.1066,68.94407],[-137.10801,68.94485],[-137.11084,68.94405],[-137.1066,68.94407]]],[[[-139.10706,69.48512],[-139.10931,69.48493],[-139.1134,69.48218],[-139.10706,69.48512]]],[[[-139.26397,69.57485],[-139.26797,69.57566],[-139.26703,69.57443],[-139.26397,69.57485]]],[[[-139.54078,69.53649],[-139.54226,69.53793],[-139.54495,69.53716],[-139.54078,69.53649]]],[[[-138.58601,69.25],[-138.5872,69.2554],[-138.58832,69.25059],[-138.58601,69.25]]],[[[-137.1302,68.93847],[-137.13397,68.93998],[-137.13925,68.94018],[-137.1302,68.93847]]],[[[-140.85734,69.62194],[-140.86171,69.62392],[-140.86415,69.62229],[-140.85734,69.62194]]],[[[-138.92199,69.36422],[-138.92918,69.36264],[-138.92595,69.36135],[-138.92199,69.36422]]],[[[-138.60171,69.2699],[-138.60457,69.27351],[-138.61246,69.27389],[-138.60171,69.2699]]],[[[-137.27019,68.96188],[-137.27636,68.96246],[-137.27093,68.95845],[-137.26878,68.95892],[-137.27019,68.96188]]],[[[-140.87988,69.61916],[-140.88725,69.61669],[-140.86793,69.61742],[-140.87988,69.61916]]],[[[-139.52566,69.53289],[-139.53106,69.53665],[-139.53874,69.53485],[-139.52566,69.53289]]],[[[-139.30474,69.5394],[-139.33489,69.5409],[-139.31836,69.53827],[-139.30474,69.5394]]],[[[-136.46872,68.88918],[-136.47688,68.89319],[-136.48157,68.89058],[-136.47813,68.89199],[-136.47169,68.88851],[-136.47624,68.8844],[-136.4711,68.88352],[-136.46872,68.88918]]],[[[-139.49949,69.55613],[-139.50518,69.55474],[-139.46832,69.5563],[-139.42538,69.55336],[-139.43781,69.55603],[-139.49949,69.55613]]],[[[-138.42464,69.23722],[-138.41944,69.23742],[-138.43154,69.24276],[-138.43981,69.24232],[-138.43389,69.23796],[-138.42464,69.23722]]],[[[-138.43815,69.2784],[-138.44982,69.27513],[-138.46676,69.26414],[-138.46208,69.26257],[-138.46429,69.26524],[-138.43815,69.2784]]],[[[-139.55568,69.53517],[-139.55462,69.54115],[-139.56564,69.54193],[-139.56569,69.53631],[-139.55568,69.53517]]],[[[-139.33916,69.54345],[-139.36083,69.54865],[-139.40666,69.55215],[-139.33916,69.54345]]],[[[-137.12193,68.94002],[-137.1285,68.93896],[-137.11545,68.93231],[-137.10711,68.93448],[-137.1127,68.93663],[-137.10963,68.94286],[-137.12193,68.94002]]],[[[-139.46863,69.54086],[-139.47472,69.54105],[-139.47189,69.53928],[-139.47606,69.53668],[-139.46987,69.53309],[-139.46005,69.53295],[-139.45292,69.53726],[-139.46863,69.54086]]],[[[-137.00003,68.93347],[-137.00509,68.93416],[-137.00672,68.93111],[-136.99527,68.92554],[-136.98036,68.92569],[-136.98753,68.93102],[-137.00003,68.93347]]],[[[-136.54289,68.90589],[-136.55588,68.91098],[-136.58751,68.91238],[-136.60117,68.91821],[-136.62447,68.91566],[-136.62167,68.91265],[-136.63458,68.91486],[-136.61169,68.90546],[-136.56767,68.89737],[-136.54825,68.89718],[-136.54781,68.90382],[-136.54289,68.90589]]],[[[-136.52456,68.89989],[-136.53857,68.90117],[-136.54276,68.89477],[-136.54107,68.88982],[-136.54658,68.88584],[-136.46864,68.87013],[-136.46868,68.87973],[-136.47475,68.88125],[-136.46875,68.88091],[-136.48076,68.88315],[-136.47722,68.88442],[-136.47923,68.88672],[-136.48805,68.88753],[-136.49102,68.88992],[-136.48937,68.89358],[-136.51705,68.90114],[-136.52456,68.89989]]],[[[-139.00003,69.62828],[-139.05882,69.63247],[-139.10405,69.63939],[-139.13391,69.63737],[-139.21928,69.60841],[-139.21682,69.60684],[-139.22839,69.6037],[-139.24628,69.5907],[-139.28,69.57552],[-139.326,69.54887],[-139.31951,69.54919],[-139.28506,69.56921],[-139.2732,69.5694],[-139.28248,69.57058],[-139.24349,69.59106],[-139.24461,69.58484],[-139.24084,69.58008],[-139.2463,69.57728],[-139.26286,69.57741],[-139.26207,69.57511],[-139.23284,69.57063],[-139.21961,69.56264],[-139.21763,69.55267],[-139.21259,69.5499],[-139.18822,69.55182],[-139.1717,69.54293],[-139.13275,69.53254],[-139.13781,69.53314],[-139.13716,69.52995],[-139.12791,69.53215],[-139.09524,69.51979],[-139.03872,69.55489],[-138.99641,69.57288],[-138.96945,69.57668],[-138.908,69.57355],[-138.90855,69.56972],[-138.92023,69.56818],[-138.91275,69.56783],[-138.85457,69.57138],[-138.84789,69.57516],[-138.85953,69.58565],[-138.89673,69.60292],[-138.95895,69.62112],[-139.00003,69.62828]]],[[[-141.00062,69.64634],[-141.01153,69.64671],[-141.0181,69.50288],[-141.01343,68.55774],[-140.95663,68.55893],[-140.9248,68.57293],[-140.91493,68.57008],[-140.90996,68.56449],[-140.89569,68.56906],[-140.89131,68.56478],[-140.87951,68.5644],[-140.86019,68.57496],[-140.84381,68.57544],[-140.81325,68.58382],[-140.81098,68.58524],[-140.81364,68.59029],[-140.80137,68.6019],[-140.80974,68.60456],[-140.80736,68.61779],[-140.77757,68.61979],[-140.73769,68.63083],[-140.74033,68.63896],[-140.70771,68.64768],[-140.70704,68.65387],[-140.71311,68.65574],[-140.71456,68.65996],[-140.71304,68.66795],[-140.68839,68.68099],[-140.67801,68.67985],[-140.66716,68.671],[-140.66745,68.66662],[-140.65418,68.66322],[-140.64927,68.6551],[-140.63737,68.64901],[-140.63832,68.64292],[-140.62329,68.64073],[-140.62119,68.63207],[-140.58774,68.62803],[-140.57985,68.60903],[-140.57325,68.60107],[-140.56158,68.59718],[-140.54669,68.59701],[-140.49076,68.6126],[-140.478,68.62497],[-140.4622,68.63202],[-140.45069,68.62726],[-140.42091,68.62876],[-140.41442,68.63877],[-140.403,68.64411],[-140.39305,68.63919],[-140.37664,68.63782],[-140.36958,68.63313],[-140.35075,68.63259],[-140.33904,68.63925],[-140.32961,68.63793],[-140.29055,68.61593],[-140.25781,68.61565],[-140.23685,68.61035],[-140.21317,68.61676],[-140.17223,68.61728],[-140.1711,68.61168],[-140.16393,68.61084],[-140.09808,68.61569],[-140.08285,68.62125],[-140.07439,68.62921],[-140.04459,68.63657],[-140.03764,68.65625],[-140.02355,68.66438],[-140.02431,68.66764],[-140.03345,68.67169],[-140.05433,68.67506],[-140.04469,68.68588],[-140.04229,68.69556],[-140.01661,68.69577],[-140.00652,68.70253],[-139.96388,68.70548],[-139.9439,68.70272],[-139.95103,68.69542],[-139.95105,68.68574],[-139.94831,68.68338],[-139.92137,68.68319],[-139.91623,68.67177],[-139.8932,68.67034],[-139.87388,68.65902],[-139.86103,68.65645],[-139.8597,68.64817],[-139.85218,68.6436],[-139.82439,68.64027],[-139.79002,68.62524],[-139.76747,68.62761],[-139.75548,68.62209],[-139.73416,68.6239],[-139.6997,68.61],[-139.68257,68.60914],[-139.68105,68.5981],[-139.67334,68.59306],[-139.67572,68.58868],[-139.67324,68.58345],[-139.6464,68.58126],[-139.64298,68.57288],[-139.60614,68.56946],[-139.59986,68.56536],[-139.58468,68.56384],[-139.58394,68.56024],[-139.58977,68.55137],[-139.58706,68.53802],[-139.58168,68.53215],[-139.57255,68.52938],[-139.53543,68.52539],[-139.50992,68.52805],[-139.47984,68.52063],[-139.41959,68.51463],[-139.3306,68.51663],[-139.31277,68.52057],[-139.30814,68.53452],[-139.31233,68.54376],[-139.30721,68.55228],[-139.28501,68.55613],[-139.26521,68.56746],[-139.23284,68.55604],[-139.20411,68.55527],[-139.2008,68.54908],[-139.18812,68.54775],[-139.18979,68.52411],[-139.16861,68.52263],[-139.15452,68.50692],[-139.12654,68.49931],[-139.09228,68.49978],[-139.08123,68.4935],[-139.05297,68.49636],[-139.03357,68.50402],[-139.00309,68.50911],[-139.01413,68.53862],[-139.02116,68.54503],[-139.05144,68.54604],[-139.07191,68.55061],[-139.06325,68.5567],[-139.02889,68.55832],[-139.01642,68.55423],[-139.00243,68.5548],[-138.99605,68.55061],[-138.92847,68.5547],[-138.87565,68.54985],[-138.84196,68.54328],[-138.79934,68.52715],[-138.78133,68.535],[-138.75915,68.53995],[-138.75011,68.53805],[-138.74744,68.52653],[-138.73262,68.51986],[-138.69741,68.5252],[-138.66835,68.51606],[-138.6378,68.52263],[-138.62838,68.54128],[-138.59259,68.54024],[-138.58247,68.53168],[-138.56367,68.52842],[-138.55728,68.52272],[-138.54529,68.52586],[-138.5233,68.52301],[-138.51369,68.52596],[-138.51416,68.53338],[-138.49798,68.52996],[-138.48865,68.52367],[-138.45696,68.5172],[-138.44851,68.5026],[-138.42622,68.49541],[-138.4167,68.49959],[-138.33856,68.49417],[-138.31457,68.49636],[-138.30144,68.50245],[-138.2864,68.50026],[-138.28231,68.49721],[-138.2883,68.48389],[-138.27547,68.47554],[-138.27431,68.47066],[-138.30591,68.46685],[-138.28916,68.45781],[-138.29126,68.45075],[-138.27574,68.43735],[-138.27549,68.43175],[-138.27993,68.42773],[-138.2786,68.42316],[-138.29838,68.41408],[-138.31334,68.41774],[-138.33656,68.41688],[-138.34922,68.41298],[-138.34931,68.4087],[-138.33313,68.39813],[-138.33043,68.39261],[-138.33334,68.38564],[-138.33195,68.38049],[-138.32057,68.36387],[-138.29401,68.34007],[-138.29144,68.33237],[-138.26203,68.32751],[-138.25079,68.30752],[-138.21159,68.28449],[-138.20798,68.27945],[-138.20635,68.25841],[-138.20312,68.25242],[-138.17752,68.24328],[-138.15258,68.24233],[-138.15079,68.22456],[-138.14677,68.22006],[-138.10185,68.20854],[-138.08681,68.20997],[-138.07373,68.22108],[-138.06592,68.22356],[-138.05955,68.23897],[-138.04867,68.24341],[-138.04907,68.25256],[-138.04441,68.25925],[-138.02138,68.25706],[-137.97046,68.27562],[-137.92601,68.26686],[-137.85034,68.27847],[-137.83121,68.28456],[-137.83238,68.27443],[-137.82531,68.26267],[-137.80171,68.25011],[-137.77325,68.24849],[-137.76792,68.24059],[-137.76278,68.24126],[-137.75326,68.23555],[-137.74117,68.21813],[-137.72652,68.21118],[-137.72667,68.20523],[-137.71772,68.20008],[-137.72528,68.19338],[-137.72023,68.18406],[-137.68673,68.17958],[-137.63857,68.1872],[-137.58432,68.18815],[-137.57233,68.18472],[-137.53664,68.18444],[-137.51558,68.17757],[-137.49716,68.18353],[-137.48487,68.18164],[-137.46941,68.18396],[-137.46893,68.19942],[-137.41762,68.20519],[-137.39577,68.20429],[-137.38064,68.20834],[-137.37396,68.21584],[-137.34335,68.21436],[-137.32297,68.22385],[-137.30541,68.21091],[-137.26291,68.2212],[-137.24258,68.2189],[-137.22543,68.22487],[-137.21977,68.23081],[-137.22222,68.23554],[-137.18974,68.2423],[-137.18498,68.24833],[-137.14985,68.24883],[-137.13831,68.24522],[-137.11852,68.24499],[-137.08825,68.25161],[-137.06679,68.24259],[-137.04327,68.24439],[-137.00926,68.25541],[-137.00829,68.26635],[-137.02159,68.27027],[-137.02281,68.27402],[-137.01121,68.27761],[-137.00462,68.28376],[-136.99056,68.28408],[-136.9789,68.27827],[-136.97015,68.26936],[-136.97358,68.25874],[-136.96423,68.24036],[-136.9529,68.23485],[-136.93677,68.23421],[-136.9311,68.23106],[-136.9298,68.22792],[-136.9474,68.21566],[-136.95133,68.20718],[-136.95123,68.20431],[-136.94388,68.20143],[-136.94869,68.18957],[-136.92446,68.18468],[-136.9261,68.16528],[-136.91491,68.15103],[-136.89689,68.13986],[-136.89008,68.13881],[-136.88453,68.13082],[-136.87187,68.12836],[-136.86263,68.1165],[-136.85543,68.11231],[-136.79935,68.10942],[-136.76284,68.11523],[-136.76027,68.10043],[-136.7504,68.09393],[-136.76521,68.08317],[-136.74951,68.08104],[-136.74422,68.07448],[-136.72555,68.06975],[-136.73134,68.06303],[-136.72817,68.05873],[-136.72975,68.05541],[-136.74886,68.04829],[-136.74962,68.04421],[-136.72182,68.03705],[-136.70799,68.03717],[-136.6931,68.03183],[-136.68612,68.02426],[-136.67512,68.02651],[-136.66303,68.01898],[-136.63366,68.01406],[-136.63253,68.00881],[-136.63564,68.00415],[-136.6285,68.00152],[-136.6249,67.9926],[-136.61184,67.98936],[-136.61106,67.981],[-136.6404,67.97775],[-136.64714,67.97103],[-136.64494,67.96852],[-136.65533,67.964],[-136.68515,67.96791],[-136.69925,67.95444],[-136.69799,67.94565],[-136.69005,67.94034],[-136.69025,67.93548],[-136.67471,67.92652],[-136.67017,67.91786],[-136.67537,67.91423],[-136.67006,67.90757],[-136.6753,67.90121],[-136.65905,67.89834],[-136.65348,67.89076],[-136.63258,67.886],[-136.6298,67.87688],[-136.57861,67.87443],[-136.58154,67.86339],[-136.56231,67.85783],[-136.56659,67.85113],[-136.56495,67.84854],[-136.53528,67.84683],[-136.53129,67.84082],[-136.53371,67.83569],[-136.56288,67.82952],[-136.56478,67.81802],[-136.55549,67.81076],[-136.5287,67.80707],[-136.52301,67.79891],[-136.52903,67.79173],[-136.50645,67.77346],[-136.50802,67.76177],[-136.49086,67.75432],[-136.48648,67.7439],[-136.47595,67.73677],[-136.47441,67.73256],[-136.47914,67.72538],[-136.47715,67.72163],[-136.45237,67.71067],[-136.45838,67.81292],[-136.46535,68.30348],[-136.46863,68.86953],[-136.47956,68.86811],[-136.50332,68.87687],[-136.54949,68.88395],[-136.56882,68.89031],[-136.588,68.88471],[-136.63617,68.87884],[-136.63711,68.87201],[-136.63048,68.86544],[-136.63426,68.86175],[-136.62061,68.8503],[-136.62374,68.84931],[-136.66311,68.86744],[-136.66884,68.86446],[-136.68452,68.86505],[-136.68557,68.86176],[-136.70557,68.85693],[-136.70939,68.86119],[-136.72268,68.85731],[-136.75587,68.85643],[-136.76468,68.85875],[-136.77348,68.85432],[-136.77607,68.85617],[-136.7681,68.85923],[-136.77892,68.85758],[-136.77829,68.85959],[-136.78361,68.86091],[-136.78423,68.85678],[-136.79843,68.8646],[-136.81382,68.86175],[-136.80769,68.86289],[-136.8074,68.86701],[-136.81592,68.86691],[-136.81221,68.86961],[-136.8203,68.87247],[-136.84249,68.87178],[-136.84725,68.86897],[-136.84837,68.86264],[-136.84935,68.87654],[-136.85919,68.88008],[-136.86683,68.87276],[-136.8816,68.87122],[-136.87691,68.86984],[-136.88153,68.86631],[-136.89407,68.87361],[-136.88327,68.87629],[-136.86807,68.87456],[-136.86564,68.87874],[-136.86791,68.88152],[-136.87526,68.88161],[-136.87348,68.88413],[-136.88131,68.88605],[-136.89718,68.87965],[-136.88153,68.88808],[-136.89077,68.88769],[-136.90493,68.89881],[-136.92791,68.90679],[-136.9847,68.91106],[-136.99216,68.92014],[-137.00633,68.92434],[-137.00803,68.93719],[-137.01655,68.93547],[-137.04763,68.943],[-137.05384,68.94172],[-137.0563,68.93763],[-137.05752,68.94265],[-137.07247,68.94255],[-137.07571,68.94159],[-137.07933,68.93332],[-137.07563,68.93062],[-137.0805,68.93332],[-137.07673,68.93767],[-137.07835,68.94092],[-137.09177,68.94302],[-137.10175,68.94055],[-137.10377,68.93678],[-137.09975,68.93572],[-137.10295,68.93497],[-137.10113,68.93081],[-137.14573,68.93645],[-137.20534,68.92741],[-137.23943,68.93842],[-137.24486,68.93757],[-137.24332,68.93936],[-137.2776,68.95161],[-137.28274,68.95485],[-137.27628,68.95694],[-137.27654,68.96164],[-137.33962,68.96466],[-137.44942,68.99295],[-137.45937,68.98956],[-137.4587,68.99519],[-137.47721,69.0014],[-137.54221,69.0055],[-137.62268,69.01874],[-137.77494,69.05856],[-137.896,69.08171],[-137.89014,69.07908],[-137.92301,69.07577],[-137.93481,69.07994],[-137.94675,69.07828],[-137.94024,69.07231],[-137.93283,69.07149],[-137.94103,69.07184],[-137.95632,69.07812],[-137.94269,69.08042],[-137.94113,69.08379],[-137.92189,69.07795],[-137.89736,69.08123],[-137.94989,69.09348],[-137.9838,69.09395],[-137.98665,69.0961],[-137.98333,69.09895],[-137.98914,69.10217],[-137.98283,69.10633],[-137.99827,69.11237],[-138.12195,69.13964],[-138.19988,69.16695],[-138.28032,69.20915],[-138.29727,69.22464],[-138.32793,69.26663],[-138.35114,69.28441],[-138.37586,69.29439],[-138.39246,69.29602],[-138.42898,69.28425],[-138.43212,69.28084],[-138.41443,69.28971],[-138.39197,69.29546],[-138.39674,69.29075],[-138.38193,69.28594],[-138.3757,69.28023],[-138.3854,69.27621],[-138.39371,69.27846],[-138.40795,69.26459],[-138.40211,69.259],[-138.40033,69.2603],[-138.40387,69.26316],[-138.39206,69.26128],[-138.40392,69.2583],[-138.39705,69.25497],[-138.39905,69.25247],[-138.39453,69.24892],[-138.40394,69.25152],[-138.40277,69.25402],[-138.40636,69.25544],[-138.41296,69.2515],[-138.40493,69.2415],[-138.41816,69.24606],[-138.42585,69.24482],[-138.42042,69.23855],[-138.40392,69.2352],[-138.43355,69.2364],[-138.42833,69.23203],[-138.43392,69.23082],[-138.43815,69.23251],[-138.43504,69.23688],[-138.43926,69.23778],[-138.44605,69.23407],[-138.43112,69.22989],[-138.45932,69.22077],[-138.48188,69.2322],[-138.51111,69.23389],[-138.51356,69.23784],[-138.50842,69.24355],[-138.48795,69.2485],[-138.49903,69.25144],[-138.56243,69.24571],[-138.59343,69.24772],[-138.58367,69.24576],[-138.58161,69.24169],[-138.57233,69.24261],[-138.57384,69.23932],[-138.58786,69.23496],[-138.61049,69.23377],[-138.595,69.23963],[-138.60103,69.24246],[-138.59727,69.25601],[-138.60481,69.26944],[-138.61503,69.27442],[-138.60782,69.27506],[-138.61246,69.27943],[-138.59967,69.27141],[-138.59444,69.26274],[-138.59176,69.26407],[-138.5907,69.25723],[-138.58527,69.25817],[-138.57748,69.25055],[-138.58856,69.26696],[-138.6091,69.28073],[-138.70956,69.32137],[-138.71567,69.32669],[-138.71486,69.33406],[-138.72354,69.33941],[-138.72896,69.33344],[-138.72752,69.33597],[-138.73603,69.33787],[-138.73773,69.33553],[-138.75383,69.34097],[-138.75103,69.34195],[-138.76099,69.34046],[-138.77456,69.34329],[-138.79349,69.35227],[-138.80593,69.36366],[-138.91583,69.39432],[-138.98221,69.42128],[-138.98807,69.41469],[-139.00003,69.41211],[-138.98991,69.41508],[-138.99067,69.41878],[-138.98395,69.42213],[-139.05342,69.45982],[-139.07018,69.47209],[-139.08648,69.48967],[-139.11509,69.50408],[-139.12342,69.50299],[-139.10885,69.5015],[-139.08988,69.49089],[-139.08694,69.48828],[-139.09032,69.48379],[-139.08149,69.48251],[-139.07798,69.47596],[-139.06299,69.46511],[-139.07838,69.46732],[-139.07165,69.46751],[-139.08104,69.47372],[-139.11427,69.4766],[-139.13588,69.48822],[-139.13647,69.4966],[-139.12573,69.49581],[-139.15393,69.50327],[-139.19744,69.50118],[-139.20135,69.49589],[-139.21087,69.49369],[-139.20377,69.49568],[-139.20309,69.50127],[-139.22319,69.50322],[-139.24132,69.49987],[-139.26526,69.50083],[-139.27759,69.50599],[-139.27958,69.51151],[-139.29534,69.51261],[-139.33878,69.52909],[-139.33889,69.53234],[-139.35288,69.53514],[-139.36697,69.53362],[-139.3885,69.54045],[-139.40436,69.53939],[-139.40866,69.53281],[-139.44849,69.52666],[-139.49832,69.53067],[-139.5007,69.53635],[-139.51175,69.534],[-139.50668,69.52765],[-139.51561,69.53155],[-139.55021,69.53413],[-139.5562,69.53253],[-139.55537,69.52596],[-139.55858,69.53222],[-139.57573,69.54086],[-139.57985,69.54054],[-139.57405,69.53804],[-139.57631,69.53695],[-139.58975,69.53898],[-139.60245,69.53229],[-139.59271,69.54278],[-139.59552,69.54513],[-139.57753,69.54311],[-139.57416,69.54445],[-139.57438,69.54907],[-139.60762,69.56249],[-139.64611,69.5669],[-139.65595,69.56228],[-139.64988,69.56766],[-139.68699,69.57101],[-139.72228,69.58408],[-139.7506,69.58765],[-139.78812,69.59884],[-139.76405,69.5966],[-139.62984,69.56856],[-139.54174,69.55639],[-139.54376,69.55546],[-139.51517,69.55484],[-139.64695,69.57229],[-139.77134,69.59869],[-139.93517,69.61217],[-139.88519,69.61246],[-139.80246,69.60258],[-139.8746,69.61228],[-139.98084,69.61326],[-140.04824,69.60795],[-140.1218,69.60723],[-140.19973,69.59525],[-140.31813,69.59009],[-140.40396,69.58971],[-140.51015,69.5982],[-140.53224,69.59666],[-140.52966,69.59219],[-140.53854,69.59313],[-140.53287,69.59467],[-140.53603,69.59668],[-140.53224,69.59828],[-140.69686,69.60978],[-140.82813,69.63011],[-140.77758,69.62122],[-140.76886,69.61714],[-140.81266,69.61331],[-140.8316,69.6162],[-140.83655,69.62477],[-140.84719,69.62645],[-140.85462,69.62562],[-140.85457,69.62219],[-140.8692,69.61668],[-140.86093,69.61358],[-140.88269,69.61189],[-140.89124,69.61738],[-140.90195,69.61725],[-140.90159,69.61972],[-140.9074,69.62118],[-140.89591,69.62161],[-140.89701,69.61891],[-140.89445,69.61838],[-140.89262,69.62323],[-140.89829,69.6263],[-140.92721,69.62829],[-140.93961,69.62488],[-140.92639,69.62891],[-140.9042,69.62815],[-140.89077,69.62608],[-140.89537,69.62609],[-140.89035,69.62324],[-140.89261,69.61898],[-140.88506,69.61806],[-140.86956,69.6196],[-140.87351,69.62121],[-140.83869,69.63126],[-140.89045,69.6337],[-141.00062,69.64634]],[[-138.92541,69.35724],[-138.92677,69.36054],[-138.92966,69.35833],[-138.93242,69.36052],[-138.92961,69.36058],[-138.93037,69.364],[-138.91424,69.36681],[-138.92574,69.36543],[-138.92398,69.3673],[-138.92728,69.36915],[-138.91593,69.37492],[-138.91808,69.37699],[-138.91317,69.37841],[-138.91633,69.38043],[-138.91474,69.38268],[-138.90322,69.38952],[-138.88926,69.38563],[-138.8994,69.38162],[-138.90202,69.37793],[-138.89928,69.37373],[-138.91475,69.36877],[-138.90986,69.3671],[-138.91379,69.36487],[-138.91027,69.36264],[-138.92405,69.35443],[-138.91416,69.34398],[-138.8909,69.34293],[-138.92573,69.34623],[-138.9292,69.34867],[-138.9252,69.35094],[-138.9274,69.35262],[-138.92541,69.35724]]]]},"properties":{"id":"6001065","boundaryId":"census:csd:6001065","boundaryCode":"6001065","boundaryName":"North Slope","boundarySource":"census","boundaryLevel":"csd","CSDUID":"6001065","CSDNAME":"North Slope","CSDTYPE":"NO","CDUID":"6001","PRUID":"60","DGUID":"2021A00056001065","LANDAREA":17788.407,"areaKm2":17788.407}}]}