{"type":"FeatureCollection","crs":{"type":"name","properties":{"name":"EPSG:4326"}},"features":[{"type":"Feature","id":1,"geometry":{"type":"Point","coordinates":[-122.778335021384,53.9027598646287]},"properties":{"OBJECTID":1,"FacName":"Prince George Secondary School ","FacAddress":"2901 Griffiths Ave, Prince George, BC","FacID":1,"FacClass":"Muster","BldgClass":"Education","Status":"Inactive"}},{"type":"Feature","id":2,"geometry":{"type":"Point","coordinates":[-122.776112676348,53.9952572569138]},"properties":{"OBJECTID":2,"FacName":"Glenview Elementary School","FacAddress":"7310 Cluff Rd, Prince George, BC","FacID":2,"FacClass":"Muster","BldgClass":"Education","Status":"Inactive"}},{"type":"Feature","id":3,"geometry":{"type":"Point","coordinates":[-122.792315240981,53.9744490572777]},"properties":{"OBJECTID":3,"FacName":"Hart Highlands Elementary School ","FacAddress":"2233 Sussex Lane, Prince George, BC","FacID":3,"FacClass":"Muster","BldgClass":"Education","Status":"Inactive"}},{"type":"Feature","id":4,"geometry":{"type":"Point","coordinates":[-122.757934013771,53.9163483587027]},"properties":{"OBJECTID":4,"FacName":"Duchess Park Secondary School ","FacAddress":"747 Winnipeg St, Prince George, BC","FacID":4,"FacClass":"Muster","BldgClass":"Education","Status":"Inactive"}},{"type":"Feature","id":5,"geometry":{"type":"Point","coordinates":[-122.777803728769,53.9137886786629]},"properties":{"OBJECTID":5,"FacName":"Harwin Elementary School","FacAddress":"1193 Harper St, Prince George, BC","FacID":5,"FacClass":"Muster","BldgClass":"Education","Status":"Inactive"}},{"type":"Feature","id":6,"geometry":{"type":"Point","coordinates":[-122.78944803054,53.923100768301]},"properties":{"OBJECTID":6,"FacName":"Quinson Elementary School ","FacAddress":"251 Ogilvie St, Prince George, BC","FacID":6,"FacClass":"Muster","BldgClass":"Education","Status":"Inactive"}},{"type":"Feature","id":7,"geometry":{"type":"Point","coordinates":[-122.812871110002,53.9237174240085]},"properties":{"OBJECTID":7,"FacName":"D.P. Todd Secondary School ","FacAddress":"4444 Hill Ave, Prince George, BC","FacID":7,"FacClass":"Muster","BldgClass":"Education","Status":"Inactive"}},{"type":"Feature","id":8,"geometry":{"type":"Point","coordinates":[-122.761742134374,53.8903464509007]},"properties":{"OBJECTID":8,"FacName":"Van Bien Elementary School ","FacAddress":"311 Wilson Cres, Prince George, BC","FacID":8,"FacClass":"Muster","BldgClass":"Education","Status":"Inactive"}},{"type":"Feature","id":9,"geometry":{"type":"Point","coordinates":[-122.756822987941,53.8985959895432]},"properties":{"OBJECTID":9,"FacName":"Nusdeh Yoh Elementary School","FacAddress":"2579 Victoria St, Prince George, BC","FacID":9,"FacClass":"Muster","BldgClass":"Education","Status":"Inactive"}},{"type":"Feature","id":10,"geometry":{"type":"Point","coordinates":[-122.764252848275,53.8634064936307]},"properties":{"OBJECTID":10,"FacName":"College Heights Secondary School ","FacAddress":"6180 Domano Blvd, Prince George, BC","FacID":10,"FacClass":"Muster","BldgClass":"Education","Status":"Inactive"}},{"type":"Feature","id":11,"geometry":{"type":"Point","coordinates":[-122.763530747256,53.8501304306156]},"properties":{"OBJECTID":11,"FacName":"Malaspina Elementary School","FacAddress":"7900 Malaspina Ave, Prince George, BC","FacID":11,"FacClass":"Muster","BldgClass":"Education","Status":"Inactive"}},{"type":"Feature","id":12,"geometry":{"type":"Point","coordinates":[-122.821280835549,53.8513431742721]},"properties":{"OBJECTID":12,"FacName":"Vanway Elementary School ","FacAddress":"4509 HWY 16, Prince George, BC","FacID":12,"FacClass":"Muster","BldgClass":"Education","Status":"Inactive"}},{"type":"Feature","id":13,"geometry":{"type":"Point","coordinates":[-122.87508385727,53.8310968689775]},"properties":{"OBJECTID":13,"FacName":"Beaverly Elementary School","FacAddress":"9777 Western Rd, Prince George, BC","FacID":13,"FacClass":"Muster","BldgClass":"Education","Status":"Inactive"}},{"type":"Feature","id":14,"geometry":{"type":"Point","coordinates":[-122.643113858372,53.8976042413117]},"properties":{"OBJECTID":14,"FacName":"Blackburn Elementary School ","FacAddress":"2222 Blackburn Rd, Prince George, BC","FacID":14,"FacClass":"Muster","BldgClass":"Education","Status":"Inactive"}},{"type":"Feature","id":15,"geometry":{"type":"Point","coordinates":[-122.805549247183,54.0156203035218]},"properties":{"OBJECTID":15,"FacName":"Springwood Elementary School  ","FacAddress":"4600 Zral Rd, Prince George, BC","FacID":15,"FacClass":"Muster","BldgClass":"Education","Status":"Inactive"}},{"type":"Feature","id":16,"geometry":{"type":"Point","coordinates":[-122.808886026621,53.994691968953]},"properties":{"OBJECTID":16,"FacName":"Ecole Heather Park Elementary School","FacAddress":"7151 Heather Park Rd, Prince George, BC","FacID":16,"FacClass":"Muster","BldgClass":"Education","Status":"Inactive"}},{"type":"Feature","id":17,"geometry":{"type":"Point","coordinates":[-122.797386771488,53.9161038010109]},"properties":{"OBJECTID":17,"FacName":"Ecole Lac des Bois","FacAddress":"4131 Rainbow Dr, Prince George, BC","FacID":17,"FacClass":"Muster","BldgClass":"Education","Status":"Inactive"}},{"type":"Feature","id":18,"geometry":{"type":"Point","coordinates":[-122.777812804777,53.886636741868]},"properties":{"OBJECTID":18,"FacName":"John McInnis Jr. Secondary School","FacAddress":"3400 Westwood Dr, Prince George, BC","FacID":18,"FacClass":"Muster","BldgClass":"Education","Status":"Inactive"}},{"type":"Feature","id":19,"geometry":{"type":"Point","coordinates":[-122.802894720898,53.9050618963971]},"properties":{"OBJECTID":19,"FacName":"Kin Centre Lounge","FacAddress":"2181 Ospika Blvd, Prince George, BC","FacID":100,"FacClass":"Ops","BldgClass":"Civic","Status":"Inactive"}}]}
