{"type":"FeatureCollection","crs":{"type":"name","properties":{"name":"EPSG:4326"}},"features":[{"type":"Feature","id":1,"geometry":{"type":"Polygon","coordinates":[[[-122.717996679583,53.9765118091719],[-122.71747825263,53.976515525915],[-122.710959792155,53.9765616014606],[-122.705739683156,53.9765974590422],[-122.705734529806,53.9758141431111],[-122.705728791605,53.9750056592685],[-122.705707810567,53.9718166676121],[-122.705701002304,53.9708356110496],[-122.705691433824,53.9693808799802],[-122.709178735448,53.9693637546784],[-122.710601098784,53.9693564030358],[-122.711674349803,53.9693508938002],[-122.715057967905,53.9693337984582],[-122.716873664437,53.9693246172085],[-122.717443823554,53.9693223640335],[-122.717888211589,53.9693207027579],[-122.717931257784,53.9722019056175],[-122.717945152754,53.9730791662714],[-122.717996679583,53.9765118091719]]]},"properties":{"OBJECTID":1,"Hyperlink":"http://www.communityforest.princegeorge.ca/index.html","GlobalID":"01d901d4-dbe1-4a17-bdcf-32228f37eb6a","created_user":"opendatascripts_cityofpg","created_date":1777692029523,"last_edited_user":"opendatascripts_cityofpg","last_edited_date":1777692029523,"Shape__Area":642907.2053222656,"Shape__Length":3207.107529764565}},{"type":"Feature","id":2,"geometry":{"type":"Polygon","coordinates":[[[-122.635948173525,54.0032538822681],[-122.635156571977,54.0022677400889],[-122.635417291172,54.0022869654297],[-122.635615307392,54.0023235087193],[-122.636347603892,54.0023257352393],[-122.636576524962,54.0023174305825],[-122.636957835938,54.0023275707415],[-122.637445814709,54.0023560073877],[-122.63837644254,54.0023588105642],[-122.638465738014,54.0023536863739],[-122.63868172213,54.0023417525999],[-122.638894701562,54.0023244166306],[-122.639627761152,54.0023266254603],[-122.639963556324,54.0023091973326],[-122.640253482116,54.0023015267585],[-122.640360352835,54.0022928585691],[-122.640680809915,54.0022848289046],[-122.640879155412,54.0022854216148],[-122.641184433392,54.0022683662798],[-122.64124545806,54.0022685484172],[-122.64171870807,54.0022339989915],[-122.64208485573,54.0022350987117],[-122.642725460472,54.0022549713009],[-122.642969543854,54.0022556964903],[-122.643290169124,54.0022296844346],[-122.643610855517,54.0021946837374],[-122.6442066153,54.0020166891683],[-122.64446037174,54.001958119374],[-122.644465075426,54.0024803342019],[-122.644476740017,54.0038865360009],[-122.644492280681,54.0057331590996],[-122.644184827875,54.0057340560652],[-122.644156707484,54.0024124614181],[-122.639404779954,54.0027951197607],[-122.636593666303,54.0030643826488],[-122.636260217637,54.0031617924051],[-122.636132784508,54.0031993988887],[-122.635948173525,54.0032538822681]]]},"properties":{"OBJECTID":2,"Hyperlink":"http://www.communityforest.princegeorge.ca/index.html","GlobalID":"69a08896-49de-4c7f-92f5-9c9873d83a42","created_user":"opendatascripts_cityofpg","created_date":1777692029523,"last_edited_user":"opendatascripts_cityofpg","last_edited_date":1777692029523,"Shape__Area":39316.238525390625,"Shape__Length":2097.5406770188365}},{"type":"Feature","id":3,"geometry":{"type":"Polygon","coordinates":[[[-122.631858208199,54.0025151895017],[-122.63199495943,54.0026857594977],[-122.632357713059,54.0031382363395],[-122.632063241205,54.0032263252839],[-122.630768043905,54.0036443302284],[-122.630289349997,54.0038599184272],[-122.629875802164,54.0039548261165],[-122.629440669562,54.0040748141888],[-122.629177505503,54.0041580402012],[-122.629268103904,54.0040927074619],[-122.62963586727,54.0039136322848],[-122.629988666427,54.003699456841],[-122.630111452167,54.0036189519718],[-122.630234779964,54.0034755148781],[-122.630388460652,54.0033501559134],[-122.630741270411,54.0031355288873],[-122.631017794597,54.0029206666919],[-122.63115581724,54.0028401985318],[-122.631400871804,54.002733103526],[-122.63146237353,54.002679355279],[-122.631493029571,54.0026614823057],[-122.631768689394,54.0025454834079],[-122.631858208199,54.0025151895017]]]},"properties":{"OBJECTID":3,"Hyperlink":"http://www.communityforest.princegeorge.ca/index.html","GlobalID":"61224e9c-c90b-4485-810b-0dfd013a2c23","created_user":"opendatascripts_cityofpg","created_date":1777692029523,"last_edited_user":"opendatascripts_cityofpg","last_edited_date":1777692029523,"Shape__Area":9934.612060546875,"Shape__Length":570.7382510881675}},{"type":"Feature","id":4,"geometry":{"type":"MultiPolygon","coordinates":[[[[-122.681247540558,54.0127286421138],[-122.681206653525,54.0083950052002],[-122.681204171178,54.0081208572138],[-122.681202301013,54.0079662595423],[-122.681185932493,54.0062149141131],[-122.681179728936,54.00552731936],[-122.683167837691,54.0055258435877],[-122.686351453794,54.0055117131517],[-122.690028702818,54.0054951950389],[-122.693536531884,54.0054821592636],[-122.693631662373,54.0125788326266],[-122.691698742883,54.0126370946113],[-122.684979952981,54.0127384889347],[-122.681247540558,54.0127286421138]]],[[[-122.681179728936,54.00552731936],[-122.668822149995,54.0055721059888],[-122.668809280071,54.0051752522849],[-122.668749127243,54.0033334630481],[-122.668620701106,54.0000057657844],[-122.668597527817,53.9992758701986],[-122.668810547079,53.9992499517855],[-122.669145542868,53.9992324399773],[-122.669477954512,53.9992522381602],[-122.669830347551,53.9992532065941],[-122.670008289941,53.9992258325261],[-122.670217540624,53.9991940411222],[-122.670627372782,53.9990670862934],[-122.671006733594,53.9989386984793],[-122.671273790076,53.9988306747208],[-122.67179227363,53.9985646995435],[-122.672072401771,53.9984427783538],[-122.672371511988,53.998331702796],[-122.672599580447,53.9982338969913],[-122.672868332218,53.9981011663888],[-122.673128557421,53.9979895157421],[-122.673438557486,53.997948114887],[-122.67369647762,53.9984215822777],[-122.673991198061,53.9988717891629],[-122.67415056471,53.9990717450856],[-122.674382350289,53.9992795457375],[-122.674703638112,53.9994565796998],[-122.675217262772,53.999715024281],[-122.675528112537,53.9999580893366],[-122.675589526443,54.0000058912926],[-122.678030438564,54.0000061623809],[-122.677883689351,53.9998466823122],[-122.677774004354,53.9997277472467],[-122.677614394311,53.9995547504207],[-122.677394576049,53.9991780234423],[-122.677642402699,53.9989881344982],[-122.678145941267,53.9989755524489],[-122.678283375058,53.9989579444275],[-122.678971368619,53.9987624980118],[-122.679170235757,53.9986911252521],[-122.679369036605,53.9986282905514],[-122.680026375616,53.9984502828569],[-122.680080743822,53.9984225738697],[-122.680938841441,53.9984230480091],[-122.680943458934,53.9986172002603],[-122.680974792938,54.0000059234832],[-122.681103778745,54.0034891083932],[-122.681179728936,54.00552731936]]]]},"properties":{"OBJECTID":4,"Hyperlink":"http://www.communityforest.princegeorge.ca/index.html","GlobalID":"8fdb83c7-7988-4b1c-840f-3c2f65ec8637","created_user":"opendatascripts_cityofpg","created_date":1777692029523,"last_edited_user":"opendatascripts_cityofpg","last_edited_date":1777692029523,"Shape__Area":1234689.3256835938,"Shape__Length":6669.883127848776}},{"type":"Feature","id":5,"geometry":{"type":"Polygon","coordinates":[[[-122.804386604064,53.8912424386803],[-122.804464555194,53.8912425656617],[-122.805122237311,53.8948601655697],[-122.807664808366,53.8948642745295],[-122.807553000325,53.8966110564912],[-122.808589443085,53.8969191980929],[-122.811786766633,53.901368303076],[-122.812609178146,53.9031472067844],[-122.809858484057,53.9031428825064],[-122.809237781309,53.9026821667565],[-122.808310057361,53.9012708549452],[-122.807635686233,53.9012084777335],[-122.805623350777,53.898692060836],[-122.805580134182,53.8968224237726],[-122.804075564291,53.8967586882641],[-122.803928493569,53.8949195208345],[-122.80097079318,53.8949146632902],[-122.800936380801,53.891236767614],[-122.804142251694,53.8912420403054],[-122.804386604064,53.8912424386803]]]},"properties":{"OBJECTID":5,"Hyperlink":"http://www.communityforest.princegeorge.ca/index.html","GlobalID":"6e7ebcde-0191-4ea3-a094-ff76f6179dd7","created_user":"opendatascripts_cityofpg","created_date":1777692029523,"last_edited_user":"opendatascripts_cityofpg","last_edited_date":1777692029523,"Shape__Area":325459.44970703125,"Shape__Length":3702.114701822963}},{"type":"Feature","id":6,"geometry":{"type":"Polygon","coordinates":[[[-122.764574512632,53.9817464525602],[-122.762361873312,53.9817479400293],[-122.752450031992,53.9817454680197],[-122.752420321291,53.9889389159734],[-122.743113798447,53.9889369120203],[-122.740115311532,53.9889367575406],[-122.74008909334,53.9817598173307],[-122.740150933373,53.975005934594],[-122.740149408593,53.9745183241792],[-122.740018139501,53.967314615866],[-122.742188857486,53.9673156975948],[-122.750016625684,53.9672980828911],[-122.751521203998,53.9672944625671],[-122.752259772554,53.9672928417532],[-122.752269261889,53.9703195670566],[-122.752271841597,53.9709127795563],[-122.752285018196,53.9722897751803],[-122.752306852993,53.9745206286802],[-122.764558177842,53.9745021136628],[-122.764574512632,53.9817464525602]]]},"properties":{"OBJECTID":6,"Hyperlink":"http://www.communityforest.princegeorge.ca/index.html","GlobalID":"a8afb6fa-3be9-4c13-9048-fc3eb29bbc1d","created_user":"opendatascripts_cityofpg","created_date":1777692029523,"last_edited_user":"opendatascripts_cityofpg","last_edited_date":1777692029523,"Shape__Area":2578773.4091796875,"Shape__Length":8024.82278367607}},{"type":"Feature","id":7,"geometry":{"type":"Polygon","coordinates":[[[-122.677800936318,53.9144017941916],[-122.677410481727,53.914495570322],[-122.676998391035,53.9146288345866],[-122.676601379599,53.914780572618],[-122.676311356481,53.9148782108281],[-122.675929978804,53.9149764916692],[-122.67568583141,53.9150477462822],[-122.67544161363,53.9151279703221],[-122.674509917273,53.9155119365404],[-122.674265329494,53.9156371066183],[-122.673960003115,53.9158430041108],[-122.673714044646,53.915950193165],[-122.673440199594,53.9160213535338],[-122.673012501852,53.9161999515282],[-122.672692135948,53.9163788405757],[-122.67237031517,53.9165487367096],[-122.672064392394,53.9167276634809],[-122.671743342866,53.9168975600375],[-122.671422966199,53.9170764456627],[-122.670352197271,53.9176128054886],[-122.670092091296,53.9177738678171],[-122.66957173127,53.9181139845205],[-122.66883763483,53.9185254144629],[-122.668347350696,53.9189105492021],[-122.668148330914,53.9190448207153],[-122.667949482937,53.9191611162017],[-122.667735107244,53.9193133207402],[-122.667596844799,53.9194657355842],[-122.667443389307,53.9196176587926],[-122.667197052573,53.9199589730374],[-122.667058729674,53.9201203841555],[-122.666905251016,53.9202727560053],[-122.666690150002,53.9205148285004],[-122.666368461099,53.9207566135397],[-122.665877984522,53.921159713749],[-122.665709558276,53.9212760901378],[-122.665643896833,53.9212992853577],[-122.665640053455,53.9202557491641],[-122.665639485956,53.9201362060607],[-122.665638691903,53.9196638799878],[-122.66563814588,53.9195416494948],[-122.665619094669,53.9137316862067],[-122.665619862943,53.9136355157374],[-122.665618462517,53.9135249582768],[-122.665617611274,53.9132503696136],[-122.665617391216,53.9130854374572],[-122.665616056018,53.9127780498655],[-122.66561621377,53.9125677288637],[-122.665615901411,53.9125115434061],[-122.665584756172,53.9091687828351],[-122.665544953589,53.9018491714679],[-122.67678337375,53.9018799494288],[-122.676839791895,53.9048246679487],[-122.677789578576,53.9048272293208],[-122.677891282852,53.9090932189592],[-122.677865594138,53.910750105646],[-122.677861066223,53.9110417661729],[-122.677858202093,53.9112161275273],[-122.677857534629,53.9113028608489],[-122.677855981574,53.9114057613754],[-122.677839142205,53.9125058588439],[-122.677824394323,53.9132352029541],[-122.677800936318,53.9144017941916]]]},"properties":{"OBJECTID":7,"Hyperlink":"http://www.communityforest.princegeorge.ca/index.html","GlobalID":"2b3e6c49-d9a6-46e7-9527-c31e2dd1c62e","created_user":"opendatascripts_cityofpg","created_date":1777692029523,"last_edited_user":"opendatascripts_cityofpg","last_edited_date":1777692029523,"Shape__Area":1348841.9951171875,"Shape__Length":5486.573380746355}},{"type":"Feature","id":8,"geometry":{"type":"Polygon","coordinates":[[[-122.616630588309,53.9128846648391],[-122.610519784031,53.9128739892068],[-122.604350363012,53.9128623600937],[-122.604301295554,53.9055732827838],[-122.616584682578,53.90559695413],[-122.616630588309,53.9128846648391]]]},"properties":{"OBJECTID":8,"Hyperlink":"http://www.communityforest.princegeorge.ca/index.html","GlobalID":"9ae1962e-c2d9-4725-bb14-856e9611a495","created_user":"opendatascripts_cityofpg","created_date":1777692029523,"last_edited_user":"opendatascripts_cityofpg","last_edited_date":1777692029523,"Shape__Area":654260.7897949219,"Shape__Length":3235.4761567733303}},{"type":"Feature","id":9,"geometry":{"type":"Polygon","coordinates":[[[-122.718069293058,53.8847344885714],[-122.71441260813,53.8847474168449],[-122.714422769401,53.8866048367776],[-122.71451657277,53.8938270117621],[-122.694988849866,53.8937915740537],[-122.690012947956,53.8937819757611],[-122.689909572981,53.8802006477083],[-122.705912062539,53.8801793491969],[-122.718096143687,53.8801802673409],[-122.718069293058,53.8847344885714]]]},"properties":{"OBJECTID":9,"Hyperlink":"http://www.communityforest.princegeorge.ca/index.html","GlobalID":"d456a781-bd1e-4496-ab1c-bab46e6437cb","created_user":"opendatascripts_cityofpg","created_date":1777692029523,"last_edited_user":"opendatascripts_cityofpg","last_edited_date":1777692029523,"Shape__Area":2560529.792236328,"Shape__Length":6731.562333889022}},{"type":"Feature","id":10,"geometry":{"type":"Polygon","coordinates":[[[-122.825637549024,54.0323105353198],[-122.813384700019,54.032297986899],[-122.813329132896,54.0251008484297],[-122.825599769225,54.0251066889078],[-122.825637549024,54.0323105353198]]]},"properties":{"OBJECTID":10,"Hyperlink":"http://www.communityforest.princegeorge.ca/index.html","GlobalID":"7e324d27-5665-4f72-921b-670a2be5ac22","created_user":"opendatascripts_cityofpg","created_date":1777692029523,"last_edited_user":"opendatascripts_cityofpg","last_edited_date":1777692029523,"Shape__Area":643468.8276367188,"Shape__Length":3208.6844817320157}},{"type":"Feature","id":11,"geometry":{"type":"Polygon","coordinates":[[[-122.776632515998,54.0178227964864],[-122.770497012016,54.0178413508917],[-122.76436073794,54.0178600311024],[-122.75208847087,54.0178443496355],[-122.752084955586,54.0106086066873],[-122.752385565258,54.0106092262114],[-122.760590622738,54.0106105752071],[-122.761091120447,54.0106106720599],[-122.761590885714,54.0106107653765],[-122.764365833351,54.0106112929127],[-122.7646664459,54.0106114233503],[-122.770506275462,54.0106119274091],[-122.776647483906,54.0106118182807],[-122.776636192039,54.0162818166445],[-122.776635977796,54.016464270901],[-122.776635002875,54.0166462743431],[-122.776632515998,54.0178227964864]]]},"properties":{"OBJECTID":11,"Hyperlink":"http://www.communityforest.princegeorge.ca/index.html","GlobalID":"63c6cefe-ec0d-44b3-abdf-1c19b50c1896","created_user":"opendatascripts_cityofpg","created_date":1777692029523,"last_edited_user":"opendatascripts_cityofpg","last_edited_date":1777692029523,"Shape__Area":1295293.3518066406,"Shape__Length":4825.196126072851}},{"type":"Feature","id":12,"geometry":{"type":"Polygon","coordinates":[[[-122.739771119109,54.0322713183589],[-122.727599267065,54.032302702536],[-122.727599431089,54.0309602160284],[-122.727599950998,54.0250875997905],[-122.727599954443,54.0250707205011],[-122.73998419865,54.0250365173104],[-122.739771119109,54.0322713183589]]]},"properties":{"OBJECTID":12,"Hyperlink":"http://www.communityforest.princegeorge.ca/index.html","GlobalID":"1ac48cc1-06b7-4a39-992f-df7fd8c15b32","created_user":"opendatascripts_cityofpg","created_date":1777692029523,"last_edited_user":"opendatascripts_cityofpg","last_edited_date":1777692029523,"Shape__Area":647248.2485351562,"Shape__Length":3218.27432958571}},{"type":"Feature","id":13,"geometry":{"type":"Polygon","coordinates":[[[-122.739968579532,53.9997615326772],[-122.734002846074,53.9997664554875],[-122.734003592082,54.0000059949295],[-122.734011828811,54.003382775056],[-122.727879326707,54.0033798350336],[-122.727877436321,54.0051900023489],[-122.718307004006,54.00520390913],[-122.717877494211,54.0052051578862],[-122.71787408343,54.0027788450988],[-122.717830284715,54.000005968999],[-122.717835970712,53.999616345663],[-122.717861451183,53.9979913835784],[-122.721897174683,53.9979877557606],[-122.727887829276,53.9979826006241],[-122.72786078203,53.9961651662668],[-122.740016821783,53.9961812874891],[-122.739968579532,53.9997615326772]]]},"properties":{"OBJECTID":13,"Hyperlink":"http://www.communityforest.princegeorge.ca/index.html","GlobalID":"7327d23b-1580-4f6c-8fab-1f949f32d89d","created_user":"opendatascripts_cityofpg","created_date":1777692029523,"last_edited_user":"opendatascripts_cityofpg","last_edited_date":1777692029523,"Shape__Area":1005896.7434082031,"Shape__Length":4909.543828800686}},{"type":"Feature","id":14,"geometry":{"type":"Polygon","coordinates":[[[-122.764647564337,54.0034107149336],[-122.752403989985,54.0033924124116],[-122.75236763898,54.0000061218188],[-122.752602578959,54.0000057067809],[-122.753725381595,54.0000057653765],[-122.755895517962,54.0000057068624],[-122.75592679179,54.0000057613779],[-122.759167096989,54.0000060143546],[-122.760003109052,54.0000058798016],[-122.762517244805,54.0000059296686],[-122.764637783483,54.0000060557414],[-122.764647564337,54.0034107149336]]]},"properties":{"OBJECTID":14,"Hyperlink":"http://www.communityforest.princegeorge.ca/index.html","GlobalID":"29b4cb0a-0f52-4824-a259-42852ac7b6d2","created_user":"opendatascripts_cityofpg","created_date":1777692029523,"last_edited_user":"opendatascripts_cityofpg","last_edited_date":1777692029523,"Shape__Area":303538.3679199219,"Shape__Length":2362.3800280898568}},{"type":"Feature","id":15,"geometry":{"type":"Polygon","coordinates":[[[-122.717922751097,53.9944520700518],[-122.705596930422,53.9945735193416],[-122.705659806273,53.9909573566291],[-122.717464200446,53.9908710877092],[-122.717984349257,53.9908669164926],[-122.717922751097,53.9944520700518]]]},"properties":{"OBJECTID":15,"Hyperlink":"http://www.communityforest.princegeorge.ca/index.html","GlobalID":"c9c62934-c0a5-4298-ba89-819cd6ab6696","created_user":"opendatascripts_cityofpg","created_date":1777692029523,"last_edited_user":"opendatascripts_cityofpg","last_edited_date":1777692029523,"Shape__Area":323653.6931152344,"Shape__Length":2417.5509374835237}},{"type":"Feature","id":16,"geometry":{"type":"Polygon","coordinates":[[[-122.848713561172,53.8232261379076],[-122.844899030531,53.8232203680617],[-122.843597123358,53.8232182373865],[-122.839562320884,53.8232120014893],[-122.838637865282,53.8232318838647],[-122.836447265541,53.8232329620754],[-122.836390559416,53.8159515436255],[-122.838400030947,53.8159511216386],[-122.842338474188,53.8159500709046],[-122.848129639028,53.8159489498082],[-122.8483919335,53.8159488861154],[-122.848391603215,53.8160446100731],[-122.848716653426,53.8160458923043],[-122.848716227523,53.8167883443457],[-122.848715652393,53.8175806536622],[-122.848713561172,53.8232261379076]]]},"properties":{"OBJECTID":16,"Hyperlink":"http://www.communityforest.princegeorge.ca/index.html","GlobalID":"2da50848-8150-4271-97f9-eae2f0acb739","created_user":"opendatascripts_cityofpg","created_date":1777692029523,"last_edited_user":"opendatascripts_cityofpg","last_edited_date":1777692029523,"Shape__Area":654656.6557617188,"Shape__Length":3238.672763174348}},{"type":"Feature","id":17,"geometry":{"type":"Polygon","coordinates":[[[-122.74826095034,53.9564796137143],[-122.742136791153,53.9564850514312],[-122.741256566528,53.9564857835515],[-122.741201508447,53.952911877858],[-122.742124592896,53.9529073374198],[-122.746234537807,53.9528868776878],[-122.748239983142,53.9528767160257],[-122.748247857397,53.9542258334399],[-122.748253205459,53.955108916865],[-122.748254386879,53.9552922747772],[-122.748258859474,53.9561942310312],[-122.74826095034,53.9564796137143]]]},"properties":{"OBJECTID":17,"Hyperlink":"http://www.communityforest.princegeorge.ca/index.html","GlobalID":"71021229-de5d-4fcc-94a6-4d2db60cfb52","created_user":"opendatascripts_cityofpg","created_date":1777692029523,"last_edited_user":"opendatascripts_cityofpg","last_edited_date":1777692029523,"Shape__Area":183957.24560546875,"Shape__Length":1720.0326903966452}},{"type":"Feature","id":18,"geometry":{"type":"Polygon","coordinates":[[[-122.72953439992,53.9550263701312],[-122.723889934238,53.9550252873386],[-122.718360372589,53.95502413687],[-122.71746202261,53.9550233848322],[-122.707653312576,53.9550142898162],[-122.706847936577,53.9550136756212],[-122.706836876075,53.9549610776962],[-122.706815523597,53.9548549579507],[-122.706815712748,53.9548279943474],[-122.706755324542,53.9547469547745],[-122.706558165179,53.9546116620543],[-122.706360944072,53.9544853389014],[-122.706224173769,53.9544310764169],[-122.705651670483,53.9542539683223],[-122.705726179297,53.9460521160503],[-122.705750078566,53.9434119476896],[-122.705760424523,53.9422686853667],[-122.7057732178,53.9407753535426],[-122.708635831801,53.940756714964],[-122.717766019944,53.9406962725785],[-122.718344940933,53.9406922475126],[-122.723851529214,53.9406555891973],[-122.727034040531,53.9406345507538],[-122.729857806146,53.9406153181893],[-122.741942691326,53.9405335902593],[-122.741945250846,53.9408594030292],[-122.741945084388,53.9408863757631],[-122.741949598657,53.9420062944497],[-122.741957507458,53.9436870643437],[-122.741959223995,53.9441495021694],[-122.729873694313,53.944169222907],[-122.729888915967,53.9474728164447],[-122.729900011706,53.9500002651283],[-122.729901543378,53.9502348559789],[-122.729913170599,53.9529160177917],[-122.729913604425,53.9529667920864],[-122.729929248953,53.9550264314485],[-122.72953439992,53.9550263701312]]]},"properties":{"OBJECTID":18,"Hyperlink":"http://www.communityforest.princegeorge.ca/index.html","GlobalID":"ff3d2f96-6f30-44be-b387-cc44b2fc8449","created_user":"opendatascripts_cityofpg","created_date":1777692029523,"last_edited_user":"opendatascripts_cityofpg","last_edited_date":1777692029523,"Shape__Area":2841391.682861328,"Shape__Length":7915.066110463297}},{"type":"Feature","id":19,"geometry":{"type":"Polygon","coordinates":[[[-122.840873538732,53.9455494588831],[-122.836849000527,53.9455512510274],[-122.831651282815,53.9455589188337],[-122.829733086557,53.9455615992664],[-122.828543925618,53.9455635031625],[-122.828533001054,53.9428405777529],[-122.828518812375,53.9392421952499],[-122.826523202392,53.9392478684977],[-122.826224606973,53.939248794103],[-122.825322790249,53.9392510723433],[-122.825400913189,53.937505711834],[-122.825596660157,53.9331211868927],[-122.825017093502,53.9331217011803],[-122.822532885391,53.9331229909666],[-122.822456828099,53.9250219603433],[-122.825016691043,53.9250293123588],[-122.826521977666,53.9250333026062],[-122.828739251348,53.9250292853205],[-122.831497864678,53.9250241991784],[-122.837564881152,53.925012784024],[-122.84081384657,53.9250067978781],[-122.840822827203,53.9266529782619],[-122.840832475552,53.9287202305764],[-122.837550459887,53.9287230358825],[-122.834504534615,53.9287256096632],[-122.831502759583,53.9287281861221],[-122.831504216981,53.9295007008863],[-122.831510179446,53.9329359444476],[-122.831511402052,53.9330105468145],[-122.831510976638,53.9331161555728],[-122.831664051667,53.9331159207953],[-122.831686734216,53.9375056958867],[-122.831695503961,53.9393046697961],[-122.837827288393,53.9394240975087],[-122.837824071658,53.9412315926562],[-122.84088593647,53.9412909545816],[-122.840882928448,53.9430822710149],[-122.840873538732,53.9455494588831]]]},"properties":{"OBJECTID":19,"Hyperlink":"http://www.communityforest.princegeorge.ca/index.html","GlobalID":"2ba25b1a-8862-4c2d-842f-5696fc0a82e2","created_user":"opendatascripts_cityofpg","created_date":1777692029523,"last_edited_user":"opendatascripts_cityofpg","last_edited_date":1777692029523,"Shape__Area":1582286.9606933594,"Shape__Length":8203.870009647282}},{"type":"Feature","id":20,"geometry":{"type":"Polygon","coordinates":[[[-122.819831432574,53.9141868096779],[-122.819842817767,53.9132500820502],[-122.819339975203,53.9132343525223],[-122.819347148203,53.9105775635504],[-122.828310286546,53.9105694022443],[-122.828380059868,53.9141696701348],[-122.819831432574,53.9141868096779]]]},"properties":{"OBJECTID":20,"Hyperlink":"http://www.communityforest.princegeorge.ca/index.html","GlobalID":"33ee9c31-1fbd-44a6-a8ef-b5adcd52cdc4","created_user":"opendatascripts_cityofpg","created_date":1777692029523,"last_edited_user":"opendatascripts_cityofpg","last_edited_date":1777692029523,"Shape__Area":233770.06323242188,"Shape__Length":1983.7831986008432}},{"type":"Feature","id":21,"geometry":{"type":"Polygon","coordinates":[[[-122.850173541759,54.0034047902133],[-122.813348922305,54.0034311160401],[-122.8134622618,53.9866968088874],[-122.813009007333,53.9861351934005],[-122.811598160952,53.9847561613194],[-122.808975244935,53.983361215632],[-122.807228376167,53.982409720384],[-122.807222876751,53.9817182587964],[-122.813837342621,53.9817065492803],[-122.822236657508,53.9838492502897],[-122.829811842884,53.9837654288726],[-122.831171090286,53.9826922247686],[-122.834667364067,53.9850069533914],[-122.837577672832,53.9849728217338],[-122.839777975225,53.9835718210525],[-122.845744312811,53.9834347680248],[-122.847720502713,53.9817388795539],[-122.846532590231,53.9808100272023],[-122.844756740663,53.9804676780451],[-122.844345775566,53.9793107018712],[-122.845335030837,53.9776874682162],[-122.846374931261,53.9766829502493],[-122.846220149002,53.9751450105531],[-122.845423984345,53.9744952107894],[-122.835692486914,53.9693071423083],[-122.831688183731,53.967169292598],[-122.841967804085,53.9671788025336],[-122.842583706532,53.9677741656357],[-122.843082199328,53.9689828015453],[-122.84413709474,53.9689859720485],[-122.844121984083,53.9707925350406],[-122.850251189933,53.9707994305757],[-122.850173541759,54.0034047902133]]]},"properties":{"OBJECTID":21,"Hyperlink":"http://www.communityforest.princegeorge.ca/index.html","GlobalID":"5f76a7b8-3502-4376-b235-934bec24ea27","created_user":"opendatascripts_cityofpg","created_date":1777692029523,"last_edited_user":"opendatascripts_cityofpg","last_edited_date":1777692029523,"Shape__Area":6169968.774658203,"Shape__Length":15408.922660430735}},{"type":"Feature","id":22,"geometry":{"type":"Polygon","coordinates":[[[-122.852810044769,53.8960332009069],[-122.828511502006,53.8961169005261],[-122.828451126858,53.8881929121824],[-122.85279554687,53.8881077198512],[-122.852810044769,53.8960332009069]]]},"properties":{"OBJECTID":22,"Hyperlink":"http://www.communityforest.princegeorge.ca/index.html","GlobalID":"68c9a0e9-0f73-4edf-8e8b-61839a2f643d","created_user":"opendatascripts_cityofpg","created_date":1777692029523,"last_edited_user":"opendatascripts_cityofpg","last_edited_date":1777692029523,"Shape__Area":1409309.5922851562,"Shape__Length":4960.22201893193}},{"type":"Feature","id":23,"geometry":{"type":"Polygon","coordinates":[[[-122.877839866235,53.8938868526521],[-122.877687135164,53.8832806862016],[-122.854851385137,53.883205363722],[-122.854955947884,53.8737675169493],[-122.860843497509,53.8738021791467],[-122.860915811976,53.8521464645615],[-122.848731955286,53.8521371271207],[-122.848702302984,53.8447120644954],[-122.860912919439,53.8449164982249],[-122.860719360231,53.8410048592517],[-122.861382430387,53.8419602959654],[-122.863486216406,53.8415122930067],[-122.864964014598,53.8414958360643],[-122.866297789172,53.8424832232723],[-122.866336728591,53.8424828172462],[-122.867852911623,53.8423532963825],[-122.867964555833,53.8417405524229],[-122.869075863314,53.8419419724666],[-122.87044807095,53.8415830814564],[-122.870586289697,53.8412748826769],[-122.870318903897,53.8407270080806],[-122.870801649414,53.840547352097],[-122.871420081202,53.8399240579774],[-122.871252458862,53.839451765836],[-122.87012725635,53.8392649296063],[-122.869716241283,53.8391743956337],[-122.870341432953,53.8384866960736],[-122.86175921436,53.8382162695385],[-122.860909487162,53.8386469892863],[-122.860910161826,53.8380306623276],[-122.881517252049,53.8380502550118],[-122.88152173135,53.8449640346061],[-122.873137917098,53.8449325261808],[-122.873044542191,53.8498929177435],[-122.872302005164,53.8502617945262],[-122.872587255063,53.8492856070762],[-122.871795261439,53.8480276176596],[-122.871698544349,53.8484542448285],[-122.870964799851,53.8484398949642],[-122.870708780539,53.8485426685675],[-122.870291147645,53.8487142601027],[-122.869923139439,53.8489110168799],[-122.869571623347,53.8489650765729],[-122.868183905034,53.8496481428289],[-122.867913831103,53.8496478458636],[-122.867374692852,53.8493278662487],[-122.867051457741,53.8490560304329],[-122.866646344982,53.8490555809291],[-122.866375018583,53.8494545148423],[-122.86623936372,53.8496459911026],[-122.865699471536,53.8495655373594],[-122.865376757855,53.8491340051228],[-122.864620466262,53.8491650981921],[-122.863999652138,53.8490526105651],[-122.863810083226,53.849212088078],[-122.863269160467,53.8494510072237],[-122.862781352384,53.8499614717887],[-122.862780584132,53.8502010141267],[-122.862455696812,53.8504401764096],[-122.862671347884,53.85056818096],[-122.862670809961,53.8507278728111],[-122.862400220589,53.850887255314],[-122.86245245074,53.8514302803186],[-122.863072967953,53.8516385892164],[-122.863126056614,53.8519260907702],[-122.864015690936,53.8524381053268],[-122.86468886778,53.8530776628337],[-122.864741336229,53.853556799155],[-122.865010407545,53.8538764868787],[-122.865686025906,53.8537654503871],[-122.866307153514,53.853798096807],[-122.866360165284,53.8541175405935],[-122.866630014129,53.8541976824785],[-122.866981146781,53.8541980721914],[-122.867227991378,53.8538136978883],[-122.867712038492,53.8536878681103],[-122.868116829362,53.8538000991994],[-122.868116442939,53.8539278472777],[-122.868655395894,53.8543276737503],[-122.869734637222,53.8547121135176],[-122.870760015013,53.8550485787494],[-122.871218941115,53.8551288957904],[-122.871624014782,53.8551612916211],[-122.872109341544,53.855449250589],[-122.872306523005,53.8559392693357],[-122.871403285469,53.8566781187495],[-122.871132773678,53.8568056039835],[-122.869050838576,53.857442101521],[-122.868699328721,53.8575535299183],[-122.868104040627,53.8578722616991],[-122.867563368295,53.8579994146943],[-122.866941316231,53.8582382605334],[-122.8662916285,53.8586687174345],[-122.866615288162,53.8588287698295],[-122.866830133074,53.8592282345072],[-122.867639531941,53.8595485233259],[-122.867692898467,53.8597561901395],[-122.867420740205,53.8603946586203],[-122.867014773589,53.8606337432711],[-122.867013912718,53.8609052289223],[-122.867418216033,53.8611931167603],[-122.868038701283,53.8614652871714],[-122.868497622566,53.8615775673074],[-122.869118917948,53.8615942183549],[-122.869711919435,53.8620260422649],[-122.870116647764,53.8621861640967],[-122.87019907663,53.8617391116593],[-122.870740364678,53.861420311528],[-122.871281889577,53.861021658617],[-122.871741156528,53.8610221592864],[-122.872552083506,53.8608633219962],[-122.87299112711,53.8605622445098],[-122.872852686424,53.872201837289],[-122.871728882804,53.8720984377389],[-122.871726928228,53.8727372121035],[-122.871940848922,53.8734784117683],[-122.872134629665,53.8737341324716],[-122.872047695099,53.8738873411136],[-122.872413650882,53.8743987408737],[-122.872520076593,53.8749482074158],[-122.872842533379,53.875548991278],[-122.873231301799,53.8756771325299],[-122.873771207983,53.8758693549932],[-122.87474390381,53.8759342434308],[-122.875609245129,53.8757435167442],[-122.877922153069,53.8758736482511],[-122.878245986561,53.8760400594573],[-122.87911006141,53.8762836656758],[-122.879111314194,53.8758492985327],[-122.878571679772,53.8755549145398],[-122.878724300475,53.8751079372536],[-122.879328529183,53.8754917992676],[-122.879933698986,53.8755562936018],[-122.880365461616,53.8757739044117],[-122.880951076222,53.8751101573691],[-122.881383454108,53.8751105943979],[-122.881556170845,53.8752001876671],[-122.881989145928,53.8749834343781],[-122.882032690997,53.8748812733624],[-122.882508093834,53.874958390245],[-122.882572504827,53.8751117634907],[-122.882463418708,53.8754693655718],[-122.882311718065,53.8755969739419],[-122.883110237866,53.876095992091],[-122.883759161713,53.8759816463396],[-122.884796191182,53.8762381510781],[-122.884989833005,53.8765832554542],[-122.885162093223,53.8768389433168],[-122.885701840558,53.8771205166085],[-122.887064308877,53.8769685050092],[-122.887388446539,53.8770326880116],[-122.888081762122,53.8764839922295],[-122.887866241978,53.8762282861215],[-122.887435910965,53.8754613593774],[-122.887609433779,53.8752443422574],[-122.887653361124,53.8749888693629],[-122.887004719513,53.8750138137228],[-122.886183851669,53.8747703052655],[-122.885751337923,53.874820991799],[-122.885319137698,53.8747567011509],[-122.885319731877,53.8745395219733],[-122.88510430861,53.8742582577004],[-122.884239413922,53.874308533132],[-122.884200383572,53.8738742438066],[-122.889991384297,53.8738410059422],[-122.889708707182,53.901672138609],[-122.887840200812,53.9016955294367],[-122.886125724671,53.9012235339825],[-122.886365019932,53.9008825555009],[-122.886749309449,53.9007261755824],[-122.886832881836,53.9003873950521],[-122.879966208011,53.9008064469479],[-122.876927824699,53.9003283244278],[-122.874704989388,53.8994410236569],[-122.873044434152,53.8983903438663],[-122.870983654714,53.8959241101824],[-122.868472160026,53.8941143850536],[-122.865348884276,53.8930649883994],[-122.863047545158,53.8919523475844],[-122.861768975306,53.8905434643735],[-122.860350437277,53.8867237525695],[-122.860147003616,53.8864327058938],[-122.865368097489,53.8864381712575],[-122.865375002406,53.8838866467208],[-122.866292783895,53.884909817033],[-122.867679498271,53.8865720931443],[-122.8700449423,53.8884417018652],[-122.871048497259,53.8891126484995],[-122.872863148266,53.8897877829034],[-122.876140547234,53.8915946777987],[-122.877778800075,53.8941216850746],[-122.877839866235,53.8938868526521]],[[-122.86721079107,53.8705124784909],[-122.86730232015,53.87049667973],[-122.867691241499,53.8705609876322],[-122.868058522378,53.8706252704871],[-122.868230719997,53.8708554206839],[-122.868381844649,53.8709194650554],[-122.868770876341,53.8709454442335],[-122.868921482888,53.871175560829],[-122.869029156664,53.8713034264937],[-122.869310302977,53.8712654075958],[-122.86935385985,53.8711632511158],[-122.869570696438,53.8709463070169],[-122.869788180868,53.8705249554102],[-122.869853505576,53.8703717248886],[-122.86978937124,53.8701416942821],[-122.869681881502,53.8699499419141],[-122.869746808779,53.8699244681506],[-122.870115012788,53.8696949060847],[-122.870374797852,53.8695674387572],[-122.870331971574,53.8694396353467],[-122.87022513819,53.8690307041692],[-122.870161478601,53.8686473728099],[-122.86968686036,53.8683530187553],[-122.869147453101,53.8680330479445],[-122.868715948424,53.867777071356],[-122.868284112738,53.8676232967995],[-122.868067874487,53.8676486125444],[-122.867851812287,53.8676228126317],[-122.867463054265,53.8675201890105],[-122.867031038482,53.8674302793498],[-122.866663787163,53.8673659933342],[-122.866708321109,53.8669572359094],[-122.866449258326,53.8668547439603],[-122.86612535385,53.8667521791437],[-122.865801343533,53.8666879297125],[-122.865585477197,53.8665982652971],[-122.865477826015,53.866470387468],[-122.865370268103,53.8663041932611],[-122.865220001208,53.8659846315337],[-122.865263998892,53.8657419475716],[-122.865329717151,53.86547373471],[-122.865373344458,53.8653460443812],[-122.865309134473,53.8651543274761],[-122.8649419728,53.8650644919957],[-122.864769472157,53.8649365405049],[-122.864726858508,53.8647448655804],[-122.864619214695,53.8646169869459],[-122.864511680164,53.8644507829519],[-122.86433925079,53.8642972866439],[-122.864232767453,53.8638116993643],[-122.864082104012,53.8636199018991],[-122.863909679681,53.8634663869794],[-122.863693849144,53.8633767281313],[-122.863477713259,53.8633764734862],[-122.863261369026,53.863440114838],[-122.863044955946,53.8635292910007],[-122.862742164613,53.8635928237526],[-122.862504629421,53.8635286732233],[-122.862137194014,53.8635282517298],[-122.862028915532,53.863591996965],[-122.861812372726,53.8637195051334],[-122.861595897707,53.8638214687201],[-122.861698742115,53.8654057360893],[-122.861909992815,53.866887932725],[-122.862234349771,53.8668499711032],[-122.862666741055,53.8668249223696],[-122.862666238908,53.8669782322574],[-122.862838825138,53.8670806245949],[-122.863054756297,53.8671447497663],[-122.863270495017,53.8672727529351],[-122.863486136677,53.8674262998535],[-122.863744988148,53.8675926765527],[-122.863917620994,53.8676822952538],[-122.864241842958,53.8676826624078],[-122.864458331445,53.8675807120991],[-122.864717888496,53.8675298984499],[-122.864998684313,53.8675940932079],[-122.865192503605,53.8678114911002],[-122.865148133515,53.8681691506136],[-122.865147229502,53.8684502172058],[-122.865081643944,53.868680095642],[-122.864864863009,53.8688714875379],[-122.86460477672,53.8690883744392],[-122.864431832261,53.8690881792293],[-122.864129225086,53.8690878370639],[-122.863783034536,53.8691896486212],[-122.863631092086,53.8693811028544],[-122.86352238483,53.8695726150455],[-122.863306023943,53.8696362384335],[-122.863197439596,53.8697894251137],[-122.863024173544,53.8698914314386],[-122.862915587535,53.8700446088681],[-122.862591347323,53.8700442381207],[-122.862440234683,53.8699801864568],[-122.86222393879,53.870018263726],[-122.862223308985,53.87020990772],[-122.862222679232,53.8704015337318],[-122.862438138732,53.8706189608079],[-122.862977095193,53.8710667182582],[-122.863364750822,53.8715143011149],[-122.863515439288,53.871706099242],[-122.863839292623,53.871834224162],[-122.864163463898,53.871860144673],[-122.864487733385,53.8718605111993],[-122.864812399657,53.871733120184],[-122.864985848784,53.8715800050718],[-122.865202751188,53.8713502968231],[-122.865419733273,53.8710950260532],[-122.865852779639,53.870878339868],[-122.866201442865,53.8707384154945],[-122.86721079107,53.8705124784909]],[[-122.858126932487,53.8495876889502],[-122.858355355528,53.8496240012774],[-122.858507728972,53.8496241720461],[-122.858584280072,53.8495161527842],[-122.858630550576,53.8493540340648],[-122.858707176712,53.8492189784445],[-122.858814355498,53.8490659464636],[-122.858936476819,53.84900302021],[-122.859043124472,53.8490031455283],[-122.859164806689,53.8490663492801],[-122.859240599418,53.8491835718172],[-122.859621016533,53.8493371755577],[-122.859727529629,53.8493823487307],[-122.859955862729,53.8494456852818],[-122.860184421896,53.8494459517956],[-122.860534876251,53.8494463596011],[-122.86083962182,53.8494467133857],[-122.861053158671,53.8493838909583],[-122.860946867818,53.849266643225],[-122.860673259246,53.849068110134],[-122.860262618779,53.8488423895438],[-122.859958479017,53.8486618494855],[-122.859959381165,53.8483915587765],[-122.860036933268,53.8479862205774],[-122.860083691986,53.8476709436686],[-122.860191326936,53.84737374993],[-122.860192587786,53.8469953410508],[-122.860193488341,53.8467250592517],[-122.8601179076,53.8465447766065],[-122.859889905747,53.8463823372924],[-122.859890567598,53.8461841222341],[-122.859387930529,53.8461384856573],[-122.85908336029,53.8460930797331],[-122.858550356377,53.8460203765913],[-122.858138995655,53.8460198909863],[-122.857788615829,53.8460014549998],[-122.857682128568,53.8459562890931],[-122.857331856599,53.8459108155207],[-122.856844562907,53.8458381591345],[-122.855961096434,53.845774040998],[-122.855580352939,53.8457285347175],[-122.855169150616,53.8456829904696],[-122.854818883633,53.8456375185512],[-122.85456004178,53.8455921564544],[-122.853798561974,53.8455011337961],[-122.853319736427,53.8455005584391],[-122.852579963116,53.8454275758348],[-122.852123126205,53.8453639348229],[-122.851696830315,53.8452733203998],[-122.851011556387,53.8451823652141],[-122.850600364372,53.845136814301],[-122.85014338973,53.8451092080963],[-122.84986921468,53.8450908531086],[-122.849503455126,53.8451174223372],[-122.849579261288,53.8452256269775],[-122.849578679922,53.8453878086064],[-122.849578034014,53.8455679934336],[-122.849684203943,53.8457032814288],[-122.849805378754,53.8459016400442],[-122.849911470665,53.8460549310142],[-122.850260996313,53.8463076383239],[-122.85044341548,53.846424990506],[-122.850671573329,53.8465333932005],[-122.850945246061,53.8466959067834],[-122.851127909382,53.8467411731952],[-122.851432411868,53.8468046204803],[-122.851706821639,53.84675992025],[-122.851859439071,53.846688032721],[-122.852042340908,53.8466702371217],[-122.852195020919,53.8465803279864],[-122.852652092685,53.8465808901025],[-122.852804549853,53.8465540408321],[-122.853109337368,53.8465364020434],[-122.85345983025,53.846518809316],[-122.853916838633,53.8465373877935],[-122.854175763446,53.8465647301128],[-122.854403931709,53.846673125715],[-122.85463246055,53.8466733937869],[-122.854937341609,53.84662872308],[-122.855013678554,53.8465837577047],[-122.855242532872,53.846493945695],[-122.855349437798,53.8464219985751],[-122.855928223853,53.8464767586379],[-122.856308959346,53.8465222548073],[-122.856537286918,53.8465855978982],[-122.856689033885,53.846765964805],[-122.856810460079,53.8469012556842],[-122.856809906627,53.8470634373201],[-122.856839706237,53.8472616796966],[-122.856945596723,53.8474870491655],[-122.856869168067,53.8475590250611],[-122.856640311349,53.8476488581317],[-122.856533189855,53.8477838760148],[-122.856487097909,53.847891930432],[-122.856410359367,53.8480540119149],[-122.856759832976,53.8483427426161],[-122.857109495813,53.8485683936432],[-122.857291729452,53.8487488050086],[-122.857519519904,53.8489743188153],[-122.857625479501,53.8491816664503],[-122.857625020928,53.8493168027867],[-122.857646725777,53.849330805114],[-122.857974711671,53.8495424692582],[-122.858126932487,53.8495876889502]],[[-122.863118294901,53.8448233282854],[-122.862817352043,53.8448323502785],[-122.862698391534,53.8448359263304],[-122.862362983971,53.8449076181296],[-122.862179739073,53.8450335476279],[-122.862392571919,53.8451779439749],[-122.862468100918,53.8453762464229],[-122.862284972603,53.8454661247042],[-122.862177949236,53.8455831265186],[-122.862177667697,53.8456642173562],[-122.862329790288,53.8457364680172],[-122.862558255948,53.8457637573037],[-122.862893140137,53.8458542376957],[-122.863045382285,53.8458904450716],[-122.863471971734,53.8458909311854],[-122.863883404913,53.8458733863242],[-122.864081528026,53.845855589642],[-122.864264362786,53.8458557965958],[-122.86456929975,53.8457840651054],[-122.864843791182,53.845712298552],[-122.865179114116,53.8456676271218],[-122.865560156177,53.8456230059852],[-122.865788896297,53.8455601921366],[-122.866139389301,53.8455335562452],[-122.866429220896,53.8454257606633],[-122.866657901349,53.8453809753356],[-122.86688685195,53.8452460835885],[-122.867359027179,53.8452916461067],[-122.867663528558,53.845355052211],[-122.867968244504,53.8453553878754],[-122.868121168762,53.84517537044],[-122.868335081828,53.8449773894947],[-122.86833537972,53.8448872925228],[-122.868335747212,53.8447701682332],[-122.868259993564,53.844634939136],[-122.868107736259,53.8445987383516],[-122.867955324354,53.8446165830027],[-122.867802969063,53.8446164152524],[-122.867727033807,53.8445442555258],[-122.867620666442,53.8444540499103],[-122.867468738564,53.844318736245],[-122.867423234598,53.8442556160643],[-122.866935714035,53.8442550764365],[-122.866707097201,53.8442818590861],[-122.866325925034,53.8443715323777],[-122.865944981518,53.8443891196758],[-122.865792786365,53.8443438919084],[-122.865609958152,53.8443436962755],[-122.865610390956,53.8442085507927],[-122.865610823756,53.8440734053068],[-122.865291177117,53.8439829495748],[-122.865184511768,53.8439828387707],[-122.86491058472,53.8438924243923],[-122.864575275689,53.8439370950938],[-122.86434645521,53.8440269429372],[-122.864117487941,53.8441618208586],[-122.863964258117,53.8444319391828],[-122.863765381192,53.8446839842253],[-122.863582361737,53.8447468372231],[-122.863277415431,53.8448185662043],[-122.863118294901,53.8448233282854]]]},"properties":{"OBJECTID":23,"Hyperlink":"http://www.communityforest.princegeorge.ca/index.html","GlobalID":"4ea21639-840b-4265-9793-0579fe5c8c88","created_user":"opendatascripts_cityofpg","created_date":1777692029523,"last_edited_user":"opendatascripts_cityofpg","last_edited_date":1777692029523,"Shape__Area":7621196.1376953125,"Shape__Length":37142.81841021683}},{"type":"Feature","id":24,"geometry":{"type":"Polygon","coordinates":[[[-122.848700542932,53.8737675879558],[-122.840862453828,53.8738264362623],[-122.837130102858,53.873841392658],[-122.837129289113,53.8734597290626],[-122.83713046941,53.8731520313853],[-122.837175873548,53.8725362539609],[-122.8373083205,53.8720490257314],[-122.837368013505,53.8719007037524],[-122.837457814739,53.8717183844983],[-122.837657925251,53.8712021978165],[-122.837660533798,53.8707288688199],[-122.837661267231,53.8705355352789],[-122.837316071909,53.8700476599318],[-122.837056965173,53.8697391596081],[-122.836852711759,53.8697370665546],[-122.832323853243,53.8696999691472],[-122.832286655126,53.8667114635779],[-122.836505213271,53.8666927734584],[-122.836529725084,53.859418412665],[-122.848729301245,53.8594117232778],[-122.848700542932,53.8737675879558]]]},"properties":{"OBJECTID":24,"Hyperlink":"http://www.communityforest.princegeorge.ca/index.html","GlobalID":"c328bdcc-4a04-41d1-8034-f1cf8806b01f","created_user":"opendatascripts_cityofpg","created_date":1777692029523,"last_edited_user":"opendatascripts_cityofpg","last_edited_date":1777692029523,"Shape__Area":1352438.7951660156,"Shape__Length":5359.36866312637}},{"type":"Feature","id":25,"geometry":{"type":"Polygon","coordinates":[[[-122.889845147013,53.9483055718534],[-122.889973105197,53.9619898232288],[-122.895137090254,53.9619900907774],[-122.894910221379,53.9763550571937],[-122.891249935666,53.9760439630511],[-122.888703822359,53.9761771075129],[-122.88527593676,53.976901198571],[-122.881701768308,53.9779595437144],[-122.879613518777,53.978112943645],[-122.877867597161,53.977791318588],[-122.874505309648,53.9758914221603],[-122.873379417946,53.975108288526],[-122.871052502775,53.9732273298846],[-122.870736142246,53.9721218117614],[-122.869580317449,53.971459452977],[-122.86724307758,53.9703162215131],[-122.867135908721,53.9698075277711],[-122.870181810356,53.9706573888367],[-122.870338481875,53.9683395513994],[-122.879545277601,53.9683203357198],[-122.879497419199,53.9646976308585],[-122.874232634758,53.9647071467327],[-122.874317869369,53.9588758783245],[-122.883688811758,53.9588111913126],[-122.883630797019,53.9483058968424],[-122.889845147013,53.9483055718534]]]},"properties":{"OBJECTID":25,"Hyperlink":"http://www.communityforest.princegeorge.ca/index.html","GlobalID":"acefb39a-dbcc-4604-8bc1-a835d64c94b0","created_user":"opendatascripts_cityofpg","created_date":1777692029523,"last_edited_user":"opendatascripts_cityofpg","last_edited_date":1777692029523,"Shape__Area":3143299.5673828125,"Shape__Length":10466.344127702458}}]}
