{"type": "FeatureCollection", "name": "missing_poi_supplement", "features": [{"type": "Feature", "geometry": {"type": "Point", "coordinates": [-122.761570500001, 53.908263]}, "properties": {"name": "Aboriginal Housing Society of Prince George", "poi_class": "Low Income Housing", "subtype": "Housing/resource guide entry", "address": "1919 17th Avenue", "city": "Prince George", "lon": -122.761570500001, "lat": 53.908263, "x_26910": 515664.383061124, "y_26910": 5973340.728332203, "geocode_score": 100, "matched_address": "1919 17th Ave", "source_name": "PGCOS Housing Resource Guide Fall 2025", "source_url": "https://www.pgcos.ca/wp-content/uploads/2025/11/Housing-Guide-fall-2025.pdf", "confidence": "high", "notes": "Housing society office and AHSPG housing provider location.", "address_query": "1919 17th Avenue", "dedupe_key": "aboriginal housing society of prince george|low income housing"}}, {"type": "Feature", "geometry": {"type": "Point", "coordinates": [-122.765607000001, 53.919477]}, "properties": {"name": "Alward Place Extension", "poi_class": "Senior Housing", "subtype": "Affordable seniors/adults-with-disabilities housing", "address": "2121 6th Avenue", "city": "Prince George", "lon": -122.765607000001, "lat": 53.919477, "x_26910": 515395.0868298911, "y_26910": 5974587.497984286, "geocode_score": 100, "matched_address": "2121 6th Ave", "source_name": "BC Housing Zone 12 / PGCOS Housing Guide", "source_url": "https://www.bchousing.org/sites/default/files/media/documents/Zone-12-Seniors-and-Adults-with-Disabilities.pdf", "confidence": "high", "notes": "40 units; Northern Health low-cost seniors housing; rent 30% of income.", "address_query": "2121 6th Avenue", "dedupe_key": "alward place extension|senior housing"}}, {"type": "Feature", "geometry": {"type": "Point", "coordinates": [-122.765607000001, 53.919477]}, "properties": {"name": "Alward Place", "poi_class": "Senior Housing", "subtype": "Affordable seniors/adults-with-disabilities housing", "address": "2121 6th Avenue", "city": "Prince George", "lon": -122.765607000001, "lat": 53.919477, "x_26910": 515395.0868298911, "y_26910": 5974587.497984286, "geocode_score": 100, "matched_address": "2121 6th Ave", "source_name": "BC Housing Zone 12 / PGCOS Housing Guide", "source_url": "https://www.bchousing.org/sites/default/files/media/documents/Zone-12-Seniors-and-Adults-with-Disabilities.pdf", "confidence": "high", "notes": "80 units; Northern Health low-cost seniors housing; rent 30% of income.", "address_query": "2121 6th Avenue", "dedupe_key": "alward place|senior housing"}}, {"type": "Feature", "geometry": {"type": "Point", "coordinates": [-122.784727500001, 53.887032]}, "properties": {"name": "Asher Place", "poi_class": "Senior Housing", "subtype": "Housing/resource guide entry", "address": "2904 Hopkins Road", "city": "Prince George", "lon": -122.784727500001, "lat": 53.887032, "x_26910": 514150.2913625726, "y_26910": 5970973.7355251005, "geocode_score": 100, "matched_address": "2904 Hopkins Rd", "source_name": "PGCOS Housing Resource Guide Fall 2025", "source_url": "https://www.pgcos.ca/wp-content/uploads/2025/11/Housing-Guide-fall-2025.pdf", "confidence": "high", "notes": "Private seniors residence.", "address_query": "2904 Hopkins Road", "dedupe_key": "asher place|senior housing"}}, {"type": "Feature", "geometry": {"type": "Point", "coordinates": [-122.766148453905, 53.916368704302]}, "properties": {"name": "Aspen 1 and 2", "poi_class": "Senior Housing", "subtype": "Affordable seniors/adults-with-disabilities housing", "address": "2179 9th Avenue", "city": "Prince George", "lon": -122.766148453905, "lat": 53.916368704302, "x_26910": 515360.66713757033, "y_26910": 5974241.555717737, "geocode_score": 100, "matched_address": "2179 9th Ave", "source_name": "BC Housing Zone 12 / PGCOS Housing Guide", "source_url": "https://www.bchousing.org/sites/default/files/media/documents/Zone-12-Seniors-and-Adults-with-Disabilities.pdf", "confidence": "high", "notes": "34 bachelor units; Northern Health low-cost seniors housing.", "address_query": "2179 9th Avenue", "dedupe_key": "aspen 1 and 2|senior housing"}}, {"type": "Feature", "geometry": {"type": "Point", "coordinates": [-122.766148453905, 53.916368704302]}, "properties": {"name": "Aspen Cottages", "poi_class": "Senior Housing", "subtype": "Affordable seniors/adults-with-disabilities housing", "address": "2179 9th Avenue", "city": "Prince George", "lon": -122.766148453905, "lat": 53.916368704302, "x_26910": 515360.66713757033, "y_26910": 5974241.555717737, "geocode_score": 100, "matched_address": "2179 9th Ave", "source_name": "BC Housing Zone 12 / PGCOS Housing Guide", "source_url": "https://www.bchousing.org/sites/default/files/media/documents/Zone-12-Seniors-and-Adults-with-Disabilities.pdf", "confidence": "high", "notes": "duplex/fourplex units; Northern Health low-cost seniors housing for senior couples.", "address_query": "2179 9th Avenue", "dedupe_key": "aspen cottages|senior housing"}}, {"type": "Feature", "geometry": {"type": "Point", "coordinates": [-122.8740075, 53.9700244]}, "properties": {"name": "Caledonia Nordic Ski Club", "poi_class": "Entertainment", "subtype": "attraction", "address": "Prince George", "city": "Prince George", "lon": -122.8740075, "lat": 53.9700244, "x_26910": "", "y_26910": "", "geocode_score": "", "matched_address": "", "source_name": "OpenStreetMap Overpass", "source_url": "https://overpass-api.de/", "confidence": "medium", "notes": "osm_type=node; osm_id=6036091883; tags={\"name\": \"Caledonia Nordic Ski Club\", \"tourism\": \"attraction\", \"website\": \"https://www.caledonianordic.com/\"}", "address_query": "", "dedupe_key": "caledonia nordic ski club|entertainment"}}, {"type": "Feature", "geometry": {"type": "Point", "coordinates": [-122.798754000001, 53.996868]}, "properties": {"name": "Country Seniors Community", "poi_class": "Senior Housing", "subtype": "Housing/resource guide entry", "address": "7364 Hart Highway", "city": "Prince George", "lon": -122.798754000001, "lat": 53.996868, "x_26910": 513193.6752494438, "y_26910": 5983191.292284356, "geocode_score": 100, "matched_address": "7364 Hart Hwy", "source_name": "PGCOS Housing Resource Guide Fall 2025", "source_url": "https://www.pgcos.ca/wp-content/uploads/2025/11/Housing-Guide-fall-2025.pdf", "confidence": "high", "notes": "55+ seniors community.", "address_query": "7364 Hart Highway", "dedupe_key": "country seniors community|senior housing"}}, {"type": "Feature", "geometry": {"type": "Point", "coordinates": [-122.747289883991, 53.908461]}, "properties": {"name": "Elder's Place", "poi_class": "Senior Housing", "subtype": "Housing/resource guide entry", "address": "17th Avenue", "city": "Prince George", "lon": -122.747289883991, "lat": 53.908461, "x_26910": 516602.4466360161, "y_26910": 5973366.006709961, "geocode_score": 100, "matched_address": "17th Ave", "source_name": "PGCOS Housing Resource Guide Fall 2025", "source_url": "https://www.pgcos.ca/wp-content/uploads/2025/11/Housing-Guide-fall-2025.pdf", "confidence": "medium", "notes": "Supportive housing for elders at risk of homelessness; address in guide is broad, geocode is approximate.", "address_query": "17th Avenue", "dedupe_key": "elder s place|senior housing"}}, {"type": "Feature", "geometry": {"type": "Point", "coordinates": [-122.749083000001, 53.914851]}, "properties": {"name": "Elizabeth Fry Place", "poi_class": "Senior Housing", "subtype": "Affordable seniors/adults-with-disabilities housing", "address": "1373 6th Ave", "city": "Prince George", "lon": -122.749083000001, "lat": 53.914851, "x_26910": 516482.1353036505, "y_26910": 5974076.530207532, "geocode_score": 100, "matched_address": "1373 6th Ave", "source_name": "BC Housing Zone 12 / PGCOS Housing Guide", "source_url": "https://www.bchousing.org/sites/default/files/media/documents/Zone-12-Seniors-and-Adults-with-Disabilities.pdf", "confidence": "high", "notes": "36 1-bedroom; Low/moderate-income seniors, persons with disabilities, and women fleeing violence.", "address_query": "1373 6th Ave", "dedupe_key": "elizabeth fry place|senior housing"}}, {"type": "Feature", "geometry": {"type": "Point", "coordinates": [-122.791446000001, 53.860662]}, "properties": {"name": "Emmaus House", "poi_class": "Assisted Housing", "subtype": "Assisted Living - Seniors and Persons with Disabilities", "address": "6373 Hillcrest Place", "city": "Prince George", "lon": -122.791446000001, "lat": 53.860662, "x_26910": 513717.3320693071, "y_26910": 5968038.5452134535, "geocode_score": 100, "matched_address": "6373 Hillcrest Pl", "source_name": "BC Assisted Living Registry", "source_url": "https://connect.health.gov.bc.ca/assisted-living-residence?f%5B0%5D=city%3APrince%20George", "confidence": "high", "notes": "Registry operator: Emmaus House Society; type=SN; phone=2509644601", "address_query": "6373 Hillcrest Place", "dedupe_key": "emmaus house|assisted housing"}}, {"type": "Feature", "geometry": {"type": "Point", "coordinates": [-122.7599406, 53.9118652]}, "properties": {"name": "Famous Players 6 Cinemas", "poi_class": "Entertainment", "subtype": "cinema", "address": "1600, 15th Avenue, Prince George", "city": "Prince George", "lon": -122.7599406, "lat": 53.9118652, "x_26910": "", "y_26910": "", "geocode_score": "", "matched_address": "", "source_name": "OpenStreetMap Overpass", "source_url": "https://overpass-api.de/", "confidence": "medium", "notes": "osm_type=way; osm_id=193250188; tags={\"addr:housenumber\": \"1600\", \"addr:postcode\": \"V2L 3X3\", \"addr:street\": \"15th Avenue\", \"addr:unit\": \"M172\", \"amenity\": \"cinema\", \"brand\": \"Cineplex\", \"brand:wikidata\": \"Q2972807\", \"brand:wikipedia\": \"en:Cineplex Entertainment\", \"building\": \"yes\", \"name\": \"Famous Players 6 Cinemas\", \"operator\": \"Cineplex\", \"phone\": \"+1-250-612-3993\", \"website\": \"https://www.cineplex.com/Theatre/famous-players-6-cinemas\", \"wikidata\": \"Q38396443\"}", "address_query": "", "dedupe_key": "famous players 6 cinemas|entertainment"}}, {"type": "Feature", "geometry": {"type": "Point", "coordinates": [-122.832418, 53.8950061]}, "properties": {"name": "Forests for the World", "poi_class": "Entertainment", "subtype": "attraction", "address": "Prince George", "city": "Prince George", "lon": -122.832418, "lat": 53.8950061, "x_26910": "", "y_26910": "", "geocode_score": "", "matched_address": "", "source_name": "OpenStreetMap Overpass", "source_url": "https://overpass-api.de/", "confidence": "medium", "notes": "osm_type=node; osm_id=11958874974; tags={\"addr:city\": \"Prince George\", \"addr:province\": \"BC\", \"name\": \"Forests for the World\", \"tourism\": \"attraction\"}", "address_query": "", "dedupe_key": "forests for the world|entertainment"}}, {"type": "Feature", "geometry": {"type": "Point", "coordinates": [-122.752836000001, 53.905644]}, "properties": {"name": "Gateway Lodge - Northern Health Authority", "poi_class": "Assisted Housing", "subtype": "Assisted Living - Seniors and Persons with Disabilities", "address": "1462 20th Avenue", "city": "Prince George", "lon": -122.752836000001, "lat": 53.905644, "x_26910": 516239.19775506173, "y_26910": 5973051.307391766, "geocode_score": 100, "matched_address": "1462 20th Ave", "source_name": "BC Assisted Living Registry", "source_url": "https://connect.health.gov.bc.ca/assisted-living-residence?f%5B0%5D=city%3APrince%20George", "confidence": "high", "notes": "Registry operator: Northern Health Authority; type=SN; phone=2506456404", "address_query": "1462 20th Avenue", "dedupe_key": "gateway lodge northern health authority|assisted housing"}}, {"type": "Feature", "geometry": {"type": "Point", "coordinates": [-122.7649055, 53.905953]}, "properties": {"name": "Gateway Manor Apartments", "poi_class": "Apartment Building", "subtype": "OSM building=apartments", "address": "Prince George", "city": "Prince George", "lon": -122.7649055, "lat": 53.905953, "x_26910": "", "y_26910": "", "geocode_score": "", "matched_address": "", "source_name": "OpenStreetMap Overpass", "source_url": "https://overpass-api.de/", "confidence": "medium", "notes": "osm_type=way; osm_id=536943817; tags={\"building\": \"apartments\", \"name\": \"Gateway Manor Apartments\"}", "address_query": "", "dedupe_key": "gateway manor apartments|apartment building"}}, {"type": "Feature", "geometry": {"type": "Point", "coordinates": [-122.791401000001, 53.993682]}, "properties": {"name": "Hart Haven", "poi_class": "Senior Housing", "subtype": "Affordable seniors/adults-with-disabilities housing", "address": "6995 Dagg Road", "city": "Prince George", "lon": -122.791401000001, "lat": 53.993682, "x_26910": 513676.7402814763, "y_26910": 5982838.212097373, "geocode_score": 100, "matched_address": "6995 Dagg Rd", "source_name": "BC Housing Zone 12 / PGCOS Housing Guide", "source_url": "https://www.bchousing.org/sites/default/files/media/documents/Zone-12-Seniors-and-Adults-with-Disabilities.pdf", "confidence": "high", "notes": "30 1-bedroom; Seniors and persons with disabilities.", "address_query": "6995 Dagg Road", "dedupe_key": "hart haven|senior housing"}}, {"type": "Feature", "geometry": {"type": "Point", "coordinates": [-122.777968500001, 53.910891]}, "properties": {"name": "Irwin Place", "poi_class": "Senior Housing", "subtype": "Affordable seniors/adults-with-disabilities housing", "address": "1444 Irwin Street", "city": "Prince George", "lon": -122.777968500001, "lat": 53.910891, "x_26910": 514586.22685395327, "y_26910": 5973629.617854374, "geocode_score": 100, "matched_address": "1444 Irwin St", "source_name": "BC Housing Zone 12 / PGCOS Housing Guide", "source_url": "https://www.bchousing.org/sites/default/files/media/documents/Zone-12-Seniors-and-Adults-with-Disabilities.pdf", "confidence": "high", "notes": "40 units; Seniors, families, and persons with disabilities.", "address_query": "1444 Irwin Street", "dedupe_key": "irwin place|senior housing"}}, {"type": "Feature", "geometry": {"type": "Point", "coordinates": [-122.784288, 53.916679]}, "properties": {"name": "Kelson Court Apartments", "poi_class": "Apartment Building", "subtype": "OSM building=apartments", "address": "920, Ahbau Street, Prince George", "city": "Prince George", "lon": -122.784288, "lat": 53.916679, "x_26910": "", "y_26910": "", "geocode_score": "", "matched_address": "", "source_name": "OpenStreetMap Overpass", "source_url": "https://overpass-api.de/", "confidence": "medium", "notes": "osm_type=way; osm_id=193800342; tags={\"addr:housenumber\": \"920\", \"addr:street\": \"Ahbau Street\", \"building\": \"apartments\", \"building:levels\": \"3\", \"name\": \"Kelson Court Apartments\"}", "address_query": "", "dedupe_key": "kelson court apartments|apartment building"}}, {"type": "Feature", "geometry": {"type": "Point", "coordinates": [-122.744502000001, 53.918541]}, "properties": {"name": "Ketso Yoh Centre", "poi_class": "Low Income Housing", "subtype": "Housing/resource guide entry", "address": "140 Quebec Street", "city": "Prince George", "lon": -122.744502000001, "lat": 53.918541, "x_26910": 516781.5497717044, "y_26910": 5974488.149027814, "geocode_score": 100, "matched_address": "140 Quebec St", "source_name": "PGCOS Housing Resource Guide Fall 2025", "source_url": "https://www.pgcos.ca/wp-content/uploads/2025/11/Housing-Guide-fall-2025.pdf", "confidence": "high", "notes": "PG Native Friendship Centre housing/supportive program noted in PGCOS guide.", "address_query": "140 Quebec Street", "dedupe_key": "ketso yoh centre|low income housing"}}, {"type": "Feature", "geometry": {"type": "Point", "coordinates": [-122.765940000001, 53.916282]}, "properties": {"name": "Laurier Manor - Northern Health Authority", "poi_class": "Assisted Housing", "subtype": "Assisted Living - Seniors and Persons with Disabilities", "address": "2175 9th Avenue", "city": "Prince George", "lon": -122.765940000001, "lat": 53.916282, "x_26910": 515374.39038129384, "y_26910": 5974231.954296963, "geocode_score": 100, "matched_address": "2175 9th Ave", "source_name": "BC Assisted Living Registry", "source_url": "https://connect.health.gov.bc.ca/assisted-living-residence?f%5B0%5D=city%3APrince%20George", "confidence": "high", "notes": "Registry operator: Northern Health Authority; type=SN; phone=2506456404", "address_query": "2175 9th Avenue", "dedupe_key": "laurier manor northern health authority|assisted housing"}}, {"type": "Feature", "geometry": {"type": "Point", "coordinates": [-122.793871500001, 53.93061]}, "properties": {"name": "Living Well Ospika", "poi_class": "Senior Housing", "subtype": "Housing/resource guide entry", "address": "474 Ospika Boulevard North", "city": "Prince George", "lon": -122.793871500001, "lat": 53.93061, "x_26910": 513535.1906336322, "y_26910": 5975820.375488071, "geocode_score": 86.96, "matched_address": "474 Ospika Blvd", "source_name": "PGCOS Housing Resource Guide Fall 2025", "source_url": "https://www.pgcos.ca/wp-content/uploads/2025/11/Housing-Guide-fall-2025.pdf", "confidence": "high", "notes": "Seniors residence from PGCOS guide.", "address_query": "474 Ospika Boulevard North", "dedupe_key": "living well ospika|senior housing"}}, {"type": "Feature", "geometry": {"type": "Point", "coordinates": [-122.838817126867, 53.824281995024]}, "properties": {"name": "Northern BC Therapeutic Community", "poi_class": "Assisted Housing", "subtype": "Assisted Living - Supportive Recovery", "address": "34000 Blackwater Road", "city": "Prince George", "lon": -122.838817126867, "lat": 53.824281995024, "x_26910": 510611.014619404, "y_26910": 5963982.881936535, "geocode_score": 78.95, "matched_address": "Blackwater Rd", "source_name": "BC Assisted Living Registry", "source_url": "https://connect.health.gov.bc.ca/assisted-living-residence?f%5B0%5D=city%3APrince%20George", "confidence": "high", "notes": "Registry operator: Northern BC Therapeutic Community Society; type=SU; phone=2509649385", "address_query": "34000 Blackwater Road", "dedupe_key": "northern bc therapeutic community|assisted housing"}}, {"type": "Feature", "geometry": {"type": "Point", "coordinates": [-122.778083, 53.866994]}, "properties": {"name": "O'Grady Heights", "poi_class": "Apartment Building", "subtype": "OSM building=apartments", "address": "Prince George", "city": "Prince George", "lon": -122.778083, "lat": 53.866994, "x_26910": "", "y_26910": "", "geocode_score": "", "matched_address": "", "source_name": "OpenStreetMap Overpass", "source_url": "https://overpass-api.de/", "confidence": "medium", "notes": "osm_type=way; osm_id=732772998; tags={\"building\": \"apartments\", \"building:levels\": \"5\", \"name\": \"O'Grady Heights\"}", "address_query": "", "dedupe_key": "o grady heights|apartment building"}}, {"type": "Feature", "geometry": {"type": "Point", "coordinates": [-122.795132, 53.8971265]}, "properties": {"name": "OSM apartments way/104220381", "poi_class": "Apartment Building", "subtype": "OSM building=apartments", "address": "Prince George", "city": "Prince George", "lon": -122.795132, "lat": 53.8971265, "x_26910": "", "y_26910": "", "geocode_score": "", "matched_address": "", "source_name": "OpenStreetMap Overpass", "source_url": "https://overpass-api.de/", "confidence": "low", "notes": "osm_type=way; osm_id=104220381; tags={\"building\": \"apartments\"}", "address_query": "", "dedupe_key": "osm apartments way 104220381|apartment building"}}, {"type": "Feature", "geometry": {"type": "Point", "coordinates": [-122.8136607, 53.9097896]}, "properties": {"name": "OSM apartments way/104220753", "poi_class": "Apartment Building", "subtype": "OSM building=apartments", "address": "Prince George", "city": "Prince George", "lon": -122.8136607, "lat": 53.9097896, "x_26910": "", "y_26910": "", "geocode_score": "", "matched_address": "", "source_name": "OpenStreetMap Overpass", "source_url": "https://overpass-api.de/", "confidence": "low", "notes": "osm_type=way; osm_id=104220753; tags={\"building\": \"apartments\"}", "address_query": "", "dedupe_key": "osm apartments way 104220753|apartment building"}}, {"type": "Feature", "geometry": {"type": "Point", "coordinates": [-122.7523749, 53.9063682]}, "properties": {"name": "OSM apartments way/1046954464", "poi_class": "Apartment Building", "subtype": "OSM building=apartments", "address": "Prince George", "city": "Prince George", "lon": -122.7523749, "lat": 53.9063682, "x_26910": "", "y_26910": "", "geocode_score": "", "matched_address": "", "source_name": "OpenStreetMap Overpass", "source_url": "https://overpass-api.de/", "confidence": "low", "notes": "osm_type=way; osm_id=1046954464; tags={\"building\": \"apartments\"}", "address_query": "", "dedupe_key": "osm apartments way 1046954464|apartment building"}}, {"type": "Feature", "geometry": {"type": "Point", "coordinates": [-122.8129146, 53.9083746]}, "properties": {"name": "OSM apartments way/1307304216", "poi_class": "Apartment Building", "subtype": "OSM building=apartments", "address": "Prince George", "city": "Prince George", "lon": -122.8129146, "lat": 53.9083746, "x_26910": "", "y_26910": "", "geocode_score": "", "matched_address": "", "source_name": "OpenStreetMap Overpass", "source_url": "https://overpass-api.de/", "confidence": "low", "notes": "osm_type=way; osm_id=1307304216; tags={\"building\": \"apartments\"}", "address_query": "", "dedupe_key": "osm apartments way 1307304216|apartment building"}}, {"type": "Feature", "geometry": {"type": "Point", "coordinates": [-122.8135332, 53.9079964]}, "properties": {"name": "OSM apartments way/1307304217", "poi_class": "Apartment Building", "subtype": "OSM building=apartments", "address": "Prince George", "city": "Prince George", "lon": -122.8135332, "lat": 53.9079964, "x_26910": "", "y_26910": "", "geocode_score": "", "matched_address": "", "source_name": "OpenStreetMap Overpass", "source_url": "https://overpass-api.de/", "confidence": "low", "notes": "osm_type=way; osm_id=1307304217; tags={\"building\": \"apartments\"}", "address_query": "", "dedupe_key": "osm apartments way 1307304217|apartment building"}}, {"type": "Feature", "geometry": {"type": "Point", "coordinates": [-122.8121208, 53.908992]}, "properties": {"name": "OSM apartments way/1307304218", "poi_class": "Apartment Building", "subtype": "OSM building=apartments", "address": "Prince George", "city": "Prince George", "lon": -122.8121208, "lat": 53.908992, "x_26910": "", "y_26910": "", "geocode_score": "", "matched_address": "", "source_name": "OpenStreetMap Overpass", "source_url": "https://overpass-api.de/", "confidence": "low", "notes": "osm_type=way; osm_id=1307304218; tags={\"building\": \"apartments\"}", "address_query": "", "dedupe_key": "osm apartments way 1307304218|apartment building"}}, {"type": "Feature", "geometry": {"type": "Point", "coordinates": [-122.7495798, 53.8589602]}, "properties": {"name": "OSM apartments way/1307331545", "poi_class": "Apartment Building", "subtype": "OSM building=apartments", "address": "Prince George", "city": "Prince George", "lon": -122.7495798, "lat": 53.8589602, "x_26910": "", "y_26910": "", "geocode_score": "", "matched_address": "", "source_name": "OpenStreetMap Overpass", "source_url": "https://overpass-api.de/", "confidence": "low", "notes": "osm_type=way; osm_id=1307331545; tags={\"building\": \"apartments\"}", "address_query": "", "dedupe_key": "osm apartments way 1307331545|apartment building"}}, {"type": "Feature", "geometry": {"type": "Point", "coordinates": [-122.7501391, 53.8595082]}, "properties": {"name": "OSM apartments way/1307331546", "poi_class": "Apartment Building", "subtype": "OSM building=apartments", "address": "Prince George", "city": "Prince George", "lon": -122.7501391, "lat": 53.8595082, "x_26910": "", "y_26910": "", "geocode_score": "", "matched_address": "", "source_name": "OpenStreetMap Overpass", "source_url": "https://overpass-api.de/", "confidence": "low", "notes": "osm_type=way; osm_id=1307331546; tags={\"building\": \"apartments\"}", "address_query": "", "dedupe_key": "osm apartments way 1307331546|apartment building"}}, {"type": "Feature", "geometry": {"type": "Point", "coordinates": [-122.7502348, 53.86003]}, "properties": {"name": "OSM apartments way/1307331547", "poi_class": "Apartment Building", "subtype": "OSM building=apartments", "address": "Prince George", "city": "Prince George", "lon": -122.7502348, "lat": 53.86003, "x_26910": "", "y_26910": "", "geocode_score": "", "matched_address": "", "source_name": "OpenStreetMap Overpass", "source_url": "https://overpass-api.de/", "confidence": "low", "notes": "osm_type=way; osm_id=1307331547; tags={\"building\": \"apartments\"}", "address_query": "", "dedupe_key": "osm apartments way 1307331547|apartment building"}}, {"type": "Feature", "geometry": {"type": "Point", "coordinates": [-122.749773, 53.8596988]}, "properties": {"name": "OSM apartments way/1307331548", "poi_class": "Apartment Building", "subtype": "OSM building=apartments", "address": "Prince George", "city": "Prince George", "lon": -122.749773, "lat": 53.8596988, "x_26910": "", "y_26910": "", "geocode_score": "", "matched_address": "", "source_name": "OpenStreetMap Overpass", "source_url": "https://overpass-api.de/", "confidence": "low", "notes": "osm_type=way; osm_id=1307331548; tags={\"building\": \"apartments\"}", "address_query": "", "dedupe_key": "osm apartments way 1307331548|apartment building"}}, {"type": "Feature", "geometry": {"type": "Point", "coordinates": [-122.7522542, 53.8558941]}, "properties": {"name": "OSM apartments way/1307561819", "poi_class": "Apartment Building", "subtype": "OSM building=apartments", "address": "Prince George", "city": "Prince George", "lon": -122.7522542, "lat": 53.8558941, "x_26910": "", "y_26910": "", "geocode_score": "", "matched_address": "", "source_name": "OpenStreetMap Overpass", "source_url": "https://overpass-api.de/", "confidence": "low", "notes": "osm_type=way; osm_id=1307561819; tags={\"building\": \"apartments\"}", "address_query": "", "dedupe_key": "osm apartments way 1307561819|apartment building"}}, {"type": "Feature", "geometry": {"type": "Point", "coordinates": [-122.7527423, 53.8559307]}, "properties": {"name": "OSM apartments way/1307561820", "poi_class": "Apartment Building", "subtype": "OSM building=apartments", "address": "Prince George", "city": "Prince George", "lon": -122.7527423, "lat": 53.8559307, "x_26910": "", "y_26910": "", "geocode_score": "", "matched_address": "", "source_name": "OpenStreetMap Overpass", "source_url": "https://overpass-api.de/", "confidence": "low", "notes": "osm_type=way; osm_id=1307561820; tags={\"building\": \"apartments\"}", "address_query": "", "dedupe_key": "osm apartments way 1307561820|apartment building"}}, {"type": "Feature", "geometry": {"type": "Point", "coordinates": [-122.7524373, 53.8562981]}, "properties": {"name": "OSM apartments way/1307561821", "poi_class": "Apartment Building", "subtype": "OSM building=apartments", "address": "Prince George", "city": "Prince George", "lon": -122.7524373, "lat": 53.8562981, "x_26910": "", "y_26910": "", "geocode_score": "", "matched_address": "", "source_name": "OpenStreetMap Overpass", "source_url": "https://overpass-api.de/", "confidence": "low", "notes": "osm_type=way; osm_id=1307561821; tags={\"building\": \"apartments\"}", "address_query": "", "dedupe_key": "osm apartments way 1307561821|apartment building"}}, {"type": "Feature", "geometry": {"type": "Point", "coordinates": [-122.7533652, 53.9160284]}, "properties": {"name": "OSM apartments way/1347828177", "poi_class": "Apartment Building", "subtype": "OSM building=apartments", "address": "1617, 6th Avenue, Prince George", "city": "Prince George", "lon": -122.7533652, "lat": 53.9160284, "x_26910": "", "y_26910": "", "geocode_score": "", "matched_address": "", "source_name": "OpenStreetMap Overpass", "source_url": "https://overpass-api.de/", "confidence": "low", "notes": "osm_type=way; osm_id=1347828177; tags={\"addr:housenumber\": \"1617\", \"addr:street\": \"6th Avenue\", \"building\": \"apartments\", \"building:levels\": \"2\", \"roof:levels\": \"0\"}", "address_query": "", "dedupe_key": "osm apartments way 1347828177|apartment building"}}, {"type": "Feature", "geometry": {"type": "Point", "coordinates": [-122.7555243, 53.9166237]}, "properties": {"name": "OSM apartments way/1347828178", "poi_class": "Apartment Building", "subtype": "OSM building=apartments", "address": "1751, 6th Avenue, Prince George", "city": "Prince George", "lon": -122.7555243, "lat": 53.9166237, "x_26910": "", "y_26910": "", "geocode_score": "", "matched_address": "", "source_name": "OpenStreetMap Overpass", "source_url": "https://overpass-api.de/", "confidence": "low", "notes": "osm_type=way; osm_id=1347828178; tags={\"addr:housenumber\": \"1751\", \"addr:street\": \"6th Avenue\", \"building\": \"apartments\", \"building:levels\": \"2\", \"roof:levels\": \"0\"}", "address_query": "", "dedupe_key": "osm apartments way 1347828178|apartment building"}}, {"type": "Feature", "geometry": {"type": "Point", "coordinates": [-122.7513621, 53.9116718]}, "properties": {"name": "OSM apartments way/1429284565", "poi_class": "Apartment Building", "subtype": "OSM building=apartments", "address": "Prince George", "city": "Prince George", "lon": -122.7513621, "lat": 53.9116718, "x_26910": "", "y_26910": "", "geocode_score": "", "matched_address": "", "source_name": "OpenStreetMap Overpass", "source_url": "https://overpass-api.de/", "confidence": "low", "notes": "osm_type=way; osm_id=1429284565; tags={\"building\": \"apartments\"}", "address_query": "", "dedupe_key": "osm apartments way 1429284565|apartment building"}}, {"type": "Feature", "geometry": {"type": "Point", "coordinates": [-122.7414434, 53.915434]}, "properties": {"name": "OSM apartments way/186029056", "poi_class": "Apartment Building", "subtype": "OSM building=apartments", "address": "Prince George", "city": "Prince George", "lon": -122.7414434, "lat": 53.915434, "x_26910": "", "y_26910": "", "geocode_score": "", "matched_address": "", "source_name": "OpenStreetMap Overpass", "source_url": "https://overpass-api.de/", "confidence": "low", "notes": "osm_type=way; osm_id=186029056; tags={\"building\": \"apartments\", \"source\": \"Bing Sat\"}", "address_query": "", "dedupe_key": "osm apartments way 186029056|apartment building"}}, {"type": "Feature", "geometry": {"type": "Point", "coordinates": [-122.7417751, 53.9155873]}, "properties": {"name": "OSM apartments way/186029148", "poi_class": "Apartment Building", "subtype": "OSM building=apartments", "address": "Prince George", "city": "Prince George", "lon": -122.7417751, "lat": 53.9155873, "x_26910": "", "y_26910": "", "geocode_score": "", "matched_address": "", "source_name": "OpenStreetMap Overpass", "source_url": "https://overpass-api.de/", "confidence": "low", "notes": "osm_type=way; osm_id=186029148; tags={\"building\": \"apartments\", \"source\": \"Bing Sat\"}", "address_query": "", "dedupe_key": "osm apartments way 186029148|apartment building"}}, {"type": "Feature", "geometry": {"type": "Point", "coordinates": [-122.7508405, 53.9152641]}, "properties": {"name": "OSM apartments way/193250197", "poi_class": "Apartment Building", "subtype": "OSM building=apartments", "address": "Prince George", "city": "Prince George", "lon": -122.7508405, "lat": 53.9152641, "x_26910": "", "y_26910": "", "geocode_score": "", "matched_address": "", "source_name": "OpenStreetMap Overpass", "source_url": "https://overpass-api.de/", "confidence": "low", "notes": "osm_type=way; osm_id=193250197; tags={\"building\": \"apartments\", \"building:levels\": \"3\", \"roof:levels\": \"0\"}", "address_query": "", "dedupe_key": "osm apartments way 193250197|apartment building"}}, {"type": "Feature", "geometry": {"type": "Point", "coordinates": [-122.7487239, 53.9146779]}, "properties": {"name": "OSM apartments way/193603812", "poi_class": "Apartment Building", "subtype": "OSM building=apartments", "address": "Prince George", "city": "Prince George", "lon": -122.7487239, "lat": 53.9146779, "x_26910": "", "y_26910": "", "geocode_score": "", "matched_address": "", "source_name": "OpenStreetMap Overpass", "source_url": "https://overpass-api.de/", "confidence": "low", "notes": "osm_type=way; osm_id=193603812; tags={\"building\": \"apartments\"}", "address_query": "", "dedupe_key": "osm apartments way 193603812|apartment building"}}, {"type": "Feature", "geometry": {"type": "Point", "coordinates": [-122.738313, 53.914585]}, "properties": {"name": "OSM apartments way/193604811", "poi_class": "Apartment Building", "subtype": "OSM building=apartments", "address": "Prince George", "city": "Prince George", "lon": -122.738313, "lat": 53.914585, "x_26910": "", "y_26910": "", "geocode_score": "", "matched_address": "", "source_name": "OpenStreetMap Overpass", "source_url": "https://overpass-api.de/", "confidence": "low", "notes": "osm_type=way; osm_id=193604811; tags={\"building\": \"apartments\", \"building:levels\": \"2\", \"roof:levels\": \"0\"}", "address_query": "", "dedupe_key": "osm apartments way 193604811|apartment building"}}, {"type": "Feature", "geometry": {"type": "Point", "coordinates": [-122.7806245, 53.9077125]}, "properties": {"name": "OSM apartments way/193800349", "poi_class": "Apartment Building", "subtype": "OSM building=apartments", "address": "1158, Prince George", "city": "Prince George", "lon": -122.7806245, "lat": 53.9077125, "x_26910": "", "y_26910": "", "geocode_score": "", "matched_address": "", "source_name": "OpenStreetMap Overpass", "source_url": "https://overpass-api.de/", "confidence": "low", "notes": "osm_type=way; osm_id=193800349; tags={\"addr:housenumber\": \"1158\", \"building\": \"apartments\"}", "address_query": "", "dedupe_key": "osm apartments way 193800349|apartment building"}}, {"type": "Feature", "geometry": {"type": "Point", "coordinates": [-122.7559713, 53.9186509]}, "properties": {"name": "OSM apartments way/354861471", "poi_class": "Apartment Building", "subtype": "OSM building=apartments", "address": "1865, 4th Avenue, Prince George", "city": "Prince George", "lon": -122.7559713, "lat": 53.9186509, "x_26910": "", "y_26910": "", "geocode_score": "", "matched_address": "", "source_name": "OpenStreetMap Overpass", "source_url": "https://overpass-api.de/", "confidence": "low", "notes": "osm_type=way; osm_id=354861471; tags={\"addr:city\": \"Prince George\", \"addr:flats\": \"1-8\", \"addr:housenumber\": \"1865\", \"addr:postcode\": \"V2M 1J1\", \"addr:street\": \"4th Avenue\", \"building\": \"apartments\", \"building:flats\": \"8\"}", "address_query": "", "dedupe_key": "osm apartments way 354861471|apartment building"}}, {"type": "Feature", "geometry": {"type": "Point", "coordinates": [-122.7774155, 53.9100745]}, "properties": {"name": "OSM apartments way/531477835", "poi_class": "Apartment Building", "subtype": "OSM building=apartments", "address": "Prince George", "city": "Prince George", "lon": -122.7774155, "lat": 53.9100745, "x_26910": "", "y_26910": "", "geocode_score": "", "matched_address": "", "source_name": "OpenStreetMap Overpass", "source_url": "https://overpass-api.de/", "confidence": "low", "notes": "osm_type=way; osm_id=531477835; tags={\"building\": \"apartments\"}", "address_query": "", "dedupe_key": "osm apartments way 531477835|apartment building"}}, {"type": "Feature", "geometry": {"type": "Point", "coordinates": [-122.7925445, 53.8993845]}, "properties": {"name": "OSM apartments way/534917726", "poi_class": "Apartment Building", "subtype": "OSM building=apartments", "address": "Prince George", "city": "Prince George", "lon": -122.7925445, "lat": 53.8993845, "x_26910": "", "y_26910": "", "geocode_score": "", "matched_address": "", "source_name": "OpenStreetMap Overpass", "source_url": "https://overpass-api.de/", "confidence": "low", "notes": "osm_type=way; osm_id=534917726; tags={\"building\": \"apartments\"}", "address_query": "", "dedupe_key": "osm apartments way 534917726|apartment building"}}, {"type": "Feature", "geometry": {"type": "Point", "coordinates": [-122.792325, 53.898783]}, "properties": {"name": "OSM apartments way/534917727", "poi_class": "Apartment Building", "subtype": "OSM building=apartments", "address": "Prince George", "city": "Prince George", "lon": -122.792325, "lat": 53.898783, "x_26910": "", "y_26910": "", "geocode_score": "", "matched_address": "", "source_name": "OpenStreetMap Overpass", "source_url": "https://overpass-api.de/", "confidence": "low", "notes": "osm_type=way; osm_id=534917727; tags={\"building\": \"apartments\"}", "address_query": "", "dedupe_key": "osm apartments way 534917727|apartment building"}}, {"type": "Feature", "geometry": {"type": "Point", "coordinates": [-122.7919465, 53.89908]}, "properties": {"name": "OSM apartments way/534917728", "poi_class": "Apartment Building", "subtype": "OSM building=apartments", "address": "Prince George", "city": "Prince George", "lon": -122.7919465, "lat": 53.89908, "x_26910": "", "y_26910": "", "geocode_score": "", "matched_address": "", "source_name": "OpenStreetMap Overpass", "source_url": "https://overpass-api.de/", "confidence": "low", "notes": "osm_type=way; osm_id=534917728; tags={\"building\": \"apartments\"}", "address_query": "", "dedupe_key": "osm apartments way 534917728|apartment building"}}, {"type": "Feature", "geometry": {"type": "Point", "coordinates": [-122.788386, 53.8889335]}, "properties": {"name": "OSM apartments way/534917730", "poi_class": "Apartment Building", "subtype": "OSM building=apartments", "address": "Prince George", "city": "Prince George", "lon": -122.788386, "lat": 53.8889335, "x_26910": "", "y_26910": "", "geocode_score": "", "matched_address": "", "source_name": "OpenStreetMap Overpass", "source_url": "https://overpass-api.de/", "confidence": "low", "notes": "osm_type=way; osm_id=534917730; tags={\"building\": \"apartments\"}", "address_query": "", "dedupe_key": "osm apartments way 534917730|apartment building"}}, {"type": "Feature", "geometry": {"type": "Point", "coordinates": [-122.7616886, 53.9178551]}, "properties": {"name": "OSM apartments way/670688717", "poi_class": "Apartment Building", "subtype": "OSM building=apartments", "address": "2188, Ross Crescent, Prince George", "city": "Prince George", "lon": -122.7616886, "lat": 53.9178551, "x_26910": "", "y_26910": "", "geocode_score": "", "matched_address": "", "source_name": "OpenStreetMap Overpass", "source_url": "https://overpass-api.de/", "confidence": "low", "notes": "osm_type=way; osm_id=670688717; tags={\"addr:housenumber\": \"2188\", \"addr:street\": \"Ross Crescent\", \"building\": \"apartments\", \"building:levels\": \"1\", \"roof:levels\": \"1\"}", "address_query": "", "dedupe_key": "osm apartments way 670688717|apartment building"}}, {"type": "Feature", "geometry": {"type": "Point", "coordinates": [-122.7628285, 53.9183405]}, "properties": {"name": "OSM apartments way/670688741", "poi_class": "Apartment Building", "subtype": "OSM building=apartments", "address": "Prince George", "city": "Prince George", "lon": -122.7628285, "lat": 53.9183405, "x_26910": "", "y_26910": "", "geocode_score": "", "matched_address": "", "source_name": "OpenStreetMap Overpass", "source_url": "https://overpass-api.de/", "confidence": "low", "notes": "osm_type=way; osm_id=670688741; tags={\"building\": \"apartments\"}", "address_query": "", "dedupe_key": "osm apartments way 670688741|apartment building"}}, {"type": "Feature", "geometry": {"type": "Point", "coordinates": [-122.769713, 53.9172905]}, "properties": {"name": "OSM apartments way/670688972", "poi_class": "Apartment Building", "subtype": "OSM building=apartments", "address": "Prince George", "city": "Prince George", "lon": -122.769713, "lat": 53.9172905, "x_26910": "", "y_26910": "", "geocode_score": "", "matched_address": "", "source_name": "OpenStreetMap Overpass", "source_url": "https://overpass-api.de/", "confidence": "low", "notes": "osm_type=way; osm_id=670688972; tags={\"building\": \"apartments\"}", "address_query": "", "dedupe_key": "osm apartments way 670688972|apartment building"}}, {"type": "Feature", "geometry": {"type": "Point", "coordinates": [-122.7800005, 53.9173025]}, "properties": {"name": "OSM apartments way/670690596", "poi_class": "Apartment Building", "subtype": "OSM building=apartments", "address": "Prince George", "city": "Prince George", "lon": -122.7800005, "lat": 53.9173025, "x_26910": "", "y_26910": "", "geocode_score": "", "matched_address": "", "source_name": "OpenStreetMap Overpass", "source_url": "https://overpass-api.de/", "confidence": "low", "notes": "osm_type=way; osm_id=670690596; tags={\"building\": \"apartments\"}", "address_query": "", "dedupe_key": "osm apartments way 670690596|apartment building"}}, {"type": "Feature", "geometry": {"type": "Point", "coordinates": [-122.8128501, 53.908966]}, "properties": {"name": "OSM apartments way/670692019", "poi_class": "Apartment Building", "subtype": "OSM building=apartments", "address": "Prince George", "city": "Prince George", "lon": -122.8128501, "lat": 53.908966, "x_26910": "", "y_26910": "", "geocode_score": "", "matched_address": "", "source_name": "OpenStreetMap Overpass", "source_url": "https://overpass-api.de/", "confidence": "low", "notes": "osm_type=way; osm_id=670692019; tags={\"building\": \"apartments\"}", "address_query": "", "dedupe_key": "osm apartments way 670692019|apartment building"}}, {"type": "Feature", "geometry": {"type": "Point", "coordinates": [-122.8126599, 53.9097877]}, "properties": {"name": "OSM apartments way/670692021", "poi_class": "Apartment Building", "subtype": "OSM building=apartments", "address": "Prince George", "city": "Prince George", "lon": -122.8126599, "lat": 53.9097877, "x_26910": "", "y_26910": "", "geocode_score": "", "matched_address": "", "source_name": "OpenStreetMap Overpass", "source_url": "https://overpass-api.de/", "confidence": "low", "notes": "osm_type=way; osm_id=670692021; tags={\"building\": \"apartments\"}", "address_query": "", "dedupe_key": "osm apartments way 670692021|apartment building"}}, {"type": "Feature", "geometry": {"type": "Point", "coordinates": [-122.813939, 53.908976]}, "properties": {"name": "OSM apartments way/670692024", "poi_class": "Apartment Building", "subtype": "OSM building=apartments", "address": "Prince George", "city": "Prince George", "lon": -122.813939, "lat": 53.908976, "x_26910": "", "y_26910": "", "geocode_score": "", "matched_address": "", "source_name": "OpenStreetMap Overpass", "source_url": "https://overpass-api.de/", "confidence": "low", "notes": "osm_type=way; osm_id=670692024; tags={\"building\": \"apartments\"}", "address_query": "", "dedupe_key": "osm apartments way 670692024|apartment building"}}, {"type": "Feature", "geometry": {"type": "Point", "coordinates": [-122.7800405, 53.916495]}, "properties": {"name": "OSM apartments way/670719883", "poi_class": "Apartment Building", "subtype": "OSM building=apartments", "address": "Prince George", "city": "Prince George", "lon": -122.7800405, "lat": 53.916495, "x_26910": "", "y_26910": "", "geocode_score": "", "matched_address": "", "source_name": "OpenStreetMap Overpass", "source_url": "https://overpass-api.de/", "confidence": "low", "notes": "osm_type=way; osm_id=670719883; tags={\"building\": \"apartments\"}", "address_query": "", "dedupe_key": "osm apartments way 670719883|apartment building"}}, {"type": "Feature", "geometry": {"type": "Point", "coordinates": [-122.780067, 53.9170325]}, "properties": {"name": "OSM apartments way/670719886", "poi_class": "Apartment Building", "subtype": "OSM building=apartments", "address": "Prince George", "city": "Prince George", "lon": -122.780067, "lat": 53.9170325, "x_26910": "", "y_26910": "", "geocode_score": "", "matched_address": "", "source_name": "OpenStreetMap Overpass", "source_url": "https://overpass-api.de/", "confidence": "low", "notes": "osm_type=way; osm_id=670719886; tags={\"building\": \"apartments\"}", "address_query": "", "dedupe_key": "osm apartments way 670719886|apartment building"}}, {"type": "Feature", "geometry": {"type": "Point", "coordinates": [-122.75689, 53.905985]}, "properties": {"name": "OSM apartments way/670791626", "poi_class": "Apartment Building", "subtype": "OSM building=apartments", "address": "Prince George", "city": "Prince George", "lon": -122.75689, "lat": 53.905985, "x_26910": "", "y_26910": "", "geocode_score": "", "matched_address": "", "source_name": "OpenStreetMap Overpass", "source_url": "https://overpass-api.de/", "confidence": "low", "notes": "osm_type=way; osm_id=670791626; tags={\"building\": \"apartments\"}", "address_query": "", "dedupe_key": "osm apartments way 670791626|apartment building"}}, {"type": "Feature", "geometry": {"type": "Point", "coordinates": [-122.757533, 53.9063075]}, "properties": {"name": "OSM apartments way/670791636", "poi_class": "Apartment Building", "subtype": "OSM building=apartments", "address": "Prince George", "city": "Prince George", "lon": -122.757533, "lat": 53.9063075, "x_26910": "", "y_26910": "", "geocode_score": "", "matched_address": "", "source_name": "OpenStreetMap Overpass", "source_url": "https://overpass-api.de/", "confidence": "low", "notes": "osm_type=way; osm_id=670791636; tags={\"building\": \"apartments\"}", "address_query": "", "dedupe_key": "osm apartments way 670791636|apartment building"}}, {"type": "Feature", "geometry": {"type": "Point", "coordinates": [-122.757517, 53.9065905]}, "properties": {"name": "OSM apartments way/670791637", "poi_class": "Apartment Building", "subtype": "OSM building=apartments", "address": "Prince George", "city": "Prince George", "lon": -122.757517, "lat": 53.9065905, "x_26910": "", "y_26910": "", "geocode_score": "", "matched_address": "", "source_name": "OpenStreetMap Overpass", "source_url": "https://overpass-api.de/", "confidence": "low", "notes": "osm_type=way; osm_id=670791637; tags={\"building\": \"apartments\"}", "address_query": "", "dedupe_key": "osm apartments way 670791637|apartment building"}}, {"type": "Feature", "geometry": {"type": "Point", "coordinates": [-122.7581985, 53.906139]}, "properties": {"name": "OSM apartments way/670791639", "poi_class": "Apartment Building", "subtype": "OSM building=apartments", "address": "Prince George", "city": "Prince George", "lon": -122.7581985, "lat": 53.906139, "x_26910": "", "y_26910": "", "geocode_score": "", "matched_address": "", "source_name": "OpenStreetMap Overpass", "source_url": "https://overpass-api.de/", "confidence": "low", "notes": "osm_type=way; osm_id=670791639; tags={\"building\": \"apartments\"}", "address_query": "", "dedupe_key": "osm apartments way 670791639|apartment building"}}, {"type": "Feature", "geometry": {"type": "Point", "coordinates": [-122.7575205, 53.907019]}, "properties": {"name": "OSM apartments way/670791642", "poi_class": "Apartment Building", "subtype": "OSM building=apartments", "address": "Prince George", "city": "Prince George", "lon": -122.7575205, "lat": 53.907019, "x_26910": "", "y_26910": "", "geocode_score": "", "matched_address": "", "source_name": "OpenStreetMap Overpass", "source_url": "https://overpass-api.de/", "confidence": "low", "notes": "osm_type=way; osm_id=670791642; tags={\"building\": \"apartments\"}", "address_query": "", "dedupe_key": "osm apartments way 670791642|apartment building"}}, {"type": "Feature", "geometry": {"type": "Point", "coordinates": [-122.757532, 53.9075365]}, "properties": {"name": "OSM apartments way/670791644", "poi_class": "Apartment Building", "subtype": "OSM building=apartments", "address": "Prince George", "city": "Prince George", "lon": -122.757532, "lat": 53.9075365, "x_26910": "", "y_26910": "", "geocode_score": "", "matched_address": "", "source_name": "OpenStreetMap Overpass", "source_url": "https://overpass-api.de/", "confidence": "low", "notes": "osm_type=way; osm_id=670791644; tags={\"building\": \"apartments\"}", "address_query": "", "dedupe_key": "osm apartments way 670791644|apartment building"}}, {"type": "Feature", "geometry": {"type": "Point", "coordinates": [-122.7575255, 53.9079075]}, "properties": {"name": "OSM apartments way/670791725", "poi_class": "Apartment Building", "subtype": "OSM building=apartments", "address": "Prince George", "city": "Prince George", "lon": -122.7575255, "lat": 53.9079075, "x_26910": "", "y_26910": "", "geocode_score": "", "matched_address": "", "source_name": "OpenStreetMap Overpass", "source_url": "https://overpass-api.de/", "confidence": "low", "notes": "osm_type=way; osm_id=670791725; tags={\"building\": \"apartments\"}", "address_query": "", "dedupe_key": "osm apartments way 670791725|apartment building"}}, {"type": "Feature", "geometry": {"type": "Point", "coordinates": [-122.757539, 53.9082115]}, "properties": {"name": "OSM apartments way/670791726", "poi_class": "Apartment Building", "subtype": "OSM building=apartments", "address": "Prince George", "city": "Prince George", "lon": -122.757539, "lat": 53.9082115, "x_26910": "", "y_26910": "", "geocode_score": "", "matched_address": "", "source_name": "OpenStreetMap Overpass", "source_url": "https://overpass-api.de/", "confidence": "low", "notes": "osm_type=way; osm_id=670791726; tags={\"building\": \"apartments\", \"building:levels\": \"2\", \"roof:levels\": \"0\"}", "address_query": "", "dedupe_key": "osm apartments way 670791726|apartment building"}}, {"type": "Feature", "geometry": {"type": "Point", "coordinates": [-122.758287, 53.908042]}, "properties": {"name": "OSM apartments way/670791727", "poi_class": "Apartment Building", "subtype": "OSM building=apartments", "address": "Prince George", "city": "Prince George", "lon": -122.758287, "lat": 53.908042, "x_26910": "", "y_26910": "", "geocode_score": "", "matched_address": "", "source_name": "OpenStreetMap Overpass", "source_url": "https://overpass-api.de/", "confidence": "low", "notes": "osm_type=way; osm_id=670791727; tags={\"building\": \"apartments\"}", "address_query": "", "dedupe_key": "osm apartments way 670791727|apartment building"}}, {"type": "Feature", "geometry": {"type": "Point", "coordinates": [-122.759827, 53.896228]}, "properties": {"name": "OSM apartments way/670797497", "poi_class": "Apartment Building", "subtype": "OSM building=apartments", "address": "Prince George", "city": "Prince George", "lon": -122.759827, "lat": 53.896228, "x_26910": "", "y_26910": "", "geocode_score": "", "matched_address": "", "source_name": "OpenStreetMap Overpass", "source_url": "https://overpass-api.de/", "confidence": "low", "notes": "osm_type=way; osm_id=670797497; tags={\"building\": \"apartments\"}", "address_query": "", "dedupe_key": "osm apartments way 670797497|apartment building"}}, {"type": "Feature", "geometry": {"type": "Point", "coordinates": [-122.756193, 53.9032425]}, "properties": {"name": "OSM apartments way/670797745", "poi_class": "Apartment Building", "subtype": "OSM building=apartments", "address": "2212, Redwood Street, Prince George", "city": "Prince George", "lon": -122.756193, "lat": 53.9032425, "x_26910": "", "y_26910": "", "geocode_score": "", "matched_address": "", "source_name": "OpenStreetMap Overpass", "source_url": "https://overpass-api.de/", "confidence": "low", "notes": "osm_type=way; osm_id=670797745; tags={\"addr:housenumber\": \"2212\", \"addr:street\": \"Redwood Street\", \"building\": \"apartments\"}", "address_query": "", "dedupe_key": "osm apartments way 670797745|apartment building"}}, {"type": "Feature", "geometry": {"type": "Point", "coordinates": [-122.760939, 53.9027055]}, "properties": {"name": "OSM apartments way/670797771", "poi_class": "Apartment Building", "subtype": "OSM building=apartments", "address": "Prince George", "city": "Prince George", "lon": -122.760939, "lat": 53.9027055, "x_26910": "", "y_26910": "", "geocode_score": "", "matched_address": "", "source_name": "OpenStreetMap Overpass", "source_url": "https://overpass-api.de/", "confidence": "low", "notes": "osm_type=way; osm_id=670797771; tags={\"building\": \"apartments\"}", "address_query": "", "dedupe_key": "osm apartments way 670797771|apartment building"}}, {"type": "Feature", "geometry": {"type": "Point", "coordinates": [-122.761211, 53.9031035]}, "properties": {"name": "OSM apartments way/670797794", "poi_class": "Apartment Building", "subtype": "OSM building=apartments", "address": "Prince George", "city": "Prince George", "lon": -122.761211, "lat": 53.9031035, "x_26910": "", "y_26910": "", "geocode_score": "", "matched_address": "", "source_name": "OpenStreetMap Overpass", "source_url": "https://overpass-api.de/", "confidence": "low", "notes": "osm_type=way; osm_id=670797794; tags={\"building\": \"apartments\"}", "address_query": "", "dedupe_key": "osm apartments way 670797794|apartment building"}}, {"type": "Feature", "geometry": {"type": "Point", "coordinates": [-122.795728, 53.8968015]}, "properties": {"name": "OSM apartments way/670970390", "poi_class": "Apartment Building", "subtype": "OSM building=apartments", "address": "Prince George", "city": "Prince George", "lon": -122.795728, "lat": 53.8968015, "x_26910": "", "y_26910": "", "geocode_score": "", "matched_address": "", "source_name": "OpenStreetMap Overpass", "source_url": "https://overpass-api.de/", "confidence": "low", "notes": "osm_type=way; osm_id=670970390; tags={\"building\": \"apartments\"}", "address_query": "", "dedupe_key": "osm apartments way 670970390|apartment building"}}, {"type": "Feature", "geometry": {"type": "Point", "coordinates": [-122.761488, 53.9027065]}, "properties": {"name": "OSM apartments way/670972718", "poi_class": "Apartment Building", "subtype": "OSM building=apartments", "address": "Prince George", "city": "Prince George", "lon": -122.761488, "lat": 53.9027065, "x_26910": "", "y_26910": "", "geocode_score": "", "matched_address": "", "source_name": "OpenStreetMap Overpass", "source_url": "https://overpass-api.de/", "confidence": "low", "notes": "osm_type=way; osm_id=670972718; tags={\"building\": \"apartments\"}", "address_query": "", "dedupe_key": "osm apartments way 670972718|apartment building"}}, {"type": "Feature", "geometry": {"type": "Point", "coordinates": [-122.7618005, 53.9027055]}, "properties": {"name": "OSM apartments way/670972719", "poi_class": "Apartment Building", "subtype": "OSM building=apartments", "address": "Prince George", "city": "Prince George", "lon": -122.7618005, "lat": 53.9027055, "x_26910": "", "y_26910": "", "geocode_score": "", "matched_address": "", "source_name": "OpenStreetMap Overpass", "source_url": "https://overpass-api.de/", "confidence": "low", "notes": "osm_type=way; osm_id=670972719; tags={\"building\": \"apartments\"}", "address_query": "", "dedupe_key": "osm apartments way 670972719|apartment building"}}, {"type": "Feature", "geometry": {"type": "Point", "coordinates": [-122.762418, 53.9027035]}, "properties": {"name": "OSM apartments way/670972720", "poi_class": "Apartment Building", "subtype": "OSM building=apartments", "address": "Prince George", "city": "Prince George", "lon": -122.762418, "lat": 53.9027035, "x_26910": "", "y_26910": "", "geocode_score": "", "matched_address": "", "source_name": "OpenStreetMap Overpass", "source_url": "https://overpass-api.de/", "confidence": "low", "notes": "osm_type=way; osm_id=670972720; tags={\"building\": \"apartments\"}", "address_query": "", "dedupe_key": "osm apartments way 670972720|apartment building"}}, {"type": "Feature", "geometry": {"type": "Point", "coordinates": [-122.762709, 53.902533]}, "properties": {"name": "OSM apartments way/670972721", "poi_class": "Apartment Building", "subtype": "OSM building=apartments", "address": "Prince George", "city": "Prince George", "lon": -122.762709, "lat": 53.902533, "x_26910": "", "y_26910": "", "geocode_score": "", "matched_address": "", "source_name": "OpenStreetMap Overpass", "source_url": "https://overpass-api.de/", "confidence": "low", "notes": "osm_type=way; osm_id=670972721; tags={\"building\": \"apartments\"}", "address_query": "", "dedupe_key": "osm apartments way 670972721|apartment building"}}, {"type": "Feature", "geometry": {"type": "Point", "coordinates": [-122.7633125, 53.902533]}, "properties": {"name": "OSM apartments way/670972722", "poi_class": "Apartment Building", "subtype": "OSM building=apartments", "address": "Prince George", "city": "Prince George", "lon": -122.7633125, "lat": 53.902533, "x_26910": "", "y_26910": "", "geocode_score": "", "matched_address": "", "source_name": "OpenStreetMap Overpass", "source_url": "https://overpass-api.de/", "confidence": "low", "notes": "osm_type=way; osm_id=670972722; tags={\"building\": \"apartments\"}", "address_query": "", "dedupe_key": "osm apartments way 670972722|apartment building"}}, {"type": "Feature", "geometry": {"type": "Point", "coordinates": [-122.7636185, 53.9025345]}, "properties": {"name": "OSM apartments way/670972724", "poi_class": "Apartment Building", "subtype": "OSM building=apartments", "address": "Prince George", "city": "Prince George", "lon": -122.7636185, "lat": 53.9025345, "x_26910": "", "y_26910": "", "geocode_score": "", "matched_address": "", "source_name": "OpenStreetMap Overpass", "source_url": "https://overpass-api.de/", "confidence": "low", "notes": "osm_type=way; osm_id=670972724; tags={\"building\": \"apartments\"}", "address_query": "", "dedupe_key": "osm apartments way 670972724|apartment building"}}, {"type": "Feature", "geometry": {"type": "Point", "coordinates": [-122.7621145, 53.9031]}, "properties": {"name": "OSM apartments way/670972726", "poi_class": "Apartment Building", "subtype": "OSM building=apartments", "address": "Prince George", "city": "Prince George", "lon": -122.7621145, "lat": 53.9031, "x_26910": "", "y_26910": "", "geocode_score": "", "matched_address": "", "source_name": "OpenStreetMap Overpass", "source_url": "https://overpass-api.de/", "confidence": "low", "notes": "osm_type=way; osm_id=670972726; tags={\"building\": \"apartments\"}", "address_query": "", "dedupe_key": "osm apartments way 670972726|apartment building"}}, {"type": "Feature", "geometry": {"type": "Point", "coordinates": [-122.7627035, 53.9029425]}, "properties": {"name": "OSM apartments way/670972739", "poi_class": "Apartment Building", "subtype": "OSM building=apartments", "address": "Prince George", "city": "Prince George", "lon": -122.7627035, "lat": 53.9029425, "x_26910": "", "y_26910": "", "geocode_score": "", "matched_address": "", "source_name": "OpenStreetMap Overpass", "source_url": "https://overpass-api.de/", "confidence": "low", "notes": "osm_type=way; osm_id=670972739; tags={\"building\": \"apartments\"}", "address_query": "", "dedupe_key": "osm apartments way 670972739|apartment building"}}, {"type": "Feature", "geometry": {"type": "Point", "coordinates": [-122.763169, 53.9032835]}, "properties": {"name": "OSM apartments way/670972740", "poi_class": "Apartment Building", "subtype": "OSM building=apartments", "address": "Prince George", "city": "Prince George", "lon": -122.763169, "lat": 53.9032835, "x_26910": "", "y_26910": "", "geocode_score": "", "matched_address": "", "source_name": "OpenStreetMap Overpass", "source_url": "https://overpass-api.de/", "confidence": "low", "notes": "osm_type=way; osm_id=670972740; tags={\"building\": \"apartments\"}", "address_query": "", "dedupe_key": "osm apartments way 670972740|apartment building"}}, {"type": "Feature", "geometry": {"type": "Point", "coordinates": [-122.76332, 53.9029385]}, "properties": {"name": "OSM apartments way/670972741", "poi_class": "Apartment Building", "subtype": "OSM building=apartments", "address": "Prince George", "city": "Prince George", "lon": -122.76332, "lat": 53.9029385, "x_26910": "", "y_26910": "", "geocode_score": "", "matched_address": "", "source_name": "OpenStreetMap Overpass", "source_url": "https://overpass-api.de/", "confidence": "low", "notes": "osm_type=way; osm_id=670972741; tags={\"building\": \"apartments\"}", "address_query": "", "dedupe_key": "osm apartments way 670972741|apartment building"}}, {"type": "Feature", "geometry": {"type": "Point", "coordinates": [-122.763612, 53.902941]}, "properties": {"name": "OSM apartments way/670972742", "poi_class": "Apartment Building", "subtype": "OSM building=apartments", "address": "Prince George", "city": "Prince George", "lon": -122.763612, "lat": 53.902941, "x_26910": "", "y_26910": "", "geocode_score": "", "matched_address": "", "source_name": "OpenStreetMap Overpass", "source_url": "https://overpass-api.de/", "confidence": "low", "notes": "osm_type=way; osm_id=670972742; tags={\"building\": \"apartments\"}", "address_query": "", "dedupe_key": "osm apartments way 670972742|apartment building"}}, {"type": "Feature", "geometry": {"type": "Point", "coordinates": [-122.7640935, 53.902701]}, "properties": {"name": "OSM apartments way/670972747", "poi_class": "Apartment Building", "subtype": "OSM building=apartments", "address": "Prince George", "city": "Prince George", "lon": -122.7640935, "lat": 53.902701, "x_26910": "", "y_26910": "", "geocode_score": "", "matched_address": "", "source_name": "OpenStreetMap Overpass", "source_url": "https://overpass-api.de/", "confidence": "low", "notes": "osm_type=way; osm_id=670972747; tags={\"building\": \"apartments\"}", "address_query": "", "dedupe_key": "osm apartments way 670972747|apartment building"}}, {"type": "Feature", "geometry": {"type": "Point", "coordinates": [-122.7649345, 53.902443]}, "properties": {"name": "OSM apartments way/670972748", "poi_class": "Apartment Building", "subtype": "OSM building=apartments", "address": "Prince George", "city": "Prince George", "lon": -122.7649345, "lat": 53.902443, "x_26910": "", "y_26910": "", "geocode_score": "", "matched_address": "", "source_name": "OpenStreetMap Overpass", "source_url": "https://overpass-api.de/", "confidence": "low", "notes": "osm_type=way; osm_id=670972748; tags={\"building\": \"apartments\"}", "address_query": "", "dedupe_key": "osm apartments way 670972748|apartment building"}}, {"type": "Feature", "geometry": {"type": "Point", "coordinates": [-122.764898, 53.9026295]}, "properties": {"name": "OSM apartments way/670972749", "poi_class": "Apartment Building", "subtype": "OSM building=apartments", "address": "Prince George", "city": "Prince George", "lon": -122.764898, "lat": 53.9026295, "x_26910": "", "y_26910": "", "geocode_score": "", "matched_address": "", "source_name": "OpenStreetMap Overpass", "source_url": "https://overpass-api.de/", "confidence": "low", "notes": "osm_type=way; osm_id=670972749; tags={\"building\": \"apartments\"}", "address_query": "", "dedupe_key": "osm apartments way 670972749|apartment building"}}, {"type": "Feature", "geometry": {"type": "Point", "coordinates": [-122.7532176, 53.9159753]}, "properties": {"name": "OSM apartments way/671070939", "poi_class": "Apartment Building", "subtype": "OSM building=apartments", "address": "1615, 6th Avenue, Prince George", "city": "Prince George", "lon": -122.7532176, "lat": 53.9159753, "x_26910": "", "y_26910": "", "geocode_score": "", "matched_address": "", "source_name": "OpenStreetMap Overpass", "source_url": "https://overpass-api.de/", "confidence": "low", "notes": "osm_type=way; osm_id=671070939; tags={\"addr:housenumber\": \"1615\", \"addr:street\": \"6th Avenue\", \"building\": \"apartments\", \"building:levels\": \"2\", \"roof:levels\": \"0\"}", "address_query": "", "dedupe_key": "osm apartments way 671070939|apartment building"}}, {"type": "Feature", "geometry": {"type": "Point", "coordinates": [-122.753239, 53.9164518]}, "properties": {"name": "OSM apartments way/671071000", "poi_class": "Apartment Building", "subtype": "OSM building=apartments", "address": "1638, 6th Avenue, Prince George", "city": "Prince George", "lon": -122.753239, "lat": 53.9164518, "x_26910": "", "y_26910": "", "geocode_score": "", "matched_address": "", "source_name": "OpenStreetMap Overpass", "source_url": "https://overpass-api.de/", "confidence": "low", "notes": "osm_type=way; osm_id=671071000; tags={\"addr:housenumber\": \"1638\", \"addr:street\": \"6th Avenue\", \"building\": \"apartments\", \"building:levels\": \"4\", \"roof:levels\": \"0\"}", "address_query": "", "dedupe_key": "osm apartments way 671071000|apartment building"}}, {"type": "Feature", "geometry": {"type": "Point", "coordinates": [-122.7560517, 53.9167274]}, "properties": {"name": "OSM apartments way/671071010", "poi_class": "Apartment Building", "subtype": "OSM building=apartments", "address": "1775, 6th Avenue, Prince George", "city": "Prince George", "lon": -122.7560517, "lat": 53.9167274, "x_26910": "", "y_26910": "", "geocode_score": "", "matched_address": "", "source_name": "OpenStreetMap Overpass", "source_url": "https://overpass-api.de/", "confidence": "low", "notes": "osm_type=way; osm_id=671071010; tags={\"addr:housenumber\": \"1775\", \"addr:street\": \"6th Avenue\", \"building\": \"apartments\", \"building:levels\": \"4\", \"roof:levels\": \"0\"}", "address_query": "", "dedupe_key": "osm apartments way 671071010|apartment building"}}, {"type": "Feature", "geometry": {"type": "Point", "coordinates": [-122.7543781, 53.9162719]}, "properties": {"name": "OSM apartments way/671071035", "poi_class": "Apartment Building", "subtype": "OSM building=apartments", "address": "1693, 6th Avenue, Prince George", "city": "Prince George", "lon": -122.7543781, "lat": 53.9162719, "x_26910": "", "y_26910": "", "geocode_score": "", "matched_address": "", "source_name": "OpenStreetMap Overpass", "source_url": "https://overpass-api.de/", "confidence": "low", "notes": "osm_type=way; osm_id=671071035; tags={\"addr:housenumber\": \"1693\", \"addr:street\": \"6th Avenue\", \"building\": \"apartments\", \"building:levels\": \"4\", \"roof:levels\": \"0\"}", "address_query": "", "dedupe_key": "osm apartments way 671071035|apartment building"}}, {"type": "Feature", "geometry": {"type": "Point", "coordinates": [-122.758417, 53.9178685]}, "properties": {"name": "OSM apartments way/671072381", "poi_class": "Apartment Building", "subtype": "OSM building=apartments", "address": "1910, Renwick Crescent, Prince George", "city": "Prince George", "lon": -122.758417, "lat": 53.9178685, "x_26910": "", "y_26910": "", "geocode_score": "", "matched_address": "", "source_name": "OpenStreetMap Overpass", "source_url": "https://overpass-api.de/", "confidence": "low", "notes": "osm_type=way; osm_id=671072381; tags={\"addr:housenumber\": \"1910\", \"addr:street\": \"Renwick Crescent\", \"building\": \"apartments\", \"building:levels\": \"2\", \"roof:levels\": \"0\"}", "address_query": "", "dedupe_key": "osm apartments way 671072381|apartment building"}}, {"type": "Feature", "geometry": {"type": "Point", "coordinates": [-122.7413671, 53.9180042]}, "properties": {"name": "OSM attraction node/1205107405", "poi_class": "Entertainment", "subtype": "attraction", "address": "Prince George", "city": "Prince George", "lon": -122.7413671, "lat": 53.9180042, "x_26910": "", "y_26910": "", "geocode_score": "", "matched_address": "", "source_name": "OpenStreetMap Overpass", "source_url": "https://overpass-api.de/", "confidence": "low", "notes": "osm_type=node; osm_id=1205107405; tags={\"historic\": \"yes\", \"source\": \"NRCan-CanVec-7.0\", \"tourism\": \"attraction\"}", "address_query": "", "dedupe_key": "osm attraction node 1205107405|entertainment"}}, {"type": "Feature", "geometry": {"type": "Point", "coordinates": [-122.7342162, 53.9051808]}, "properties": {"name": "OSM attraction way/104451133", "poi_class": "Entertainment", "subtype": "attraction", "address": "Prince George", "city": "Prince George", "lon": -122.7342162, "lat": 53.9051808, "x_26910": "", "y_26910": "", "geocode_score": "", "matched_address": "", "source_name": "OpenStreetMap Overpass", "source_url": "https://overpass-api.de/", "confidence": "low", "notes": "osm_type=way; osm_id=104451133; tags={\"historic\": \"fort\", \"source\": \"NRCan-CanVec-7.0\", \"tourism\": \"attraction\"}", "address_query": "", "dedupe_key": "osm attraction way 104451133|entertainment"}}, {"type": "Feature", "geometry": {"type": "Point", "coordinates": [-122.809527000001, 53.922726]}, "properties": {"name": "Prince George Chateau", "poi_class": "Senior Housing", "subtype": "Housing/resource guide entry", "address": "4377 Hill Avenue", "city": "Prince George", "lon": -122.809527000001, "lat": 53.922726, "x_26910": 512509.63274981163, "y_26910": 5974940.334474131, "geocode_score": 100, "matched_address": "4377 Hill Ave", "source_name": "PGCOS Housing Resource Guide Fall 2025", "source_url": "https://www.pgcos.ca/wp-content/uploads/2025/11/Housing-Guide-fall-2025.pdf", "confidence": "high", "notes": "Private senior living community.", "address_query": "4377 Hill Avenue", "dedupe_key": "prince george chateau|senior housing"}}, {"type": "Feature", "geometry": {"type": "Point", "coordinates": [-122.747710500001, 53.915778]}, "properties": {"name": "Prince George Council of Seniors Society", "poi_class": "Senior Housing", "subtype": "Senior service/community support", "address": "1330 5th Ave", "city": "Prince George", "lon": -122.747710500001, "lat": 53.915778, "x_26910": 516571.91826504224, "y_26910": 5974179.986829754, "geocode_score": 100, "matched_address": "1330 5th Ave", "source_name": "United Way BC Healthy Aging Investments KML", "source_url": "https://www.google.com/maps/d/viewer?mid=1holSb-T7PaImPp4GYkj_EQEtbhq-G0U", "confidence": "low", "notes": "Healthy-aging service location, not confirmed housing. Program: Better at Home", "address_query": "1330 5th Ave", "dedupe_key": "prince george council of seniors society|senior housing"}}, {"type": "Feature", "geometry": {"type": "Point", "coordinates": [-122.751301500001, 53.918721]}, "properties": {"name": "Prince George Native Friendship Centre", "poi_class": "Low Income Housing", "subtype": "Housing/resource guide entry", "address": "1600 3rd Avenue", "city": "Prince George", "lon": -122.751301500001, "lat": 53.918721, "x_26910": 516334.9070418668, "y_26910": 5974506.587576228, "geocode_score": 100, "matched_address": "1600 3rd Ave", "source_name": "PGCOS Housing Resource Guide Fall 2025", "source_url": "https://www.pgcos.ca/wp-content/uploads/2025/11/Housing-Guide-fall-2025.pdf", "confidence": "high", "notes": "Housing/service provider location.", "address_query": "1600 3rd Avenue", "dedupe_key": "prince george native friendship centre|low income housing"}}, {"type": "Feature", "geometry": {"type": "Point", "coordinates": [-122.768335, 53.8957535]}, "properties": {"name": "Prince George Playhouse", "poi_class": "Entertainment", "subtype": "theatre", "address": "2626, Recplace Drive, Prince George", "city": "Prince George", "lon": -122.768335, "lat": 53.8957535, "x_26910": "", "y_26910": "", "geocode_score": "", "matched_address": "", "source_name": "OpenStreetMap Overpass", "source_url": "https://overpass-api.de/", "confidence": "medium", "notes": "osm_type=way; osm_id=252066486; tags={\"addr:housenumber\": \"2626\", \"addr:street\": \"Recplace Drive\", \"amenity\": \"theatre\", \"building\": \"commercial\", \"check_date\": \"2023-07-25\", \"email\": \"admin@pgplayhouse.ca\", \"name\": \"Prince George Playhouse\", \"phone\": \"+1-236-423-1320\", \"website\": \"http://pgplayhouse.ca\"}", "address_query": "", "dedupe_key": "prince george playhouse|entertainment"}}, {"type": "Feature", "geometry": {"type": "Point", "coordinates": [-122.748201000001, 53.914644]}, "properties": {"name": "Quebec Street House", "poi_class": "Senior Housing", "subtype": "Affordable seniors/adults-with-disabilities housing", "address": "605 Quebec Street", "city": "Prince George", "lon": -122.748201000001, "lat": 53.914644, "x_26910": 516540.14954369946, "y_26910": 5974053.705078076, "geocode_score": 100, "matched_address": "605 Quebec St", "source_name": "BC Housing Zone 12 / PGCOS Housing Guide", "source_url": "https://www.bchousing.org/sites/default/files/media/documents/Zone-12-Seniors-and-Adults-with-Disabilities.pdf", "confidence": "high", "notes": "36 units; Seniors/adults with disabilities affordable housing listing.", "address_query": "605 Quebec Street", "dedupe_key": "quebec street house|senior housing"}}, {"type": "Feature", "geometry": {"type": "Point", "coordinates": [-122.7322441, 53.9216773]}, "properties": {"name": "Railway & Forestry Museum", "poi_class": "Entertainment", "subtype": "museum", "address": "850 River Road, Prince George", "city": "Prince George", "lon": -122.7322441, "lat": 53.9216773, "x_26910": "", "y_26910": "", "geocode_score": "", "matched_address": "", "source_name": "OpenStreetMap Overpass", "source_url": "https://overpass-api.de/", "confidence": "medium", "notes": "osm_type=way; osm_id=375102588; tags={\"addr:city\": \"Prince George\", \"addr:postcode\": \"V2L 5S8\", \"addr:street\": \"850 River Road\", \"building\": \"yes\", \"email\": \"trains@pgrfm.bc.ca\", \"name\": \"Railway & Forestry Museum\", \"opening_hours\": \"10:00-17:00; Tu-Sa 11:00-16:00 \\\"Winter Time\\\"\", \"operator\": \"British Columbia Railway and Forestry Museum\", \"phone\": \"+1-250-563-7351\", \"tourism\": \"museum\", \"website\": \"https://www.pgrfm.bc.ca/\", \"wheelchair\": \"yes\", \"wikidata\": \"Q7244026\", \"wikipedia:en\": \"Prince George Railway and Forestry Museum\"}", "address_query": "", "dedupe_key": "railway forestry museum|entertainment"}}, {"type": "Feature", "geometry": {"type": "Point", "coordinates": [-122.795028000001, 53.916561]}, "properties": {"name": "Rainbow Village", "poi_class": "Senior Housing", "subtype": "Affordable seniors/adults-with-disabilities housing", "address": "4066 Rainbow Drive", "city": "Prince George", "lon": -122.795028000001, "lat": 53.916561, "x_26910": 513463.7762445012, "y_26910": 5974257.079905607, "geocode_score": 100, "matched_address": "4066 Rainbow Dr", "source_name": "BC Housing Zone 12 / PGCOS Housing Guide", "source_url": "https://www.bchousing.org/sites/default/files/media/documents/Zone-12-Seniors-and-Adults-with-Disabilities.pdf", "confidence": "high", "notes": "40 units; Seniors, families, and persons with disabilities.", "address_query": "4066 Rainbow Drive", "dedupe_key": "rainbow village|senior housing"}}, {"type": "Feature", "geometry": {"type": "Point", "coordinates": [-120.674652, 51.7208871]}, "properties": {"name": "Rainforest to Gold Rush", "poi_class": "Entertainment", "subtype": "attraction", "address": "Prince George", "city": "Prince George", "lon": -120.674652, "lat": 51.7208871, "x_26910": "", "y_26910": "", "geocode_score": "", "matched_address": "", "source_name": "OpenStreetMap Overpass", "source_url": "https://overpass-api.de/", "confidence": "medium", "notes": "osm_type=relation; osm_id=9599901; tags={\"bicycle\": \"no\", \"colour\": \"#2C4736\", \"duration\": \"3 days\", \"fee\": \"yes\", \"from\": \"North Vancouver, British Columbia\", \"interval\": \"24:00:00-96:00:00\", \"name\": \"Rainforest to Gold Rush\", \"name_official\": \"Rainforest to Gold Rush\", \"natural\": \"wood\", \"network\": \"Rocky Mountaineer\", \"operator\": \"Rocky Mountaineer\", \"passenger\": \"national\", \"public_transport:version\": \"2\", \"ref\": \"RGR\", \"reservation\": \"required\", \"roundtrip\": \"yes\", \"route\": \"train\", \"to\": \"Jasper, Alberta\", \"tourism\": \"attraction\", \"type\": \"route\", \"website\": \"https://www.rockymountaineer.com/train-routes/rainforest-gold-rush\"}", "address_query": "", "dedupe_key": "rainforest to gold rush|entertainment"}}, {"type": "Feature", "geometry": {"type": "Point", "coordinates": [-122.751441000001, 53.905644]}, "properties": {"name": "RiverBend Manor", "poi_class": "Senior Housing", "subtype": "Housing/resource guide entry", "address": "1444 20th Avenue", "city": "Prince George", "lon": -122.751441000001, "lat": 53.905644, "x_26910": 516330.8457635138, "y_26910": 5973051.627761452, "geocode_score": 100, "matched_address": "1444 20th Ave", "source_name": "PGCOS Housing Resource Guide Fall 2025", "source_url": "https://www.pgcos.ca/wp-content/uploads/2025/11/Housing-Guide-fall-2025.pdf", "confidence": "high", "notes": "Affordable independent 55+ seniors housing.", "address_query": "1444 20th Avenue", "dedupe_key": "riverbend manor|senior housing"}}, {"type": "Feature", "geometry": {"type": "Point", "coordinates": [-122.754901500001, 53.898057]}, "properties": {"name": "Rodica Senior Home Care House", "poi_class": "Assisted Housing", "subtype": "Assisted Living - Seniors and Persons with Disabilities", "address": "2568 Victoria Street", "city": "Prince George", "lon": -122.754901500001, "lat": 53.898057, "x_26910": 516106.4172760052, "y_26910": 5972206.7193399165, "geocode_score": 100, "matched_address": "2568 Victoria St", "source_name": "BC Assisted Living Registry", "source_url": "https://connect.health.gov.bc.ca/assisted-living-residence?f%5B0%5D=city%3APrince%20George", "confidence": "high", "notes": "Registry operator: Rodica Senior Home Care; type=SN; phone=2364231565", "address_query": "2568 Victoria Street", "dedupe_key": "rodica senior home care house|assisted housing"}}, {"type": "Feature", "geometry": {"type": "Point", "coordinates": [-122.789943000001, 53.914896]}, "properties": {"name": "Spruceland", "poi_class": "Senior Housing", "subtype": "Affordable seniors/adults-with-disabilities housing", "address": "1010 Liard Drive", "city": "Prince George", "lon": -122.789943000001, "lat": 53.914896, "x_26910": 513798.3100486819, "y_26910": 5974072.811790663, "geocode_score": 100, "matched_address": "1010 Liard Dr", "source_name": "BC Housing Zone 12 / PGCOS Housing Guide", "source_url": "https://www.bchousing.org/sites/default/files/media/documents/Zone-12-Seniors-and-Adults-with-Disabilities.pdf", "confidence": "high", "notes": "50 studio units; Northern Health low-cost seniors housing.", "address_query": "1010 Liard Drive", "dedupe_key": "spruceland|senior housing"}}, {"type": "Feature", "geometry": {"type": "Point", "coordinates": [-122.764927500001, 53.90757]}, "properties": {"name": "St. Patrick's House", "poi_class": "Assisted Housing", "subtype": "Assisted Living - Supportive Recovery", "address": "1735 Yew Street", "city": "Prince George", "lon": -122.764927500001, "lat": 53.90757, "x_26910": 515444.10592696076, "y_26910": 5973262.889834351, "geocode_score": 100, "matched_address": "1735 Yew St", "source_name": "BC Assisted Living Registry", "source_url": "https://connect.health.gov.bc.ca/assisted-living-residence?f%5B0%5D=city%3APrince%20George", "confidence": "high", "notes": "Registry operator: The Governing Council of the Salvation Army in Canada; type=SU; phone=2505630444", "address_query": "1735 Yew Street", "dedupe_key": "st patrick s house|assisted housing"}}, {"type": "Feature", "geometry": {"type": "Point", "coordinates": [-122.756355000001, 53.901495]}, "properties": {"name": "Strathwood Townhouses", "poi_class": "Senior Housing", "subtype": "Affordable seniors/adults-with-disabilities housing", "address": "2362 Redwood Street", "city": "Prince George", "lon": -122.756355000001, "lat": 53.901495, "x_26910": 516009.5943894747, "y_26910": 5972588.896252745, "geocode_score": 100, "matched_address": "2362 Redwood St", "source_name": "BC Housing Zone 12 / PGCOS Housing Guide", "source_url": "https://www.bchousing.org/sites/default/files/media/documents/Zone-12-Seniors-and-Adults-with-Disabilities.pdf", "confidence": "high", "notes": "40 units; Seniors, families, and persons with disabilities.", "address_query": "2362 Redwood Street", "dedupe_key": "strathwood townhouses|senior housing"}}, {"type": "Feature", "geometry": {"type": "Point", "coordinates": [-122.7355138, 53.9053133]}, "properties": {"name": "The Exploration Place", "poi_class": "Entertainment", "subtype": "museum", "address": "333, Becott Place, Prince George", "city": "Prince George", "lon": -122.7355138, "lat": 53.9053133, "x_26910": "", "y_26910": "", "geocode_score": "", "matched_address": "", "source_name": "OpenStreetMap Overpass", "source_url": "https://overpass-api.de/", "confidence": "medium", "notes": "osm_type=way; osm_id=252066487; tags={\"addr:housenumber\": \"333\", \"addr:street\": \"Becott Place\", \"building\": \"yes\", \"email\": \"info@theexplorationplace.com\", \"name\": \"The Exploration Place\", \"opening_hours:covid19\": \"closed\", \"phone\": \"+1-250-562-1612\", \"tourism\": \"museum\", \"website\": \"https://theexplorationplace.com/\"}", "address_query": "", "dedupe_key": "the exploration place|entertainment"}}, {"type": "Feature", "geometry": {"type": "Point", "coordinates": [-122.762646000001, 53.90694]}, "properties": {"name": "Townhouses - Bowser", "poi_class": "Low Income Housing", "subtype": "Housing/resource guide entry", "address": "1975 Bowser Avenue", "city": "Prince George", "lon": -122.762646000001, "lat": 53.90694, "x_26910": 515594.22254878684, "y_26910": 5973193.296331166, "geocode_score": 100, "matched_address": "1975 Bowser Ave", "source_name": "PGCOS Housing Resource Guide Fall 2025", "source_url": "https://www.pgcos.ca/wp-content/uploads/2025/11/Housing-Guide-fall-2025.pdf", "confidence": "high", "notes": "Low-income individuals and families; rent shelter rate or 30% of income.", "address_query": "1975 Bowser Avenue", "dedupe_key": "townhouses bowser|low income housing"}}, {"type": "Feature", "geometry": {"type": "Point", "coordinates": [-122.7638676, 53.8945033]}, "properties": {"name": "Treasure Cove Casino", "poi_class": "Entertainment", "subtype": "casino", "address": "2005, Highway 97, Prince George", "city": "Prince George", "lon": -122.7638676, "lat": 53.8945033, "x_26910": "", "y_26910": "", "geocode_score": "", "matched_address": "", "source_name": "OpenStreetMap Overpass", "source_url": "https://overpass-api.de/", "confidence": "medium", "notes": "osm_type=node; osm_id=2089390356; tags={\"addr:city\": \"Prince George\", \"addr:country\": \"CA\", \"addr:housenumber\": \"2005\", \"addr:postcode\": \"V2N 7A3\", \"addr:province\": \"BC\", \"addr:street\": \"Highway 97\", \"amenity\": \"casino\", \"check_date\": \"2025-09-06\", \"email\": \"guestservices@treasurecovecasino.com\", \"gambling\": \"casino\", \"name\": \"Treasure Cove Casino\", \"opening_hours\": \"Mo-Th, Su 09:00-02:00; Th, Fr 09:00-04:00\", \"phone\": \"+1-866-561-2421\", \"website\": \"http://www.treasurecovehotel.net/casino/\"}", "address_query": "", "dedupe_key": "treasure cove casino|entertainment"}}, {"type": "Feature", "geometry": {"type": "Point", "coordinates": [-122.758195500001, 53.90748]}, "properties": {"name": "Ts'oo Yoh", "poi_class": "Senior Housing", "subtype": "Housing/resource guide entry", "address": "1811 Spruce Street", "city": "Prince George", "lon": -122.758195500001, "lat": 53.90748, "x_26910": 515886.3953748258, "y_26910": 5973254.363807546, "geocode_score": 100, "matched_address": "1811 Spruce St", "source_name": "PGCOS Housing Resource Guide Fall 2025", "source_url": "https://www.pgcos.ca/wp-content/uploads/2025/11/Housing-Guide-fall-2025.pdf", "confidence": "high", "notes": "Seniors 55+ affordable rental units.", "address_query": "1811 Spruce Street", "dedupe_key": "ts oo yoh|senior housing"}}, {"type": "Feature", "geometry": {"type": "Point", "coordinates": [-122.7494801, 53.9133489]}, "properties": {"name": "Two Rivers Gallery", "poi_class": "Entertainment", "subtype": "museum", "address": "725, Canada Games Way, Prince George", "city": "Prince George", "lon": -122.7494801, "lat": 53.9133489, "x_26910": "", "y_26910": "", "geocode_score": "", "matched_address": "", "source_name": "OpenStreetMap Overpass", "source_url": "https://overpass-api.de/", "confidence": "medium", "notes": "osm_type=way; osm_id=193603801; tags={\"addr:city\": \"Prince George\", \"addr:housenumber\": \"725\", \"addr:postcode\": \"V2L 5T1\", \"addr:street\": \"Canada Games Way\", \"building\": \"yes\", \"name\": \"Two Rivers Gallery\", \"phone\": \"+1-250-614-7800\", \"tourism\": \"museum\", \"website\": \"https://www.tworiversgallery.ca/\"}", "address_query": "", "dedupe_key": "two rivers gallery|entertainment"}}, {"type": "Feature", "geometry": {"type": "Point", "coordinates": [-122.7787944, 53.9018783]}, "properties": {"name": "Vanier Hall", "poi_class": "Entertainment", "subtype": "theatre", "address": "Prince George", "city": "Prince George", "lon": -122.7787944, "lat": 53.9018783, "x_26910": "", "y_26910": "", "geocode_score": "", "matched_address": "", "source_name": "OpenStreetMap Overpass", "source_url": "https://overpass-api.de/", "confidence": "medium", "notes": "osm_type=node; osm_id=9738391354; tags={\"amenity\": \"theatre\", \"name\": \"Vanier Hall\"}", "address_query": "", "dedupe_key": "vanier hall|entertainment"}}, {"type": "Feature", "geometry": {"type": "Point", "coordinates": [-122.748349500001, 53.905293]}, "properties": {"name": "Victoria Towers", "poi_class": "Senior Housing", "subtype": "Affordable seniors/adults-with-disabilities housing", "address": "1245 20th Avenue", "city": "Prince George", "lon": -122.748349500001, "lat": 53.905293, "x_26910": 516534.08816295443, "y_26910": 5973013.292473328, "geocode_score": 100, "matched_address": "1245 20th Ave", "source_name": "BC Housing Zone 12 / PGCOS Housing Guide", "source_url": "https://www.bchousing.org/sites/default/files/media/documents/Zone-12-Seniors-and-Adults-with-Disabilities.pdf", "confidence": "high", "notes": "81 units; Seniors, families, and persons with disabilities.", "address_query": "1245 20th Avenue", "dedupe_key": "victoria towers|senior housing"}}]}