{"type":"FeatureCollection","features":[{"type":"Feature","geometry":{"type":"Point","coordinates":[-122.76126102811199,53.94364981867475]},"properties":{"dataset":"motorcycle_crashes","datasetTitle":"Crashes involving motorcycles","year":2020,"location":"HART HWY & HART HWY FRTG & NORTHWOOD PULPMILL RD & NORTHWOOD PULPMILL RD OFFRAMP","municipality":"PRINCE GEORGE","crashCount":2,"sourceLocationName":"Hart Hwy  & Northwood Pulpmill Rd ","geocodeMatchType":"subset_intersection_name"}},{"type":"Feature","geometry":{"type":"Point","coordinates":[-122.78177628409276,53.915447860379075]},"properties":{"dataset":"motorcycle_crashes","datasetTitle":"Crashes involving motorcycles","year":2020,"location":"10TH AVE & CENTRAL ST E & CENTRAL ST W & HWY 97 S & TURNING LANE","municipality":"PRINCE GEORGE","crashCount":1,"sourceLocationName":"Hwy 97 S & 10th Ave ","geocodeMatchType":"subset_intersection_name"}},{"type":"Feature","geometry":{"type":"Point","coordinates":[-122.74399761023611,53.914548932470986]},"properties":{"dataset":"motorcycle_crashes","datasetTitle":"Crashes involving motorcycles","year":2020,"location":"5TH AVE & GEORGE ST","municipality":"PRINCE GEORGE","crashCount":1,"sourceLocationName":"George St  & 5th Ave ","geocodeMatchType":"exact_intersection_name"}},{"type":"Feature","geometry":{"type":"Point","coordinates":[-122.76890290888922,53.97125439455562]},"properties":{"dataset":"motorcycle_crashes","datasetTitle":"Crashes involving motorcycles","year":2020,"location":"COLLINS RD & GRANT RD & HART HWY & RANDLE RD","municipality":"PRINCE GEORGE","crashCount":1,"sourceLocationName":"Grant Rd  & Randle Rd ","geocodeMatchType":"subset_intersection_name"}},{"type":"Feature","geometry":{"type":"Point","coordinates":[-122.77015009178176,53.88093857899615]},"properties":{"dataset":"motorcycle_crashes","datasetTitle":"Crashes involving motorcycles","year":2020,"location":"COWART RD & HWY 16 W & VANCE RD & CEMETERY ACCESS ROAD & TURNING LANE","municipality":"PRINCE GEORGE","crashCount":1,"sourceLocationName":"Hwy 16 W & Vance Rd ","geocodeMatchType":"subset_intersection_name"}},{"type":"Feature","geometry":{"type":"Point","coordinates":[-122.78062589085935,53.93106085695682]},"properties":{"dataset":"motorcycle_crashes","datasetTitle":"Crashes involving motorcycles","year":2020,"location":"HART HWY & HART HWY ONRAMP & HWY 97 S & N NECHAKO RD OFFRAMP & N NECHAKO RD ONRAMP & NECHAKO RD OVERPASS & NORTH NECHAKO RD & INDUSTRIAL ACCESS ROAD","municipality":"PRINCE GEORGE","crashCount":1,"sourceLocationName":"Hart Hwy  & North Nechako Rd ","geocodeMatchType":"subset_intersection_name"}},{"type":"Feature","geometry":{"type":"Point","coordinates":[-122.78220102448,53.89962927490321]},"properties":{"dataset":"motorcycle_crashes","datasetTitle":"Crashes involving motorcycles","year":2020,"location":"MASSEY DR & WESTWOOD DR & TURNING LANE","municipality":"PRINCE GEORGE","crashCount":1,"sourceLocationName":"Massey Dr  & Westwood Dr ","geocodeMatchType":"exact_intersection_name"}},{"type":"Feature","geometry":{"type":"Point","coordinates":[-122.7410487021898,53.91560474374013]},"properties":{"dataset":"motorcycle_crashes","datasetTitle":"Crashes involving motorcycles","year":2021,"location":"3RD AVE & QUEENSWAY","municipality":"PRINCE GEORGE","crashCount":1,"sourceLocationName":"Queensway   & 3rd Ave ","geocodeMatchType":"exact_intersection_name"}},{"type":"Feature","geometry":{"type":"Point","coordinates":[-122.78177854610227,53.9205941555201]},"properties":{"dataset":"motorcycle_crashes","datasetTitle":"Crashes involving motorcycles","year":2021,"location":"5TH AVE & CENTRAL ST E & HWY 97 S & TURNING LANE","municipality":"PRINCE GEORGE","crashCount":1,"sourceLocationName":"Hwy 97 S & 5th Ave ","geocodeMatchType":"subset_intersection_name"}},{"type":"Feature","geometry":{"type":"Point","coordinates":[-122.78220102448,53.89962927490321]},"properties":{"dataset":"motorcycle_crashes","datasetTitle":"Crashes involving motorcycles","year":2021,"location":"MASSEY DR & WESTWOOD DR & TURNING LANE","municipality":"PRINCE GEORGE","crashCount":1,"sourceLocationName":"Massey Dr  & Westwood Dr ","geocodeMatchType":"exact_intersection_name"}},{"type":"Feature","geometry":{"type":"Point","coordinates":[-122.78177628409276,53.915447860379075]},"properties":{"dataset":"motorcycle_crashes","datasetTitle":"Crashes involving motorcycles","year":2022,"location":"10TH AVE & CENTRAL ST E & CENTRAL ST W & HWY 97 S & TURNING LANE","municipality":"PRINCE GEORGE","crashCount":1,"sourceLocationName":"Hwy 97 S & 10th Ave ","geocodeMatchType":"subset_intersection_name"}},{"type":"Feature","geometry":{"type":"Point","coordinates":[-122.78179494195119,53.910312151553725]},"properties":{"dataset":"motorcycle_crashes","datasetTitle":"Crashes involving motorcycles","year":2022,"location":"15TH AVE & CENTRAL ST E & CENTRAL ST W & HWY 97 S & TURNING LANE","municipality":"PRINCE GEORGE","crashCount":1,"sourceLocationName":"Hwy 97 S & 15th Ave ","geocodeMatchType":"subset_intersection_name"}},{"type":"Feature","geometry":{"type":"Point","coordinates":[-122.75787971344289,53.90985047665654]},"properties":{"dataset":"motorcycle_crashes","datasetTitle":"Crashes involving motorcycles","year":2022,"location":"15TH AVE & SPRUCE ST & MALL ACCESS & TURNING LANE","municipality":"PRINCE GEORGE","crashCount":1,"sourceLocationName":"15th Ave  & Spruce St ","geocodeMatchType":"subset_intersection_name"}},{"type":"Feature","geometry":{"type":"Point","coordinates":[-122.78432072548367,53.92061615056932]},"properties":{"dataset":"motorcycle_crashes","datasetTitle":"Crashes involving motorcycles","year":2022,"location":"5TH AVE & AHBAU ST & LYON ST","municipality":"PRINCE GEORGE","crashCount":1,"sourceLocationName":"5th Ave  & Lyon St ","geocodeMatchType":"subset_intersection_name"}},{"type":"Feature","geometry":{"type":"Point","coordinates":[-122.7692973995918,53.917645464343316]},"properties":{"dataset":"motorcycle_crashes","datasetTitle":"Crashes involving motorcycles","year":2022,"location":"8TH AVE & CARNEY ST","municipality":"PRINCE GEORGE","crashCount":1,"sourceLocationName":"Carney St  & 8th Ave ","geocodeMatchType":"exact_intersection_name"}},{"type":"Feature","geometry":{"type":"Point","coordinates":[-122.7522413647282,53.91402550297164]},"properties":{"dataset":"motorcycle_crashes","datasetTitle":"Crashes involving motorcycles","year":2022,"location":"8TH AVE & VICTORIA ST","municipality":"PRINCE GEORGE","crashCount":1,"sourceLocationName":"Victoria St  & 8th Ave ","geocodeMatchType":"exact_intersection_name"}},{"type":"Feature","geometry":{"type":"Point","coordinates":[-122.80703578190891,53.922499503227684]},"properties":{"dataset":"motorcycle_crashes","datasetTitle":"Crashes involving motorcycles","year":2022,"location":"CARRIER AVE & HILL AVE & TABOR BLVD","municipality":"PRINCE GEORGE","crashCount":1,"sourceLocationName":"Tabor Blvd  & Hill Ave","geocodeMatchType":"subset_intersection_name"}},{"type":"Feature","geometry":{"type":"Point","coordinates":[-122.61665475361598,53.898384455367754]},"properties":{"dataset":"motorcycle_crashes","datasetTitle":"Crashes involving motorcycles","year":2022,"location":"EVASKO RD & GISCOME RD","municipality":"PRINCE GEORGE","crashCount":1,"sourceLocationName":"Giscome Rd  & Evasko Rd ","geocodeMatchType":"exact_intersection_name"}},{"type":"Feature","geometry":{"type":"Point","coordinates":[-122.83362087648663,53.8403468540641]},"properties":{"dataset":"motorcycle_crashes","datasetTitle":"Crashes involving motorcycles","year":2022,"location":"HALDI RD & HWY 16 W & TURNING LANE","municipality":"PRINCE GEORGE","crashCount":1,"sourceLocationName":"Hwy 16 W & Haldi Rd ","geocodeMatchType":"exact_intersection_name"}},{"type":"Feature","geometry":{"type":"Point","coordinates":[-122.77958789188526,53.88456263041591]},"properties":{"dataset":"motorcycle_crashes","datasetTitle":"Crashes involving motorcycles","year":2022,"location":"RANGE RD & WESTWOOD DR","municipality":"PRINCE GEORGE","crashCount":1,"sourceLocationName":"Westwood Dr  & Range Rd ","geocodeMatchType":"exact_intersection_name"}},{"type":"Feature","geometry":{"type":"Point","coordinates":[-122.7548642990933,53.910532795614444]},"properties":{"dataset":"motorcycle_crashes","datasetTitle":"Crashes involving motorcycles","year":2023,"location":"15TH AVE & PATRICIA BLVD & VICTORIA ST & TURNING LANE","municipality":"PRINCE GEORGE","crashCount":1,"sourceLocationName":"Victoria St  & 15th Ave ","geocodeMatchType":"subset_intersection_name"}},{"type":"Feature","geometry":{"type":"Point","coordinates":[-122.80702669201499,53.91044044434808]},"properties":{"dataset":"motorcycle_crashes","datasetTitle":"Crashes involving motorcycles","year":2023,"location":"15TH AVE & TABOR BLVD","municipality":"PRINCE GEORGE","crashCount":1,"sourceLocationName":"15th Ave  & Tabor Blvd ","geocodeMatchType":"exact_intersection_name"}},{"type":"Feature","geometry":{"type":"Point","coordinates":[-122.79760459080913,53.91157711038689]},"properties":{"dataset":"motorcycle_crashes","datasetTitle":"Crashes involving motorcycles","year":2023,"location":"ALEZA CRES & OSPIKA BLVD","municipality":"PRINCE GEORGE","crashCount":1,"sourceLocationName":"Ospika Blvd  & Aleza Cres ","geocodeMatchType":"exact_intersection_name"}},{"type":"Feature","geometry":{"type":"Point","coordinates":[-122.80116565456706,53.988857268522445]},"properties":{"dataset":"motorcycle_crashes","datasetTitle":"Crashes involving motorcycles","year":2023,"location":"AUSTIN RD W & KELLY RD S","municipality":"PRINCE GEORGE","crashCount":1,"sourceLocationName":"Austin Rd W & Kelly Rd S","geocodeMatchType":"exact_intersection_name"}},{"type":"Feature","geometry":{"type":"Point","coordinates":[-122.75994634796145,53.93830782107887]},"properties":{"dataset":"motorcycle_crashes","datasetTitle":"Crashes involving motorcycles","year":2023,"location":"BLUEBERRY RD & HART HWY & HOFERKAMP RD & SCALE ACCESS & TURNING LANE","municipality":"PRINCE GEORGE","crashCount":1,"sourceLocationName":"Hart Hwy  & Hoferkamp Rd ","geocodeMatchType":"subset_intersection_name"}},{"type":"Feature","geometry":{"type":"Point","coordinates":[-122.7710521207196,53.84646157118433]},"properties":{"dataset":"motorcycle_crashes","datasetTitle":"Crashes involving motorcycles","year":2023,"location":"DOMANO BLVD & GLADSTONE DR & ST LAWRENCE AVE","municipality":"PRINCE GEORGE","crashCount":1,"sourceLocationName":"Domano Blvd  & Domano Blvd ","geocodeMatchType":"subset_intersection_name"}},{"type":"Feature","geometry":{"type":"Point","coordinates":[-122.76699672121138,53.86370190114356]},"properties":{"dataset":"motorcycle_crashes","datasetTitle":"Crashes involving motorcycles","year":2023,"location":"DOMANO BLVD & TRENT DR","municipality":"PRINCE GEORGE","crashCount":1,"sourceLocationName":"Domano Blvd  & Trent Dr ","geocodeMatchType":"exact_intersection_name"}},{"type":"Feature","geometry":{"type":"Point","coordinates":[-122.76736310375131,53.88887407036401]},"properties":{"dataset":"motorcycle_crashes","datasetTitle":"Crashes involving motorcycles","year":2023,"location":"FERRY AVE & HWY 16 W & TURNING LANE","municipality":"PRINCE GEORGE","crashCount":1,"sourceLocationName":"Hwy 16 W & Ferry Ave ","geocodeMatchType":"exact_intersection_name"}},{"type":"Feature","geometry":{"type":"Point","coordinates":[-122.6653861314918,53.89831669252651]},"properties":{"dataset":"motorcycle_crashes","datasetTitle":"Crashes involving motorcycles","year":2023,"location":"GISCOME RD & OLD CARIBOO HWY","municipality":"PRINCE GEORGE","crashCount":1,"sourceLocationName":"Old Cariboo Hwy  & Giscome Rd ","geocodeMatchType":"exact_intersection_name"}},{"type":"Feature","geometry":{"type":"Point","coordinates":[-122.77435190570137,53.89909187852446]},"properties":{"dataset":"motorcycle_crashes","datasetTitle":"Crashes involving motorcycles","year":2023,"location":"HWY 97 S & MASSEY DR & PINE CENTRE RD & PINE CENTRE RD OFFRAMP & MALL ACCESS & TURNING LANE","municipality":"PRINCE GEORGE","crashCount":1,"sourceLocationName":"Hwy 97 S & Pine Centre Rd ","geocodeMatchType":"subset_intersection_name"}},{"type":"Feature","geometry":{"type":"Point","coordinates":[-122.83056392977731,53.96240035196523]},"properties":{"dataset":"motorcycle_crashes","datasetTitle":"Crashes involving motorcycles","year":2023,"location":"NORTH NECHAKO RD & RIVERVIEW RD","municipality":"PRINCE GEORGE","crashCount":1,"sourceLocationName":"North Nechako Rd  & Riverview Rd ","geocodeMatchType":"exact_intersection_name"}},{"type":"Feature","geometry":{"type":"Point","coordinates":[-122.77671707651508,53.920625853155975]},"properties":{"dataset":"motorcycle_crashes","datasetTitle":"Crashes involving motorcycles","year":2024,"location":"5TH AVE & HARPER ST","municipality":"PRINCE GEORGE","crashCount":2,"sourceLocationName":"5th Ave  & Harper St ","geocodeMatchType":"exact_intersection_name"}},{"type":"Feature","geometry":{"type":"Point","coordinates":[-122.79975140654926,53.92062327015756]},"properties":{"dataset":"motorcycle_crashes","datasetTitle":"Crashes involving motorcycles","year":2024,"location":"5TH AVE & BRIGADE DR & KERRY ST","municipality":"PRINCE GEORGE","crashCount":1,"sourceLocationName":"5th Ave  & Brigade Dr ","geocodeMatchType":"subset_intersection_name"}},{"type":"Feature","geometry":{"type":"Point","coordinates":[-122.78177854610227,53.9205941555201]},"properties":{"dataset":"motorcycle_crashes","datasetTitle":"Crashes involving motorcycles","year":2024,"location":"5TH AVE & CENTRAL ST E & HWY 97 S & TURNING LANE","municipality":"PRINCE GEORGE","crashCount":1,"sourceLocationName":"Hwy 97 S & 5th Ave ","geocodeMatchType":"subset_intersection_name"}},{"type":"Feature","geometry":{"type":"Point","coordinates":[-122.80762434320357,53.92062910542345]},"properties":{"dataset":"motorcycle_crashes","datasetTitle":"Crashes involving motorcycles","year":2024,"location":"5TH AVE & TABOR BLVD","municipality":"PRINCE GEORGE","crashCount":1,"sourceLocationName":"5th Ave  & Tabor Blvd ","geocodeMatchType":"exact_intersection_name"}},{"type":"Feature","geometry":{"type":"Point","coordinates":[-122.75994634796145,53.93830782107887]},"properties":{"dataset":"motorcycle_crashes","datasetTitle":"Crashes involving motorcycles","year":2024,"location":"BLUEBERRY RD & HART HWY & HOFERKAMP RD & SCALE ACCESS & TURNING LANE","municipality":"PRINCE GEORGE","crashCount":1,"sourceLocationName":"Hart Hwy  & Hoferkamp Rd ","geocodeMatchType":"subset_intersection_name"}},{"type":"Feature","geometry":{"type":"Point","coordinates":[-122.77367095575373,53.90357554176433]},"properties":{"dataset":"motorcycle_crashes","datasetTitle":"Crashes involving motorcycles","year":2024,"location":"DEL LAVERDURE WAY & MASSEY DR","municipality":"PRINCE GEORGE","crashCount":1,"sourceLocationName":"Massey Dr  & Del Laverdure Way ","geocodeMatchType":"exact_intersection_name"}},{"type":"Feature","geometry":{"type":"Point","coordinates":[-122.7710521207196,53.84646157118433]},"properties":{"dataset":"motorcycle_crashes","datasetTitle":"Crashes involving motorcycles","year":2024,"location":"DOMANO BLVD & HWY 16 W & TYNER BLVD & TURNING LANE","municipality":"PRINCE GEORGE","crashCount":1,"sourceLocationName":"Domano Blvd  & Domano Blvd ","geocodeMatchType":"subset_intersection_name"}},{"type":"Feature","geometry":{"type":"Point","coordinates":[-122.77041713510022,53.84894206001694]},"properties":{"dataset":"motorcycle_crashes","datasetTitle":"Crashes involving motorcycles","year":2024,"location":"DOMANO BLVD & MALASPINA AVE","municipality":"PRINCE GEORGE","crashCount":1,"sourceLocationName":"Domano Blvd  & Malaspina Ave ","geocodeMatchType":"exact_intersection_name"}},{"type":"Feature","geometry":{"type":"Point","coordinates":[-122.78902474421145,53.89575059327287]},"properties":{"dataset":"motorcycle_crashes","datasetTitle":"Crashes involving motorcycles","year":2024,"location":"DUFFERIN AVE & FOREST AVE & OSPIKA BLVD","municipality":"PRINCE GEORGE","crashCount":1,"sourceLocationName":"Ospika Blvd  & Forest Ave ","geocodeMatchType":"subset_intersection_name"}},{"type":"Feature","geometry":{"type":"Point","coordinates":[-122.80095549920783,53.999154791952165]},"properties":{"dataset":"motorcycle_crashes","datasetTitle":"Crashes involving motorcycles","year":2024,"location":"HART HWY & HART HWY FRTG & NORDIC DR","municipality":"PRINCE GEORGE","crashCount":1,"sourceLocationName":"Hart Hwy  & Nordic Dr ","geocodeMatchType":"subset_intersection_name"}}]}
