{"type":"FeatureCollection","features":[{"type":"Feature","geometry":{"type":"Point","coordinates":[-122.76929725602113,53.91542380304837]},"properties":{"dataset":"cyclist_crashes","datasetTitle":"Crashes involving cyclists","year":2020,"location":"10TH AVE & CARNEY ST","municipality":"PRINCE GEORGE","crashCount":1,"sourceLocationName":"Carney St  & 10th Ave ","geocodeMatchType":"exact_intersection_name"}},{"type":"Feature","geometry":{"type":"Point","coordinates":[-122.79747485365283,53.91031461599602]},"properties":{"dataset":"cyclist_crashes","datasetTitle":"Crashes involving cyclists","year":2020,"location":"15TH AVE & 15TH AVE FRTG & OSPIKA BLVD","municipality":"PRINCE GEORGE","crashCount":1,"sourceLocationName":"Ospika Blvd  & 15th Ave ","geocodeMatchType":"subset_intersection_name"}},{"type":"Feature","geometry":{"type":"Point","coordinates":[-122.78179494195119,53.910312151553725]},"properties":{"dataset":"cyclist_crashes","datasetTitle":"Crashes involving cyclists","year":2020,"location":"15TH AVE & CENTRAL ST E & CENTRAL ST W & HWY 97 S & TURNING LANE","municipality":"PRINCE GEORGE","crashCount":1,"sourceLocationName":"Hwy 97 S & 15th Ave ","geocodeMatchType":"subset_intersection_name"}},{"type":"Feature","geometry":{"type":"Point","coordinates":[-122.76394479751441,53.9103781471734]},"properties":{"dataset":"cyclist_crashes","datasetTitle":"Crashes involving cyclists","year":2020,"location":"15TH AVE & EDMONTON ST","municipality":"PRINCE GEORGE","crashCount":1,"sourceLocationName":"15th Ave  & Edmonton St ","geocodeMatchType":"exact_intersection_name"}},{"type":"Feature","geometry":{"type":"Point","coordinates":[-122.81162073426202,53.91037359785447]},"properties":{"dataset":"cyclist_crashes","datasetTitle":"Crashes involving cyclists","year":2020,"location":"15TH AVE & FOOTHILLS BLVD & UNIVERSITY WAY","municipality":"PRINCE GEORGE","crashCount":1,"sourceLocationName":"Foothills Blvd  & 15th Ave ","geocodeMatchType":"subset_intersection_name"}},{"type":"Feature","geometry":{"type":"Point","coordinates":[-122.73942689740369,53.91756997144434]},"properties":{"dataset":"cyclist_crashes","datasetTitle":"Crashes involving cyclists","year":2020,"location":"1ST AVE & QUEENSWAY","municipality":"PRINCE GEORGE","crashCount":1,"sourceLocationName":"1st Ave  & Queensway  ","geocodeMatchType":"exact_intersection_name"}},{"type":"Feature","geometry":{"type":"Point","coordinates":[-122.75286633413029,53.913255575865634]},"properties":{"dataset":"cyclist_crashes","datasetTitle":"Crashes involving cyclists","year":2020,"location":"9TH AVE & VICTORIA ST","municipality":"PRINCE GEORGE","crashCount":1,"sourceLocationName":"Victoria St  & 9th Ave ","geocodeMatchType":"exact_intersection_name"}},{"type":"Feature","geometry":{"type":"Point","coordinates":[-122.7710521207196,53.84646157118433]},"properties":{"dataset":"cyclist_crashes","datasetTitle":"Crashes involving cyclists","year":2020,"location":"DAKELH TI & DOMANO BLVD & MCGILL CRES & TURNING LANE","municipality":"PRINCE GEORGE","crashCount":1,"sourceLocationName":"Domano Blvd  & Domano Blvd ","geocodeMatchType":"subset_intersection_name"}},{"type":"Feature","geometry":{"type":"Point","coordinates":[-122.7796791963073,53.89208116098949]},"properties":{"dataset":"cyclist_crashes","datasetTitle":"Crashes involving cyclists","year":2020,"location":"PINEWOOD AVE & WESTWOOD DR","municipality":"PRINCE GEORGE","crashCount":1,"sourceLocationName":"Westwood Dr  & Pinewood Ave ","geocodeMatchType":"exact_intersection_name"}},{"type":"Feature","geometry":{"type":"Point","coordinates":[-122.78698619107912,53.98951914251626]},"properties":{"dataset":"cyclist_crashes","datasetTitle":"Crashes involving cyclists","year":2021,"location":"AUSTIN RD E & AUSTIN RD W & HART HWY & HART HWY FRTG & TURNING LANE","municipality":"PRINCE GEORGE","crashCount":2,"sourceLocationName":"Hart Hwy  & Austin Rd W","geocodeMatchType":"subset_intersection_name"}},{"type":"Feature","geometry":{"type":"Point","coordinates":[-122.8128201023635,53.929938259176396]},"properties":{"dataset":"cyclist_crashes","datasetTitle":"Crashes involving cyclists","year":2021,"location":"1ST AVE & FREIMULLER AVE","municipality":"PRINCE GEORGE","crashCount":1,"sourceLocationName":"1st Ave  & Freimuller Ave ","geocodeMatchType":"exact_intersection_name"}},{"type":"Feature","geometry":{"type":"Point","coordinates":[-122.74338122958899,53.915305753250905]},"properties":{"dataset":"cyclist_crashes","datasetTitle":"Crashes involving cyclists","year":2021,"location":"4TH AVE & GEORGE ST","municipality":"PRINCE GEORGE","crashCount":1,"sourceLocationName":"4th Ave  & George St ","geocodeMatchType":"exact_intersection_name"}},{"type":"Feature","geometry":{"type":"Point","coordinates":[-122.7692973995918,53.917645464343316]},"properties":{"dataset":"cyclist_crashes","datasetTitle":"Crashes involving cyclists","year":2021,"location":"8TH AVE & CARNEY ST","municipality":"PRINCE GEORGE","crashCount":1,"sourceLocationName":"Carney St  & 8th Ave ","geocodeMatchType":"exact_intersection_name"}},{"type":"Feature","geometry":{"type":"Point","coordinates":[-122.75994634796145,53.93830782107887]},"properties":{"dataset":"cyclist_crashes","datasetTitle":"Crashes involving cyclists","year":2021,"location":"BLUEBERRY RD & HART HWY & HOFERKAMP RD & SCALE ACCESS & TURNING LANE","municipality":"PRINCE GEORGE","crashCount":1,"sourceLocationName":"Hart Hwy  & Hoferkamp Rd ","geocodeMatchType":"subset_intersection_name"}},{"type":"Feature","geometry":{"type":"Point","coordinates":[-122.78723029011171,53.888222873019025]},"properties":{"dataset":"cyclist_crashes","datasetTitle":"Crashes involving cyclists","year":2021,"location":"FERRY AVE & OSPIKA BLVD","municipality":"PRINCE GEORGE","crashCount":1,"sourceLocationName":"Ospika Blvd  & Ferry Ave ","geocodeMatchType":"exact_intersection_name"}},{"type":"Feature","geometry":{"type":"Point","coordinates":[-122.7708357032018,53.888759334056346]},"properties":{"dataset":"cyclist_crashes","datasetTitle":"Crashes involving cyclists","year":2021,"location":"FERRY AVE & RECPLACE DR","municipality":"PRINCE GEORGE","crashCount":1,"sourceLocationName":"Ferry Ave  & Recplace Dr ","geocodeMatchType":"exact_intersection_name"}},{"type":"Feature","geometry":{"type":"Point","coordinates":[-122.7968754123187,53.91403280756822]},"properties":{"dataset":"cyclist_crashes","datasetTitle":"Crashes involving cyclists","year":2021,"location":"OSPIKA BLVD & QUAW AVE","municipality":"PRINCE GEORGE","crashCount":1,"sourceLocationName":"Ospika Blvd  & Quaw Ave ","geocodeMatchType":"exact_intersection_name"}},{"type":"Feature","geometry":{"type":"Point","coordinates":[-122.76394479751441,53.9103781471734]},"properties":{"dataset":"cyclist_crashes","datasetTitle":"Crashes involving cyclists","year":2022,"location":"15TH AVE & EDMONTON ST","municipality":"PRINCE GEORGE","crashCount":1,"sourceLocationName":"15th Ave  & Edmonton St ","geocodeMatchType":"exact_intersection_name"}},{"type":"Feature","geometry":{"type":"Point","coordinates":[-122.81162073426202,53.91037359785447]},"properties":{"dataset":"cyclist_crashes","datasetTitle":"Crashes involving cyclists","year":2022,"location":"15TH AVE & FOOTHILLS BLVD & UNIVERSITY WAY","municipality":"PRINCE GEORGE","crashCount":1,"sourceLocationName":"Foothills Blvd  & 15th Ave ","geocodeMatchType":"subset_intersection_name"}},{"type":"Feature","geometry":{"type":"Point","coordinates":[-122.7548642990933,53.910532795614444]},"properties":{"dataset":"cyclist_crashes","datasetTitle":"Crashes involving cyclists","year":2022,"location":"15TH AVE & PATRICIA BLVD & VICTORIA ST & TURNING LANE","municipality":"PRINCE GEORGE","crashCount":1,"sourceLocationName":"Victoria St  & 15th Ave ","geocodeMatchType":"subset_intersection_name"}},{"type":"Feature","geometry":{"type":"Point","coordinates":[-122.7579380281123,53.908453412529106]},"properties":{"dataset":"cyclist_crashes","datasetTitle":"Crashes involving cyclists","year":2022,"location":"17TH AVE & SPRUCE ST","municipality":"PRINCE GEORGE","crashCount":1,"sourceLocationName":"Spruce St  & 17th Ave ","geocodeMatchType":"exact_intersection_name"}},{"type":"Feature","geometry":{"type":"Point","coordinates":[-122.7975402414345,53.90731179379243]},"properties":{"dataset":"cyclist_crashes","datasetTitle":"Crashes involving cyclists","year":2022,"location":"18TH AVE & OSPIKA BLVD","municipality":"PRINCE GEORGE","crashCount":1,"sourceLocationName":"Ospika Blvd  & 18th Ave ","geocodeMatchType":"exact_intersection_name"}},{"type":"Feature","geometry":{"type":"Point","coordinates":[-122.78180081482267,53.90360164570181]},"properties":{"dataset":"cyclist_crashes","datasetTitle":"Crashes involving cyclists","year":2022,"location":"22ND AVE & CENTRAL ST E & GRIFFITHS AVE & HWY 97 S & WESTWOOD DR & TURNING LANE","municipality":"PRINCE GEORGE","crashCount":1,"sourceLocationName":"Hwy 97 S & 22nd Ave ","geocodeMatchType":"subset_intersection_name"}},{"type":"Feature","geometry":{"type":"Point","coordinates":[-122.74012988917454,53.914390134744096]},"properties":{"dataset":"cyclist_crashes","datasetTitle":"Crashes involving cyclists","year":2022,"location":"4TH AVE & ONTARIO ST","municipality":"PRINCE GEORGE","crashCount":1,"sourceLocationName":"Ontario St  & 4th Ave ","geocodeMatchType":"exact_intersection_name"}},{"type":"Feature","geometry":{"type":"Point","coordinates":[-122.78432072548367,53.92061615056932]},"properties":{"dataset":"cyclist_crashes","datasetTitle":"Crashes involving cyclists","year":2022,"location":"5TH AVE & AHBAU ST & LYON ST","municipality":"PRINCE GEORGE","crashCount":1,"sourceLocationName":"5th Ave  & Lyon St ","geocodeMatchType":"subset_intersection_name"}},{"type":"Feature","geometry":{"type":"Point","coordinates":[-122.78177854610227,53.9205941555201]},"properties":{"dataset":"cyclist_crashes","datasetTitle":"Crashes involving cyclists","year":2022,"location":"5TH AVE & CENTRAL ST E & HWY 97 S & TURNING LANE","municipality":"PRINCE GEORGE","crashCount":1,"sourceLocationName":"Hwy 97 S & 5th Ave ","geocodeMatchType":"subset_intersection_name"}},{"type":"Feature","geometry":{"type":"Point","coordinates":[-122.81925121571736,53.92063407345569]},"properties":{"dataset":"cyclist_crashes","datasetTitle":"Crashes involving cyclists","year":2022,"location":"5TH AVE & FOOTHILLS BLVD","municipality":"PRINCE GEORGE","crashCount":1,"sourceLocationName":"Foothills Blvd  & 5th Ave ","geocodeMatchType":"exact_intersection_name"}},{"type":"Feature","geometry":{"type":"Point","coordinates":[-122.74072739933791,53.91362128016675]},"properties":{"dataset":"cyclist_crashes","datasetTitle":"Crashes involving cyclists","year":2022,"location":"5TH AVE & ONTARIO ST","municipality":"PRINCE GEORGE","crashCount":1,"sourceLocationName":"Ontario St  & 5th Ave ","geocodeMatchType":"exact_intersection_name"}},{"type":"Feature","geometry":{"type":"Point","coordinates":[-122.78235595670778,53.917630084074865]},"properties":{"dataset":"cyclist_crashes","datasetTitle":"Crashes involving cyclists","year":2022,"location":"8TH AVE & CENTRAL ST W","municipality":"PRINCE GEORGE","crashCount":1,"sourceLocationName":"Central St W & 8th Ave ","geocodeMatchType":"exact_intersection_name"}},{"type":"Feature","geometry":{"type":"Point","coordinates":[-122.78698619107912,53.98951914251626]},"properties":{"dataset":"cyclist_crashes","datasetTitle":"Crashes involving cyclists","year":2022,"location":"AUSTIN RD E & AUSTIN RD W & HART HWY & HART HWY FRTG & TURNING LANE","municipality":"PRINCE GEORGE","crashCount":1,"sourceLocationName":"Hart Hwy  & Austin Rd W","geocodeMatchType":"subset_intersection_name"}},{"type":"Feature","geometry":{"type":"Point","coordinates":[-122.7692733112798,53.910361039113525]},"properties":{"dataset":"cyclist_crashes","datasetTitle":"Crashes involving cyclists","year":2023,"location":"15TH AVE & CARNEY ST","municipality":"PRINCE GEORGE","crashCount":1,"sourceLocationName":"15th Ave  & Carney St ","geocodeMatchType":"exact_intersection_name"}},{"type":"Feature","geometry":{"type":"Point","coordinates":[-122.79179532834341,53.91021416704673]},"properties":{"dataset":"cyclist_crashes","datasetTitle":"Crashes involving cyclists","year":2023,"location":"15TH AVE & QUINN ST","municipality":"PRINCE GEORGE","crashCount":1,"sourceLocationName":"15th Ave  & Quinn St ","geocodeMatchType":"exact_intersection_name"}},{"type":"Feature","geometry":{"type":"Point","coordinates":[-122.75824939815077,53.91477611956704]},"properties":{"dataset":"cyclist_crashes","datasetTitle":"Crashes involving cyclists","year":2023,"location":"9TH AVE & WINNIPEG ST","municipality":"PRINCE GEORGE","crashCount":1,"sourceLocationName":"Winnipeg St  & 9th Ave ","geocodeMatchType":"exact_intersection_name"}},{"type":"Feature","geometry":{"type":"Point","coordinates":[-122.78559180190067,53.86986585776354]},"properties":{"dataset":"cyclist_crashes","datasetTitle":"Crashes involving cyclists","year":2023,"location":"BAKER RD & GANNETT RD & TYNER BLVD","municipality":"PRINCE GEORGE","crashCount":1,"sourceLocationName":"Tyner Blvd  & Baker Rd ","geocodeMatchType":"subset_intersection_name"}},{"type":"Feature","geometry":{"type":"Point","coordinates":[-122.75948721738919,53.91324681464521]},"properties":{"dataset":"cyclist_crashes","datasetTitle":"Crashes involving cyclists","year":2024,"location":"11TH AVE & WINNIPEG ST","municipality":"PRINCE GEORGE","crashCount":2,"sourceLocationName":"Winnipeg St  & 11th Ave ","geocodeMatchType":"exact_intersection_name"}},{"type":"Feature","geometry":{"type":"Point","coordinates":[-122.78179494195119,53.910312151553725]},"properties":{"dataset":"cyclist_crashes","datasetTitle":"Crashes involving cyclists","year":2024,"location":"15TH AVE & CENTRAL ST E & CENTRAL ST W & HWY 97 S & TURNING LANE","municipality":"PRINCE GEORGE","crashCount":2,"sourceLocationName":"Hwy 97 S & 15th Ave ","geocodeMatchType":"subset_intersection_name"}},{"type":"Feature","geometry":{"type":"Point","coordinates":[-122.76929725602113,53.91542380304837]},"properties":{"dataset":"cyclist_crashes","datasetTitle":"Crashes involving cyclists","year":2024,"location":"10TH AVE & CARNEY ST","municipality":"PRINCE GEORGE","crashCount":1,"sourceLocationName":"Carney St  & 10th Ave ","geocodeMatchType":"exact_intersection_name"}},{"type":"Feature","geometry":{"type":"Point","coordinates":[-122.76719262100009,53.9064125236042]},"properties":{"dataset":"cyclist_crashes","datasetTitle":"Crashes involving cyclists","year":2024,"location":"20TH AVE & CARNEY ST & MASSEY DR & WINNIPEG ST & TURNING LANE","municipality":"PRINCE GEORGE","crashCount":1,"sourceLocationName":"Massey Dr  & Carney St ","geocodeMatchType":"subset_intersection_name"}},{"type":"Feature","geometry":{"type":"Point","coordinates":[-122.7827872921713,53.92073572497236]},"properties":{"dataset":"cyclist_crashes","datasetTitle":"Crashes involving cyclists","year":2024,"location":"5TH AVE & KELLY ST","municipality":"PRINCE GEORGE","crashCount":1,"sourceLocationName":"5th Ave  & Kelly St ","geocodeMatchType":"exact_intersection_name"}},{"type":"Feature","geometry":{"type":"Point","coordinates":[-122.75286633413029,53.913255575865634]},"properties":{"dataset":"cyclist_crashes","datasetTitle":"Crashes involving cyclists","year":2024,"location":"9TH AVE & VICTORIA ST","municipality":"PRINCE GEORGE","crashCount":1,"sourceLocationName":"Victoria St  & 9th Ave ","geocodeMatchType":"exact_intersection_name"}},{"type":"Feature","geometry":{"type":"Point","coordinates":[-122.78698619107912,53.98951914251626]},"properties":{"dataset":"cyclist_crashes","datasetTitle":"Crashes involving cyclists","year":2024,"location":"AUSTIN RD E & AUSTIN RD W & HART HWY & HART HWY FRTG & TURNING LANE","municipality":"PRINCE GEORGE","crashCount":1,"sourceLocationName":"Hart Hwy  & Austin Rd W","geocodeMatchType":"subset_intersection_name"}}]}
