{"type":"FeatureCollection","features":[{"type":"Feature","geometry":{"type":"Point","coordinates":[-122.78177628409276,53.915447860379075]},"properties":{"dataset":"pedestrian_crashes","datasetTitle":"Crashes involving pedestrians","year":2020,"location":"10TH AVE & CENTRAL ST E & CENTRAL ST W & HWY 97 S & TURNING LANE","municipality":"PRINCE GEORGE","crashCount":1,"sourceLocationName":"Hwy 97 S & 10th Ave ","geocodeMatchType":"subset_intersection_name"}},{"type":"Feature","geometry":{"type":"Point","coordinates":[-122.76063153281947,53.90845408832176]},"properties":{"dataset":"pedestrian_crashes","datasetTitle":"Crashes involving pedestrians","year":2020,"location":"17TH AVE & UPLAND ST","municipality":"PRINCE GEORGE","crashCount":1,"sourceLocationName":"17th Ave  & Upland St ","geocodeMatchType":"exact_intersection_name"}},{"type":"Feature","geometry":{"type":"Point","coordinates":[-122.79410008018007,53.92484505980793]},"properties":{"dataset":"pedestrian_crashes","datasetTitle":"Crashes involving pedestrians","year":2020,"location":"1ST AVE & N OSPIKA BLVD & OSPIKA BLVD","municipality":"PRINCE GEORGE","crashCount":1,"sourceLocationName":"Ospika Blvd  & 1st Ave ","geocodeMatchType":"subset_intersection_name"}},{"type":"Feature","geometry":{"type":"Point","coordinates":[-122.79325382316797,53.92366904081929]},"properties":{"dataset":"pedestrian_crashes","datasetTitle":"Crashes involving pedestrians","year":2020,"location":"2ND AVE & RUGGLES ST","municipality":"PRINCE GEORGE","crashCount":1,"sourceLocationName":"2nd Ave  & Ruggles St","geocodeMatchType":"exact_intersection_name"}},{"type":"Feature","geometry":{"type":"Point","coordinates":[-122.76932051435493,53.92264142525402]},"properties":{"dataset":"pedestrian_crashes","datasetTitle":"Crashes involving pedestrians","year":2020,"location":"3RD AVE & CARNEY ST","municipality":"PRINCE GEORGE","crashCount":1,"sourceLocationName":"Carney St  & 3rd Ave ","geocodeMatchType":"exact_intersection_name"}},{"type":"Feature","geometry":{"type":"Point","coordinates":[-122.74972703343879,53.91710796548883]},"properties":{"dataset":"pedestrian_crashes","datasetTitle":"Crashes involving pedestrians","year":2020,"location":"4TH AVE & VICTORIA ST","municipality":"PRINCE GEORGE","crashCount":1,"sourceLocationName":"Victoria St  & 4th Ave ","geocodeMatchType":"exact_intersection_name"}},{"type":"Feature","geometry":{"type":"Point","coordinates":[-122.78698619107912,53.98951914251626]},"properties":{"dataset":"pedestrian_crashes","datasetTitle":"Crashes involving pedestrians","year":2020,"location":"AUSTIN RD E & AUSTIN RD W & HART HWY & HART HWY FRTG & TURNING LANE","municipality":"PRINCE GEORGE","crashCount":1,"sourceLocationName":"Hart Hwy  & Austin Rd W","geocodeMatchType":"subset_intersection_name"}},{"type":"Feature","geometry":{"type":"Point","coordinates":[-122.78461387765036,53.8765979093368]},"properties":{"dataset":"pedestrian_crashes","datasetTitle":"Crashes involving pedestrians","year":2020,"location":"DAVIS RD & OSPIKA BLVD","municipality":"PRINCE GEORGE","crashCount":1,"sourceLocationName":"Ospika Blvd  & Davis Rd ","geocodeMatchType":"exact_intersection_name"}},{"type":"Feature","geometry":{"type":"Point","coordinates":[-122.77435190570137,53.89909187852446]},"properties":{"dataset":"pedestrian_crashes","datasetTitle":"Crashes involving pedestrians","year":2020,"location":"HWY 97 S & MASSEY DR & PINE CENTRE RD & PINE CENTRE RD OFFRAMP & MALL ACCESS & TURNING LANE","municipality":"PRINCE GEORGE","crashCount":1,"sourceLocationName":"Hwy 97 S & Pine Centre Rd ","geocodeMatchType":"subset_intersection_name"}},{"type":"Feature","geometry":{"type":"Point","coordinates":[-122.78077899070674,53.89738393057166]},"properties":{"dataset":"pedestrian_crashes","datasetTitle":"Crashes involving pedestrians","year":2020,"location":"LORNE CRES & WESTWOOD DR & MALL ACCESS","municipality":"PRINCE GEORGE","crashCount":1,"sourceLocationName":"Westwood Dr  & Lorne Cres ","geocodeMatchType":"subset_intersection_name"}},{"type":"Feature","geometry":{"type":"Point","coordinates":[-122.78220102448,53.89962927490321]},"properties":{"dataset":"pedestrian_crashes","datasetTitle":"Crashes involving pedestrians","year":2020,"location":"MASSEY DR & WESTWOOD DR & TURNING LANE","municipality":"PRINCE GEORGE","crashCount":1,"sourceLocationName":"Massey Dr  & Westwood Dr ","geocodeMatchType":"exact_intersection_name"}},{"type":"Feature","geometry":{"type":"Point","coordinates":[-122.77356883340921,53.88277646468507]},"properties":{"dataset":"pedestrian_crashes","datasetTitle":"Crashes involving pedestrians","year":2020,"location":"SANDERSON RD & WIEBE RD","municipality":"PRINCE GEORGE","crashCount":1,"sourceLocationName":"Wiebe Rd  & Sanderson Rd ","geocodeMatchType":"exact_intersection_name"}},{"type":"Feature","geometry":{"type":"Point","coordinates":[-122.76929725602113,53.91542380304837]},"properties":{"dataset":"pedestrian_crashes","datasetTitle":"Crashes involving pedestrians","year":2021,"location":"10TH AVE & CARNEY ST","municipality":"PRINCE GEORGE","crashCount":1,"sourceLocationName":"Carney St  & 10th Ave ","geocodeMatchType":"exact_intersection_name"}},{"type":"Feature","geometry":{"type":"Point","coordinates":[-122.75530225694244,53.91298866011439]},"properties":{"dataset":"pedestrian_crashes","datasetTitle":"Crashes involving pedestrians","year":2021,"location":"10TH AVE & VANCOUVER ST","municipality":"PRINCE GEORGE","crashCount":1,"sourceLocationName":"10th Ave  & Vancouver St ","geocodeMatchType":"exact_intersection_name"}},{"type":"Feature","geometry":{"type":"Point","coordinates":[-122.77823624459764,53.910375069358345]},"properties":{"dataset":"pedestrian_crashes","datasetTitle":"Crashes involving pedestrians","year":2021,"location":"15TH AVE & IRWIN ST","municipality":"PRINCE GEORGE","crashCount":1,"sourceLocationName":"15th Ave  & Irwin St ","geocodeMatchType":"exact_intersection_name"}},{"type":"Feature","geometry":{"type":"Point","coordinates":[-122.74230240093378,53.908467530371524]},"properties":{"dataset":"pedestrian_crashes","datasetTitle":"Crashes involving pedestrians","year":2021,"location":"17TH AVE & QUEENSWAY","municipality":"PRINCE GEORGE","crashCount":1,"sourceLocationName":"Queensway   & 17th Ave ","geocodeMatchType":"exact_intersection_name"}},{"type":"Feature","geometry":{"type":"Point","coordinates":[-122.8128201023635,53.929938259176396]},"properties":{"dataset":"pedestrian_crashes","datasetTitle":"Crashes involving pedestrians","year":2021,"location":"1ST AVE & FREIMULLER AVE","municipality":"PRINCE GEORGE","crashCount":1,"sourceLocationName":"1st Ave  & Freimuller Ave ","geocodeMatchType":"exact_intersection_name"}},{"type":"Feature","geometry":{"type":"Point","coordinates":[-122.80196815565053,53.92697623755192]},"properties":{"dataset":"pedestrian_crashes","datasetTitle":"Crashes involving pedestrians","year":2021,"location":"1ST AVE & MCLEAN DR","municipality":"PRINCE GEORGE","crashCount":1,"sourceLocationName":"1st Ave  & McLean Dr ","geocodeMatchType":"exact_intersection_name"}},{"type":"Feature","geometry":{"type":"Point","coordinates":[-122.75656169384115,53.90543882115238]},"properties":{"dataset":"pedestrian_crashes","datasetTitle":"Crashes involving pedestrians","year":2021,"location":"20TH AVE & REDWOOD ST & VICTORIA ST","municipality":"PRINCE GEORGE","crashCount":1,"sourceLocationName":"20th Ave  & Redwood St ","geocodeMatchType":"subset_intersection_name"}},{"type":"Feature","geometry":{"type":"Point","coordinates":[-122.76059629140936,53.905422296840946]},"properties":{"dataset":"pedestrian_crashes","datasetTitle":"Crashes involving pedestrians","year":2021,"location":"20TH AVE & UPLAND ST","municipality":"PRINCE GEORGE","crashCount":1,"sourceLocationName":"20th Ave  & Upland St ","geocodeMatchType":"exact_intersection_name"}},{"type":"Feature","geometry":{"type":"Point","coordinates":[-122.7421151472134,53.916865043930706]},"properties":{"dataset":"pedestrian_crashes","datasetTitle":"Crashes involving pedestrians","year":2021,"location":"2ND AVE & GEORGE ST","municipality":"PRINCE GEORGE","crashCount":1,"sourceLocationName":"2nd Ave  & George St ","geocodeMatchType":"exact_intersection_name"}},{"type":"Feature","geometry":{"type":"Point","coordinates":[-122.77671707651508,53.920625853155975]},"properties":{"dataset":"pedestrian_crashes","datasetTitle":"Crashes involving pedestrians","year":2021,"location":"5TH AVE & HARPER ST","municipality":"PRINCE GEORGE","crashCount":1,"sourceLocationName":"5th Ave  & Harper St ","geocodeMatchType":"exact_intersection_name"}},{"type":"Feature","geometry":{"type":"Point","coordinates":[-122.84944231861391,53.96746363264754]},"properties":{"dataset":"pedestrian_crashes","datasetTitle":"Crashes involving pedestrians","year":2021,"location":"CARLE DR & NORTH NECHAKO RD & TOOMBS DR","municipality":"PRINCE GEORGE","crashCount":1,"sourceLocationName":"North Nechako Rd  & Toombs Dr ","geocodeMatchType":"subset_intersection_name"}},{"type":"Feature","geometry":{"type":"Point","coordinates":[-122.78723029011171,53.888222873019025]},"properties":{"dataset":"pedestrian_crashes","datasetTitle":"Crashes involving pedestrians","year":2021,"location":"FERRY AVE & OSPIKA BLVD","municipality":"PRINCE GEORGE","crashCount":1,"sourceLocationName":"Ospika Blvd  & Ferry Ave ","geocodeMatchType":"exact_intersection_name"}},{"type":"Feature","geometry":{"type":"Point","coordinates":[-122.7708357032018,53.888759334056346]},"properties":{"dataset":"pedestrian_crashes","datasetTitle":"Crashes involving pedestrians","year":2021,"location":"FERRY AVE & RECPLACE DR","municipality":"PRINCE GEORGE","crashCount":1,"sourceLocationName":"Ferry Ave  & Recplace Dr ","geocodeMatchType":"exact_intersection_name"}},{"type":"Feature","geometry":{"type":"Point","coordinates":[-122.76126102811199,53.94364981867475]},"properties":{"dataset":"pedestrian_crashes","datasetTitle":"Crashes involving pedestrians","year":2021,"location":"HART HWY & HART HWY FRTG & NORTHWOOD PULPMILL RD & NORTHWOOD PULPMILL RD OFFRAMP","municipality":"PRINCE GEORGE","crashCount":1,"sourceLocationName":"Hart Hwy  & Northwood Pulpmill Rd ","geocodeMatchType":"subset_intersection_name"}},{"type":"Feature","geometry":{"type":"Point","coordinates":[-122.7656637163083,53.957084070516785]},"properties":{"dataset":"pedestrian_crashes","datasetTitle":"Crashes involving pedestrians","year":2021,"location":"HART HWY & HART HWY FRTG & PERRIN HTS & SHADY LANE","municipality":"PRINCE GEORGE","crashCount":1,"sourceLocationName":"Hart Hwy  & Shady Lane ","geocodeMatchType":"subset_intersection_name"}},{"type":"Feature","geometry":{"type":"Point","coordinates":[-122.76905843798687,53.88447169816131]},"properties":{"dataset":"pedestrian_crashes","datasetTitle":"Crashes involving pedestrians","year":2021,"location":"HWY 16 W & RANGE RD & CHAINUP & TURNING LANE","municipality":"PRINCE GEORGE","crashCount":1,"sourceLocationName":"Hwy 16 W & Range Rd ","geocodeMatchType":"subset_intersection_name"}},{"type":"Feature","geometry":{"type":"Point","coordinates":[-122.74238920198624,53.91168899631086]},"properties":{"dataset":"pedestrian_crashes","datasetTitle":"Crashes involving pedestrians","year":2021,"location":"PATRICIA BLVD & QUEENSWAY & TURNING LANE","municipality":"PRINCE GEORGE","crashCount":1,"sourceLocationName":"Queensway   & Patricia Blvd ","geocodeMatchType":"exact_intersection_name"}},{"type":"Feature","geometry":{"type":"Point","coordinates":[-122.78177628409276,53.915447860379075]},"properties":{"dataset":"pedestrian_crashes","datasetTitle":"Crashes involving pedestrians","year":2022,"location":"10TH AVE & CENTRAL ST E & CENTRAL ST W & HWY 97 S & TURNING LANE","municipality":"PRINCE GEORGE","crashCount":5,"sourceLocationName":"Hwy 97 S & 10th Ave ","geocodeMatchType":"subset_intersection_name"}},{"type":"Feature","geometry":{"type":"Point","coordinates":[-122.81162073426202,53.91037359785447]},"properties":{"dataset":"pedestrian_crashes","datasetTitle":"Crashes involving pedestrians","year":2022,"location":"15TH AVE & FOOTHILLS BLVD & UNIVERSITY WAY","municipality":"PRINCE GEORGE","crashCount":2,"sourceLocationName":"Foothills Blvd  & 15th Ave ","geocodeMatchType":"subset_intersection_name"}},{"type":"Feature","geometry":{"type":"Point","coordinates":[-122.76929406084285,53.92067066923]},"properties":{"dataset":"pedestrian_crashes","datasetTitle":"Crashes involving pedestrians","year":2022,"location":"5TH AVE & CARNEY ST","municipality":"PRINCE GEORGE","crashCount":2,"sourceLocationName":"5th Ave  & Carney St ","geocodeMatchType":"exact_intersection_name"}},{"type":"Feature","geometry":{"type":"Point","coordinates":[-122.78461387765036,53.8765979093368]},"properties":{"dataset":"pedestrian_crashes","datasetTitle":"Crashes involving pedestrians","year":2022,"location":"DAVIS RD & OSPIKA BLVD","municipality":"PRINCE GEORGE","crashCount":2,"sourceLocationName":"Ospika Blvd  & Davis Rd ","geocodeMatchType":"exact_intersection_name"}},{"type":"Feature","geometry":{"type":"Point","coordinates":[-122.77969206448486,53.91540913918963]},"properties":{"dataset":"pedestrian_crashes","datasetTitle":"Crashes involving pedestrians","year":2022,"location":"10TH AVE & JOHNSON ST","municipality":"PRINCE GEORGE","crashCount":1,"sourceLocationName":"10th Ave  & Johnson St ","geocodeMatchType":"exact_intersection_name"}},{"type":"Feature","geometry":{"type":"Point","coordinates":[-122.76421963643598,53.91561757570119]},"properties":{"dataset":"pedestrian_crashes","datasetTitle":"Crashes involving pedestrians","year":2022,"location":"10TH AVE & LAURIER CRES","municipality":"PRINCE GEORGE","crashCount":1,"sourceLocationName":"10th Ave  & Laurier Cres ","geocodeMatchType":"exact_intersection_name"}},{"type":"Feature","geometry":{"type":"Point","coordinates":[-122.76394479751441,53.9103781471734]},"properties":{"dataset":"pedestrian_crashes","datasetTitle":"Crashes involving pedestrians","year":2022,"location":"15TH AVE & EDMONTON ST","municipality":"PRINCE GEORGE","crashCount":1,"sourceLocationName":"15th Ave  & Edmonton St ","geocodeMatchType":"exact_intersection_name"}},{"type":"Feature","geometry":{"type":"Point","coordinates":[-122.75787971344289,53.90985047665654]},"properties":{"dataset":"pedestrian_crashes","datasetTitle":"Crashes involving pedestrians","year":2022,"location":"15TH AVE & SPRUCE ST & MALL ACCESS & TURNING LANE","municipality":"PRINCE GEORGE","crashCount":1,"sourceLocationName":"15th Ave  & Spruce St ","geocodeMatchType":"subset_intersection_name"}},{"type":"Feature","geometry":{"type":"Point","coordinates":[-122.7579380281123,53.908453412529106]},"properties":{"dataset":"pedestrian_crashes","datasetTitle":"Crashes involving pedestrians","year":2022,"location":"17TH AVE & SPRUCE ST","municipality":"PRINCE GEORGE","crashCount":1,"sourceLocationName":"Spruce St  & 17th Ave ","geocodeMatchType":"exact_intersection_name"}},{"type":"Feature","geometry":{"type":"Point","coordinates":[-122.75513359039593,53.90845467368114]},"properties":{"dataset":"pedestrian_crashes","datasetTitle":"Crashes involving pedestrians","year":2022,"location":"17TH AVE & VICTORIA ST","municipality":"PRINCE GEORGE","crashCount":1,"sourceLocationName":"Victoria St  & 17th Ave ","geocodeMatchType":"exact_intersection_name"}},{"type":"Feature","geometry":{"type":"Point","coordinates":[-122.7579191232894,53.90543509971525]},"properties":{"dataset":"pedestrian_crashes","datasetTitle":"Crashes involving pedestrians","year":2022,"location":"20TH AVE & SPRUCE ST","municipality":"PRINCE GEORGE","crashCount":1,"sourceLocationName":"20th Ave  & Spruce St ","geocodeMatchType":"exact_intersection_name"}},{"type":"Feature","geometry":{"type":"Point","coordinates":[-122.78180081482267,53.90360164570181]},"properties":{"dataset":"pedestrian_crashes","datasetTitle":"Crashes involving pedestrians","year":2022,"location":"22ND AVE & CENTRAL ST E & GRIFFITHS AVE & HWY 97 S & WESTWOOD DR & TURNING LANE","municipality":"PRINCE GEORGE","crashCount":1,"sourceLocationName":"Hwy 97 S & 22nd Ave ","geocodeMatchType":"subset_intersection_name"}},{"type":"Feature","geometry":{"type":"Point","coordinates":[-122.78432072548367,53.92061615056932]},"properties":{"dataset":"pedestrian_crashes","datasetTitle":"Crashes involving pedestrians","year":2022,"location":"5TH AVE & AHBAU ST & LYON ST","municipality":"PRINCE GEORGE","crashCount":1,"sourceLocationName":"5th Ave  & Lyon St ","geocodeMatchType":"subset_intersection_name"}},{"type":"Feature","geometry":{"type":"Point","coordinates":[-122.77379464931148,53.92065187840538]},"properties":{"dataset":"pedestrian_crashes","datasetTitle":"Crashes involving pedestrians","year":2022,"location":"5TH AVE & FREEMAN ST","municipality":"PRINCE GEORGE","crashCount":1,"sourceLocationName":"5th Ave  & Freeman St ","geocodeMatchType":"exact_intersection_name"}},{"type":"Feature","geometry":{"type":"Point","coordinates":[-122.77526836576813,53.92073540891626]},"properties":{"dataset":"pedestrian_crashes","datasetTitle":"Crashes involving pedestrians","year":2022,"location":"5TH AVE & GILLETT ST","municipality":"PRINCE GEORGE","crashCount":1,"sourceLocationName":"5th Ave  & Gillett St ","geocodeMatchType":"exact_intersection_name"}},{"type":"Feature","geometry":{"type":"Point","coordinates":[-122.78876938244193,53.920638880894835]},"properties":{"dataset":"pedestrian_crashes","datasetTitle":"Crashes involving pedestrians","year":2022,"location":"5TH AVE & OGILVIE ST","municipality":"PRINCE GEORGE","crashCount":1,"sourceLocationName":"5th Ave  & Ogilvie St ","geocodeMatchType":"exact_intersection_name"}},{"type":"Feature","geometry":{"type":"Point","coordinates":[-122.79026534946196,53.92062300453895]},"properties":{"dataset":"pedestrian_crashes","datasetTitle":"Crashes involving pedestrians","year":2022,"location":"5TH AVE & PATTERSON ST","municipality":"PRINCE GEORGE","crashCount":1,"sourceLocationName":"5th Ave  & Patterson St ","geocodeMatchType":"exact_intersection_name"}},{"type":"Feature","geometry":{"type":"Point","coordinates":[-122.7503456963153,53.916345551852956]},"properties":{"dataset":"pedestrian_crashes","datasetTitle":"Crashes involving pedestrians","year":2022,"location":"5TH AVE & VICTORIA ST","municipality":"PRINCE GEORGE","crashCount":1,"sourceLocationName":"Victoria St  & 5th Ave ","geocodeMatchType":"exact_intersection_name"}},{"type":"Feature","geometry":{"type":"Point","coordinates":[-122.79014987436604,53.896525297029925]},"properties":{"dataset":"pedestrian_crashes","datasetTitle":"Crashes involving pedestrians","year":2022,"location":"ARNETT AVE & BOND ST","municipality":"PRINCE GEORGE","crashCount":1,"sourceLocationName":"Bond St  & Arnett Ave ","geocodeMatchType":"exact_intersection_name"}},{"type":"Feature","geometry":{"type":"Point","coordinates":[-122.78559180190067,53.86986585776354]},"properties":{"dataset":"pedestrian_crashes","datasetTitle":"Crashes involving pedestrians","year":2022,"location":"BAKER RD & GANNETT RD & TYNER BLVD","municipality":"PRINCE GEORGE","crashCount":1,"sourceLocationName":"Tyner Blvd  & Baker Rd ","geocodeMatchType":"subset_intersection_name"}},{"type":"Feature","geometry":{"type":"Point","coordinates":[-122.81927023793749,53.91825961718918]},"properties":{"dataset":"pedestrian_crashes","datasetTitle":"Crashes involving pedestrians","year":2022,"location":"FOOTHILLS BLVD & OCHAKWIN CRES","municipality":"PRINCE GEORGE","crashCount":1,"sourceLocationName":"Foothills Blvd  & Ochakwin Cres ","geocodeMatchType":"exact_intersection_name"}},{"type":"Feature","geometry":{"type":"Point","coordinates":[-122.79432819316787,53.892124096401936]},"properties":{"dataset":"pedestrian_crashes","datasetTitle":"Crashes involving pedestrians","year":2022,"location":"GOHEEN ST & PINEWOOD AVE","municipality":"PRINCE GEORGE","crashCount":1,"sourceLocationName":"Pinewood Ave  & Goheen St ","geocodeMatchType":"exact_intersection_name"}},{"type":"Feature","geometry":{"type":"Point","coordinates":[-122.79101461008624,53.89892833157825]},"properties":{"dataset":"pedestrian_crashes","datasetTitle":"Crashes involving pedestrians","year":2022,"location":"MASSEY DR & OSPIKA BLVD & TURNING LANE","municipality":"PRINCE GEORGE","crashCount":1,"sourceLocationName":"Ospika Blvd  & Massey Dr ","geocodeMatchType":"exact_intersection_name"}},{"type":"Feature","geometry":{"type":"Point","coordinates":[-122.7796791963073,53.89208116098949]},"properties":{"dataset":"pedestrian_crashes","datasetTitle":"Crashes involving pedestrians","year":2022,"location":"PINEWOOD AVE & WESTWOOD DR","municipality":"PRINCE GEORGE","crashCount":1,"sourceLocationName":"Westwood Dr  & Pinewood Ave ","geocodeMatchType":"exact_intersection_name"}},{"type":"Feature","geometry":{"type":"Point","coordinates":[-122.78235595670778,53.917630084074865]},"properties":{"dataset":"pedestrian_crashes","datasetTitle":"Crashes involving pedestrians","year":2023,"location":"8TH AVE & CENTRAL ST W","municipality":"PRINCE GEORGE","crashCount":2,"sourceLocationName":"Central St W & 8th Ave ","geocodeMatchType":"exact_intersection_name"}},{"type":"Feature","geometry":{"type":"Point","coordinates":[-122.75417675866784,53.91174693952662]},"properties":{"dataset":"pedestrian_crashes","datasetTitle":"Crashes involving pedestrians","year":2023,"location":"11TH AVE & VICTORIA ST","municipality":"PRINCE GEORGE","crashCount":1,"sourceLocationName":"Victoria St  & 11th Ave ","geocodeMatchType":"exact_intersection_name"}},{"type":"Feature","geometry":{"type":"Point","coordinates":[-122.76929725602113,53.91542380304837]},"properties":{"dataset":"pedestrian_crashes","datasetTitle":"Crashes involving pedestrians","year":2023,"location":"10TH AVE & CARNEY ST","municipality":"PRINCE GEORGE","crashCount":1,"sourceLocationName":"Carney St  & 10th Ave ","geocodeMatchType":"exact_intersection_name"}},{"type":"Feature","geometry":{"type":"Point","coordinates":[-122.78177628409276,53.915447860379075]},"properties":{"dataset":"pedestrian_crashes","datasetTitle":"Crashes involving pedestrians","year":2023,"location":"10TH AVE & CENTRAL ST E & CENTRAL ST W & HWY 97 S & TURNING LANE","municipality":"PRINCE GEORGE","crashCount":1,"sourceLocationName":"Hwy 97 S & 10th Ave ","geocodeMatchType":"subset_intersection_name"}},{"type":"Feature","geometry":{"type":"Point","coordinates":[-122.76080205044619,53.91176246775332]},"properties":{"dataset":"pedestrian_crashes","datasetTitle":"Crashes involving pedestrians","year":2023,"location":"13TH AVE & WINNIPEG ST & MALL ACCESS","municipality":"PRINCE GEORGE","crashCount":1,"sourceLocationName":"Winnipeg St  & 13th Ave ","geocodeMatchType":"subset_intersection_name"}},{"type":"Feature","geometry":{"type":"Point","coordinates":[-122.75924862052311,53.9054295712836]},"properties":{"dataset":"pedestrian_crashes","datasetTitle":"Crashes involving pedestrians","year":2023,"location":"20TH AVE & TAMARACK ST","municipality":"PRINCE GEORGE","crashCount":1,"sourceLocationName":"20th Ave  & Tamarack St ","geocodeMatchType":"exact_intersection_name"}},{"type":"Feature","geometry":{"type":"Point","coordinates":[-122.75452021595378,53.91936710897583]},"properties":{"dataset":"pedestrian_crashes","datasetTitle":"Crashes involving pedestrians","year":2023,"location":"3RD AVE & WINNIPEG ST","municipality":"PRINCE GEORGE","crashCount":1,"sourceLocationName":"Winnipeg St  & 3rd Ave ","geocodeMatchType":"exact_intersection_name"}},{"type":"Feature","geometry":{"type":"Point","coordinates":[-122.74509519618428,53.91579619569099]},"properties":{"dataset":"pedestrian_crashes","datasetTitle":"Crashes involving pedestrians","year":2023,"location":"4TH AVE & DOMINION ST","municipality":"PRINCE GEORGE","crashCount":1,"sourceLocationName":"Dominion St  & 4th Ave ","geocodeMatchType":"exact_intersection_name"}},{"type":"Feature","geometry":{"type":"Point","coordinates":[-122.74012988917454,53.914390134744096]},"properties":{"dataset":"pedestrian_crashes","datasetTitle":"Crashes involving pedestrians","year":2023,"location":"4TH AVE & ONTARIO ST","municipality":"PRINCE GEORGE","crashCount":1,"sourceLocationName":"Ontario St  & 4th Ave ","geocodeMatchType":"exact_intersection_name"}},{"type":"Feature","geometry":{"type":"Point","coordinates":[-122.78432072548367,53.92061615056932]},"properties":{"dataset":"pedestrian_crashes","datasetTitle":"Crashes involving pedestrians","year":2023,"location":"5TH AVE & AHBAU ST & LYON ST","municipality":"PRINCE GEORGE","crashCount":1,"sourceLocationName":"5th Ave  & Lyon St ","geocodeMatchType":"subset_intersection_name"}},{"type":"Feature","geometry":{"type":"Point","coordinates":[-122.79417553362454,53.92053592860853]},"properties":{"dataset":"pedestrian_crashes","datasetTitle":"Crashes involving pedestrians","year":2023,"location":"5TH AVE & OSPIKA BLVD & TURNING LANE","municipality":"PRINCE GEORGE","crashCount":1,"sourceLocationName":"Ospika Blvd  & 5th Ave ","geocodeMatchType":"exact_intersection_name"}},{"type":"Feature","geometry":{"type":"Point","coordinates":[-122.7534248898273,53.91530569396242]},"properties":{"dataset":"pedestrian_crashes","datasetTitle":"Crashes involving pedestrians","year":2023,"location":"7TH AVE & VANCOUVER ST","municipality":"PRINCE GEORGE","crashCount":1,"sourceLocationName":"7th Ave  & Vancouver St ","geocodeMatchType":"exact_intersection_name"}},{"type":"Feature","geometry":{"type":"Point","coordinates":[-122.80665435847567,53.988803986050215]},"properties":{"dataset":"pedestrian_crashes","datasetTitle":"Crashes involving pedestrians","year":2023,"location":"AUSTIN RD W & DELISLE CRT","municipality":"PRINCE GEORGE","crashCount":1,"sourceLocationName":"Austin Rd W & Delisle Crt ","geocodeMatchType":"exact_intersection_name"}},{"type":"Feature","geometry":{"type":"Point","coordinates":[-122.76404226514991,53.952809513486244]},"properties":{"dataset":"pedestrian_crashes","datasetTitle":"Crashes involving pedestrians","year":2023,"location":"BELLAMY RD & HART HWY & HART HWY FRTG","municipality":"PRINCE GEORGE","crashCount":1,"sourceLocationName":"Hart Hwy  & Bellamy Rd ","geocodeMatchType":"subset_intersection_name"}},{"type":"Feature","geometry":{"type":"Point","coordinates":[-122.75424721289501,53.9636316031451]},"properties":{"dataset":"pedestrian_crashes","datasetTitle":"Crashes involving pedestrians","year":2023,"location":"BELLAMY RD & NORANDA RD E","municipality":"PRINCE GEORGE","crashCount":1,"sourceLocationName":"Noranda Rd E & Bellamy Rd ","geocodeMatchType":"exact_intersection_name"}},{"type":"Feature","geometry":{"type":"Point","coordinates":[-122.7823933346945,53.91150036073327]},"properties":{"dataset":"pedestrian_crashes","datasetTitle":"Crashes involving pedestrians","year":2023,"location":"CENTRAL ST W & COMMERCIAL CRES","municipality":"PRINCE GEORGE","crashCount":1,"sourceLocationName":"Central St W & Commercial Cres ","geocodeMatchType":"exact_intersection_name"}},{"type":"Feature","geometry":{"type":"Point","coordinates":[-122.78220102448,53.89962927490321]},"properties":{"dataset":"pedestrian_crashes","datasetTitle":"Crashes involving pedestrians","year":2023,"location":"MASSEY DR & WESTWOOD DR & TURNING LANE","municipality":"PRINCE GEORGE","crashCount":1,"sourceLocationName":"Massey Dr  & Westwood Dr ","geocodeMatchType":"exact_intersection_name"}},{"type":"Feature","geometry":{"type":"Point","coordinates":[-122.7548642990933,53.910532795614444]},"properties":{"dataset":"pedestrian_crashes","datasetTitle":"Crashes involving pedestrians","year":2024,"location":"15TH AVE & PATRICIA BLVD & VICTORIA ST & TURNING LANE","municipality":"PRINCE GEORGE","crashCount":2,"sourceLocationName":"Victoria St  & 15th Ave ","geocodeMatchType":"subset_intersection_name"}},{"type":"Feature","geometry":{"type":"Point","coordinates":[-122.75787971344289,53.90985047665654]},"properties":{"dataset":"pedestrian_crashes","datasetTitle":"Crashes involving pedestrians","year":2024,"location":"15TH AVE & SPRUCE ST & MALL ACCESS & TURNING LANE","municipality":"PRINCE GEORGE","crashCount":2,"sourceLocationName":"15th Ave  & Spruce St ","geocodeMatchType":"subset_intersection_name"}},{"type":"Feature","geometry":{"type":"Point","coordinates":[-122.78220102448,53.89962927490321]},"properties":{"dataset":"pedestrian_crashes","datasetTitle":"Crashes involving pedestrians","year":2024,"location":"MASSEY DR & WESTWOOD DR & TURNING LANE","municipality":"PRINCE GEORGE","crashCount":2,"sourceLocationName":"Massey Dr  & Westwood Dr ","geocodeMatchType":"exact_intersection_name"}},{"type":"Feature","geometry":{"type":"Point","coordinates":[-122.78177628409276,53.915447860379075]},"properties":{"dataset":"pedestrian_crashes","datasetTitle":"Crashes involving pedestrians","year":2024,"location":"10TH AVE & CENTRAL ST E & CENTRAL ST W & HWY 97 S & TURNING LANE","municipality":"PRINCE GEORGE","crashCount":1,"sourceLocationName":"Hwy 97 S & 10th Ave ","geocodeMatchType":"subset_intersection_name"}},{"type":"Feature","geometry":{"type":"Point","coordinates":[-122.77824800077009,53.915412695085884]},"properties":{"dataset":"pedestrian_crashes","datasetTitle":"Crashes involving pedestrians","year":2024,"location":"10TH AVE & IRWIN ST","municipality":"PRINCE GEORGE","crashCount":1,"sourceLocationName":"10th Ave  & Irwin St ","geocodeMatchType":"exact_intersection_name"}},{"type":"Feature","geometry":{"type":"Point","coordinates":[-122.75948721738919,53.91324681464521]},"properties":{"dataset":"pedestrian_crashes","datasetTitle":"Crashes involving pedestrians","year":2024,"location":"11TH AVE & WINNIPEG ST","municipality":"PRINCE GEORGE","crashCount":1,"sourceLocationName":"Winnipeg St  & 11th Ave ","geocodeMatchType":"exact_intersection_name"}},{"type":"Feature","geometry":{"type":"Point","coordinates":[-122.74664790186657,53.91623581218647]},"properties":{"dataset":"pedestrian_crashes","datasetTitle":"Crashes involving pedestrians","year":2024,"location":"4TH AVE & QUEBEC ST","municipality":"PRINCE GEORGE","crashCount":1,"sourceLocationName":"4th Ave  & Quebec St ","geocodeMatchType":"exact_intersection_name"}},{"type":"Feature","geometry":{"type":"Point","coordinates":[-122.74972703343879,53.91710796548883]},"properties":{"dataset":"pedestrian_crashes","datasetTitle":"Crashes involving pedestrians","year":2024,"location":"4TH AVE & VICTORIA ST","municipality":"PRINCE GEORGE","crashCount":1,"sourceLocationName":"Victoria St  & 4th Ave ","geocodeMatchType":"exact_intersection_name"}},{"type":"Feature","geometry":{"type":"Point","coordinates":[-122.78432072548367,53.92061615056932]},"properties":{"dataset":"pedestrian_crashes","datasetTitle":"Crashes involving pedestrians","year":2024,"location":"5TH AVE & AHBAU ST & LYON ST","municipality":"PRINCE GEORGE","crashCount":1,"sourceLocationName":"5th Ave  & Lyon St ","geocodeMatchType":"subset_intersection_name"}},{"type":"Feature","geometry":{"type":"Point","coordinates":[-122.76929406084285,53.92067066923]},"properties":{"dataset":"pedestrian_crashes","datasetTitle":"Crashes involving pedestrians","year":2024,"location":"5TH AVE & CARNEY ST","municipality":"PRINCE GEORGE","crashCount":1,"sourceLocationName":"5th Ave  & Carney St ","geocodeMatchType":"exact_intersection_name"}},{"type":"Feature","geometry":{"type":"Point","coordinates":[-122.80282158157223,53.92063510921243]},"properties":{"dataset":"pedestrian_crashes","datasetTitle":"Crashes involving pedestrians","year":2024,"location":"5TH AVE & LACOMA ST & VOYAGEUR DR","municipality":"PRINCE GEORGE","crashCount":1,"sourceLocationName":"5th Ave  & Voyageur Dr ","geocodeMatchType":"subset_intersection_name"}},{"type":"Feature","geometry":{"type":"Point","coordinates":[-122.76072558033358,53.88881653718363]},"properties":{"dataset":"pedestrian_crashes","datasetTitle":"Crashes involving pedestrians","year":2024,"location":"FERRY AVE & UPLAND ST","municipality":"PRINCE GEORGE","crashCount":1,"sourceLocationName":"Ferry Ave  & Upland St ","geocodeMatchType":"exact_intersection_name"}},{"type":"Feature","geometry":{"type":"Point","coordinates":[-122.78805562160147,53.98437700798129]},"properties":{"dataset":"pedestrian_crashes","datasetTitle":"Crashes involving pedestrians","year":2024,"location":"KIM PL & WINSLOW DR","municipality":"PRINCE GEORGE","crashCount":1,"sourceLocationName":"Winslow Dr  & Kim Pl ","geocodeMatchType":"exact_intersection_name"}},{"type":"Feature","geometry":{"type":"Point","coordinates":[-122.78890013154833,53.899613928664735]},"properties":{"dataset":"pedestrian_crashes","datasetTitle":"Crashes involving pedestrians","year":2024,"location":"MASSEY DR & NICHOLSON ST","municipality":"PRINCE GEORGE","crashCount":1,"sourceLocationName":"Massey Dr  & Nicholson St ","geocodeMatchType":"exact_intersection_name"}},{"type":"Feature","geometry":{"type":"Point","coordinates":[-122.8063157622014,53.91776255212085]},"properties":{"dataset":"pedestrian_crashes","datasetTitle":"Crashes involving pedestrians","year":2024,"location":"MERTON CRES & NESS AVE","municipality":"PRINCE GEORGE","crashCount":1,"sourceLocationName":"Merton Cres  & Ness Ave ","geocodeMatchType":"exact_intersection_name"}},{"type":"Feature","geometry":{"type":"Point","coordinates":[-122.78494957948514,53.884560801882536]},"properties":{"dataset":"pedestrian_crashes","datasetTitle":"Crashes involving pedestrians","year":2024,"location":"OSPIKA BLVD & RANGE RD","municipality":"PRINCE GEORGE","crashCount":1,"sourceLocationName":"Ospika Blvd  & Range Rd ","geocodeMatchType":"exact_intersection_name"}},{"type":"Feature","geometry":{"type":"Point","coordinates":[-122.77345590858994,53.88100074036664]},"properties":{"dataset":"pedestrian_crashes","datasetTitle":"Crashes involving pedestrians","year":2024,"location":"VANCE RD & WIEBE RD","municipality":"PRINCE GEORGE","crashCount":1,"sourceLocationName":"Wiebe Rd  & Vance Rd ","geocodeMatchType":"exact_intersection_name"}}]}
