{"type":"FeatureCollection","name":"nr_areas","metadata":{"source":"BC Geographic Warehouse","sourceLayer":"WHSE_ADMIN_BOUNDARIES.ADM_NR_AREAS_SPG","coverage":"BC-wide (administrative boundaries)","generatedAt":"2026-05-09T04:22:16.655Z"},"features":[{"type":"Feature","id":"WHSE_ADMIN_BOUNDARIES.ADM_NR_AREAS_SPG.3","properties":{"sourceLayer":"WHSE_ADMIN_BOUNDARIES.ADM_NR_AREAS_SPG","boundaryCode":"3","boundaryName":"South Natural Resource Area","OBJECTID":1712,"AREA_NUMBER":3,"AREA_NAME":"South Natural Resource Area","FEATURE_AREA_SQM":239929392584.014},"geometry":{"type":"MultiPolygon","coordinates":[[[[-124.0401789,50.94055415],[-123.99425482,50.96242003],[-123.94002334,50.93508091],[-123.88219252,50.94745016],[-123.84499288,50.93185508],[-123.82973869,50.90654687],[-123.76902833,50.90703252],[-123.76753642,50.88665067],[-123.70238349,50.89306957],[-123.68992928,50.86885801],[-123.72739693,50.83044424],[-123.72847739,50.80920216],[-123.70464419,50.78940564],[-123.66087363,50.79759058],[-123.60238952,50.77421503],[-123.5313024,50.79197064],[-123.50362472,50.77574891],[-123.45590463,50.79793951],[-123.40942731,50.7740954],[-123.3739931,50.7955326],[-123.36084511,50.75687813],[-123.31784736,50.72348754],[-123.27388827,50.72990075],[-123.23012467,50.71545642],[-123.17890409,50.65120037],[-123.17762928,50.62945839],[-123.11380627,50.61934793],[-123.05244658,50.57684382],[-123.04101206,50.59868549],[-123.00818843,50.59892761],[-122.99993342,50.57766987],[-122.94618949,50.54875413],[-122.93238094,50.59677136],[-122.86855013,50.61570052],[-122.83132261,50.64786203],[-122.76602096,50.6597143],[-122.68583473,50.64369194],[-122.62646455,50.65649843],[-122.60184261,50.62492228],[-122.60880358,50.59734816],[-122.54783981,50.57909978],[-122.52070013,50.59106313],[-122.46906121,50.5485817],[-122.42811731,50.5556587],[-122.34068116,50.5215546],[-122.28405612,50.47656809],[-122.30290318,50.46397096],[-122.29755282,50.43416369],[-122.32654258,50.41768272],[-122.40919882,50.40008661],[-122.44165785,50.42807519],[-122.50507391,50.44181881],[-122.4952274,50.42430673],[-122.52589567,50.41250715],[-122.52606609,50.39122946],[-122.44253718,50.33318012],[-122.37654961,50.31926843],[-122.35814619,50.29485037],[-122.36972643,50.26671227],[-122.3537199,50.23007304],[-122.27739064,50.22490031],[-122.27740234,50.20462527],[-122.3170303,50.17803955],[-122.25998419,50.12396518],[-122.12279546,50.10915199],[-122.07466252,50.12561727],[-122.02490812,50.08594164],[-121.94914549,50.08634754],[-121.90885704,50.05602042],[-121.86687002,50.04713336],[-121.84365197,50.07813698],[-121.80146327,50.088763],[-121.66496479,50.08138702],[-121.65678902,50.06345907],[-121.55239476,50.02304669],[-121.52958158,50.02307528],[-121.54896649,50.06675867],[-121.50367833,50.0667694],[-121.48477679,50.09095058],[-121.44329016,50.08543463],[-121.43093197,50.14494236],[-121.32570354,50.12426569],[-121.31096833,50.07203139],[-121.32808287,50.0368349],[-121.29131567,50.01151246],[-121.27035409,49.96810967],[-121.28816728,49.9206536],[-121.3237043,49.90088698],[-121.28778472,49.87438388],[-121.22115572,49.8937104],[-121.19591146,49.86256767],[-121.12635745,49.86260415],[-121.12634425,49.838325],[-121.18018528,49.82205406],[-121.21269981,49.77455819],[-121.18776942,49.73022825],[-121.12113733,49.67812925],[-121.16494203,49.65121881],[-121.15970885,49.61988621],[-121.09254667,49.60724351],[-121.03555297,49.56022039],[-121.05297646,49.52555797],[-121.10235733,49.51325424],[-121.11098164,49.4750253],[-121.07983839,49.46455482],[-121.11134164,49.38196491],[-121.06064675,49.36754764],[-121.09272345,49.33993506],[-121.04264281,49.33008524],[-121.02596667,49.3046074],[-121.00632849,49.309464],[-120.98301743,49.27415979],[-120.94372937,49.27016594],[-120.89708,49.31076584],[-120.812036,49.28524687],[-120.82098776,49.25081943],[-120.84175115,49.24959328],[-120.85893693,49.20982652],[-120.89200036,49.21048593],[-120.88922943,49.16471457],[-120.85731848,49.1355239],[-120.86896513,49.1174424],[-120.96318345,49.1040831],[-120.86073793,49.05017866],[-120.93212815,49.03375003],[-120.98292476,49.0408653],[-121.00099709,49.00226642],[-114.06817984,48.99886484],[-114.05857552,49.01817682],[-114.06246881,49.04621193],[-114.14957879,49.09512701],[-114.16816082,49.15750103],[-114.23035387,49.18907966],[-114.28635973,49.17870675],[-114.31629376,49.19842482],[-114.3983166,49.21029207],[-114.39100355,49.25395763],[-114.449354,49.27237491],[-114.45324328,49.29767304],[-114.49076648,49.31976216],[-114.47952488,49.32590454],[-114.488375,49.34718869],[-114.52429518,49.35711888],[-114.52603542,49.37776409],[-114.5873343,49.39181236],[-114.60478567,49.44167398],[-114.57323975,49.55536396],[-114.69538481,49.54772255],[-114.75346354,49.60958787],[-114.66175597,49.64323194],[-114.67069745,49.68603837],[-114.63658106,49.70040843],[-114.63247752,49.7330024],[-114.6593947,49.76457473],[-114.63694524,49.78556752],[-114.64141948,49.82402121],[-114.69185151,49.89572873],[-114.68332936,49.95971004],[-114.65119445,49.97759215],[-114.67718369,50.04807533],[-114.6653879,50.06349296],[-114.73277581,50.11906304],[-114.72561025,50.18300372],[-114.76982155,50.24363446],[-114.75454596,50.29631601],[-114.79621704,50.32534551],[-114.76940984,50.35899536],[-114.86471936,50.39974688],[-114.86083978,50.42090082],[-114.91392988,50.45512579],[-115.02188282,50.58464458],[-115.17034354,50.56907584],[-115.21104431,50.52898028],[-115.23024818,50.54385318],[-115.24085957,50.58939363],[-115.31141136,50.62764619],[-115.28257315,50.6448461],[-115.31462576,50.72469699],[-115.41671939,50.71241524],[-115.41338537,50.73406925],[-115.43750169,50.75617416],[-115.48160378,50.7553366],[-115.50209864,50.78524733],[-115.55654316,50.80132684],[-115.56746373,50.84484825],[-115.64251815,50.84105576],[-115.64935515,50.87388006],[-115.56162834,50.89457973],[-115.60481978,50.92130376],[-115.59779064,50.94061551],[-115.62900564,50.98174021],[-115.69307202,51.02008536],[-115.72687813,51.01840578],[-115.7692039,51.03966321],[-115.76035537,51.06943087],[-115.9185307,51.08466061],[-115.9580327,51.11545648],[-116.01281124,51.1290797],[-116.01001685,51.15095148],[-116.02995573,51.16263509],[-116.00481476,51.19212867],[-116.0139553,51.22281267],[-116.15499846,51.26859575],[-116.1614929,51.29423015],[-116.26950707,51.31245072],[-116.28956516,51.33901488],[-116.28100713,51.36037994],[-116.31124819,51.38162096],[-116.28786887,51.40585561],[-116.29163984,51.46123554],[-116.3600521,51.47133778],[-116.39679288,51.51005798],[-116.39285024,51.55010969],[-116.46137243,51.56313796],[-116.489784,51.61524033],[-116.59794816,51.66411866],[-116.58680716,51.7066237],[-116.65206748,51.75825742],[-116.6599377,51.80460919],[-116.74596749,51.80633245],[-116.81439409,51.73963996],[-116.80120003,51.72421852],[-116.81603058,51.70633394],[-116.92258946,51.70920703],[-116.97312312,51.75843333],[-116.96471822,51.77481825],[-116.9886594,51.80882261],[-116.98287024,51.82868045],[-117.03533316,51.85534928],[-117.02422019,51.89427806],[-117.11032839,51.95683339],[-117.19638922,51.97859276],[-117.2372183,52.01138478],[-117.21606646,52.0275157],[-117.30594957,52.07472331],[-117.27924249,52.12223106],[-117.28111145,52.15628428],[-117.31227412,52.18432076],[-117.34399606,52.13846331],[-117.5132339,52.15791654],[-117.57904381,52.12920597],[-117.66230593,52.19870372],[-117.72994375,52.18881825],[-117.81118815,52.22187709],[-117.84183428,52.2693891],[-117.70462194,52.35623098],[-117.72258345,52.38981455],[-117.76310502,52.41391903],[-117.89221951,52.42711587],[-117.97479709,52.47112304],[-117.98911401,52.49417802],[-118.0276513,52.45482393],[-118.05966145,52.45547661],[-118.03572551,52.44113051],[-118.04992267,52.41773548],[-118.04115079,52.39820652],[-118.1361194,52.40557109],[-118.14194242,52.39205904],[-118.21354446,52.37168282],[-118.23431642,52.37970351],[-118.24895901,52.35232164],[-118.29520384,52.3331247],[-118.25914905,52.26046439],[-118.29846984,52.24771918],[-118.30858728,52.21999121],[-118.34146467,52.19853979],[-118.45766567,52.20215218],[-118.5243813,52.17817785],[-118.59623604,52.19070667],[-118.68117443,52.14952133],[-118.69436725,52.16610912],[-118.72452993,52.15802957],[-118.74260839,52.18084678],[-118.80681596,52.179444],[-118.85233519,52.21103297],[-118.84864512,52.23561903],[-118.89714382,52.23899584],[-118.8791329,52.26349655],[-118.79058297,52.304669],[-118.86620358,52.34198616],[-118.9126863,52.34606508],[-118.93374713,52.3694933],[-118.94005128,52.39095049],[-118.92366855,52.41903734],[-118.94146933,52.43140082],[-118.93727327,52.4532881],[-118.88912851,52.48223376],[-118.93539287,52.54557684],[-118.92733789,52.56207491],[-119.0037216,52.60102843],[-119.03462004,52.59427909],[-119.08618512,52.65871752],[-119.18485984,52.63335443],[-119.2000479,52.59785673],[-119.35398982,52.58635343],[-119.37626466,52.61266424],[-119.35962727,52.65133154],[-119.37028501,52.65629208],[-119.43395852,52.63655824],[-119.46068379,52.65026479],[-119.5231564,52.628839],[-119.54204234,52.66437155],[-119.58306252,52.65817488],[-119.62616015,52.70466679],[-119.71543809,52.67542772],[-119.74640288,52.68170851],[-119.76887551,52.65931421],[-119.8471233,52.69249833],[-119.87609484,52.68940206],[-119.89746339,52.71579697],[-119.95913861,52.71678246],[-120.00978869,52.75125545],[-120.0496603,52.82382464],[-120.09198263,52.83853107],[-120.16147706,52.89430167],[-120.16926101,52.9191669],[-120.20455652,52.93351579],[-120.23176688,52.91813152],[-120.30709439,52.92145137],[-120.33898788,52.92817788],[-120.370532,52.96042488],[-120.42430354,52.95998049],[-120.44578798,52.99334972],[-120.51219088,52.9837919],[-120.5624817,53.0059654],[-120.6484604,52.99327997],[-120.71199103,53.0195697],[-120.7320036,53.06482961],[-120.71865019,53.08645909],[-120.79044912,53.13576921],[-120.7572344,53.1680589],[-120.83538096,53.18599257],[-120.85463501,53.22193245],[-120.88479737,53.2258853],[-120.94609531,53.2750636],[-120.9785904,53.27724022],[-120.99197597,53.315221],[-121.05945824,53.36735616],[-121.14572703,53.33446496],[-121.15791682,53.34632149],[-121.67503767,53.32416081],[-121.73707507,53.30649348],[-121.77058984,53.26987848],[-121.81190937,53.30358952],[-121.78655581,53.32578473],[-121.85461982,53.35189916],[-121.90392378,53.29969715],[-121.94351421,53.29624345],[-121.93140819,53.37358513],[-121.94668287,53.41471061],[-122.03279127,53.42846416],[-122.03281396,53.41400194],[-122.05702037,53.41401303],[-122.06463136,53.36157715],[-122.06075045,53.31696245],[-122.04215636,53.30307669],[-122.08593978,53.29026004],[-122.08815498,53.26161002],[-122.11428486,53.23047007],[-122.24809258,53.21188248],[-122.31611937,53.17066273],[-122.37384607,53.19357927],[-122.34983242,53.17691773],[-122.38016288,53.18248467],[-122.38030093,53.15112122],[-122.48493175,53.15546639],[-122.50461924,53.17304303],[-122.60543357,53.12484161],[-122.64458178,53.13165554],[-122.54245034,53.16429896],[-122.54254684,53.19334282],[-122.63846854,53.20779869],[-122.65084143,53.1859863],[-122.66267957,53.21496861],[-122.72401794,53.21497196],[-122.72405861,53.28752322],[-122.69008224,53.28752519],[-122.68996869,53.3854874],[-122.76253372,53.38477297],[-122.76259615,53.42731476],[-122.89496808,53.427331],[-122.89500372,53.4128693],[-122.94343266,53.3984403],[-122.96009912,53.31535636],[-122.8811304,53.31539722],[-122.88533378,53.30473691],[-122.90379007,53.31227699],[-123.00991292,53.27665607],[-123.05380791,53.29986291],[-123.1428959,53.28736667],[-123.22926867,53.30120982],[-123.35157885,53.27199428],[-123.39493994,53.28279827],[-123.48299954,53.24285009],[-123.49185551,53.4047823],[-123.6189729,53.41050831],[-123.61888093,53.42671797],[-123.74918419,53.42211222],[-123.80294239,53.46834776],[-123.93889431,53.47434369],[-123.99761927,53.46009161],[-124.04022503,53.42816654],[-124.10244318,53.42258791],[-124.21839658,53.43411831],[-124.21428881,53.44449937],[-124.23441007,53.4501261],[-124.23444645,53.42656981],[-124.29498564,53.4265879],[-124.29498764,53.37710999],[-124.3380224,53.36887955],[-124.34386494,53.34739678],[-124.30132098,53.31540334],[-124.26920599,53.31336672],[-124.2672741,53.26768993],[-124.11045197,53.2676943],[-124.11043725,53.20621321],[-124.15433855,53.17724485],[-124.28553646,53.16977912],[-124.46419436,53.11472051],[-124.67769524,53.09730234],[-124.78681066,53.06823894],[-124.80762352,53.04056616],[-124.89361688,53.00475748],[-125.51041322,53.00320093],[-125.65424722,52.91632964],[-125.77388309,52.91631284],[-125.77368043,52.85126237],[-125.72861754,52.85131997],[-125.7276728,52.48028455],[-125.73792682,52.4787387],[-125.7169789,52.44619554],[-125.73019015,52.42887715],[-125.67637764,52.38639403],[-125.68798899,52.37082069],[-125.65508939,52.32122257],[-125.62472249,52.31715931],[-125.60643867,52.29287369],[-125.60569734,52.26675368],[-125.6429755,52.24993988],[-125.64867158,52.12847679],[-125.66729479,52.12200134],[-125.65501043,52.10583939],[-125.6645896,52.07859287],[-125.62771564,52.04809935],[-125.65725124,52.01671664],[-125.60997981,52.00430393],[-125.61607548,51.98512912],[-125.5844933,51.96321337],[-125.57926457,51.91675567],[-125.54056088,51.90970298],[-125.52194952,51.93708342],[-125.48499984,51.92146981],[-125.49642933,51.88545581],[-125.465084,51.86176979],[-125.46324191,51.84276798],[-125.40446925,51.83313506],[-125.41916643,51.81891248],[-125.35403049,51.77425072],[-125.24393602,51.75744931],[-125.25808554,51.72395473],[-125.22235794,51.70419385],[-125.25293019,51.6570696],[-125.22308955,51.63111482],[-125.28500373,51.59175821],[-125.28622203,51.5723091],[-125.2462424,51.56552855],[-125.26993882,51.54690985],[-125.24029748,51.52153615],[-125.28804239,51.50522184],[-125.28913064,51.47753521],[-125.33761949,51.47763061],[-125.31282987,51.45936501],[-125.33553464,51.44343963],[-125.33628445,51.39037928],[-125.28257293,51.3814737],[-125.21144572,51.32800461],[-125.15254037,51.31939063],[-124.95532034,51.23773607],[-124.37523857,51.19298942],[-124.37418515,51.14485128],[-124.33048731,51.14843601],[-124.29488852,51.13090115],[-124.24646181,51.14982603],[-124.19700494,51.14004315],[-124.17029554,51.12906961],[-124.17411248,51.08921882],[-124.15622631,51.07113991],[-124.17324764,51.08176166],[-124.16922349,51.05250269],[-124.13477216,51.02291333],[-124.08552193,51.0090814],[-124.09124288,50.98253698],[-124.07065602,50.982067],[-124.06285372,50.94148273],[-124.0401789,50.94055415]],[[-118.79910622,52.17659845],[-118.79910398,52.17659845],[-118.79910627,52.1765984],[-118.79910622,52.17659845]]]]}},{"type":"Feature","id":"WHSE_ADMIN_BOUNDARIES.ADM_NR_AREAS_SPG.1","properties":{"sourceLayer":"WHSE_ADMIN_BOUNDARIES.ADM_NR_AREAS_SPG","boundaryCode":"1","boundaryName":"Coast Natural Resource Area","OBJECTID":1713,"AREA_NUMBER":1,"AREA_NAME":"Coast Natural Resource Area","FEATURE_AREA_SQM":202936291341.049},"geometry":{"type":"Polygon","coordinates":[[[-125.61044958,52.00457053],[-125.6515865,52.01113564],[-125.62770028,52.04979961],[-125.66463188,52.07995868],[-125.64649707,52.25027416],[-125.60629848,52.25958281],[-125.60645602,52.2945554],[-125.6700163,52.33866061],[-125.69154413,52.36900909],[-125.68240228,52.39255127],[-125.72921082,52.42699434],[-125.71196875,52.45020896],[-125.73679758,52.46972347],[-125.72861754,52.85131997],[-125.77368043,52.85126239],[-125.77075104,53.20707221],[-126.06633633,53.21042202],[-126.12732595,53.18513803],[-126.15452345,53.19562163],[-126.22102266,53.18556243],[-126.25370618,53.17344384],[-126.2427736,53.15760663],[-126.29950497,53.0868747],[-126.45409839,53.10973327],[-126.45615136,53.07166984],[-126.47600988,53.06602997],[-126.48243821,53.03386991],[-126.52581409,53.01479973],[-126.54596598,52.98134221],[-126.5958716,52.96805149],[-126.62492391,52.97361446],[-126.61570395,52.98937903],[-126.64979221,53.0322577],[-126.72419669,52.99316742],[-126.78798766,52.99672225],[-126.79319801,53.05839051],[-126.83987427,53.10637497],[-126.86309861,53.10909379],[-126.88503373,53.08366881],[-126.94801899,53.08901385],[-126.99603094,53.06567249],[-127.01549052,53.07308693],[-127.029969,53.11340487],[-126.99872139,53.15113646],[-127.0140694,53.1869254],[-127.04136395,53.19751155],[-127.0399271,53.21817398],[-126.97974764,53.26697452],[-127.01669609,53.30363937],[-127.06740164,53.28608457],[-127.08407439,53.23756602],[-127.12396988,53.24031616],[-127.15316846,53.27081561],[-127.20221781,53.24715664],[-127.24644133,53.25579306],[-127.26103378,53.27712628],[-127.28336116,53.27219994],[-127.28305676,53.24259206],[-127.3152436,53.2041797],[-127.32811824,53.22478231],[-127.36301178,53.22109219],[-127.35480449,53.1786593],[-127.40545824,53.18398585],[-127.40597358,53.16294742],[-127.47600124,53.13611531],[-127.46518464,53.11960588],[-127.43357212,53.12159266],[-127.44712316,53.10546063],[-127.43995909,53.08488936],[-127.30759949,53.07383322],[-127.25252866,53.04124019],[-127.24239487,52.99975866],[-127.25961702,52.98742073],[-127.24636527,52.95818172],[-127.28351916,52.93889079],[-127.29672672,52.90954355],[-127.21840072,52.8460181],[-127.22647546,52.81943809],[-127.29345478,52.81539334],[-127.32028625,52.79710506],[-127.35457296,52.80672416],[-127.3797021,52.77133825],[-127.37273609,52.74840422],[-127.46577712,52.7088283],[-127.46725912,52.68780839],[-127.56785927,52.69172781],[-127.58297182,52.72211331],[-127.62350451,52.73429458],[-127.59922003,52.76001437],[-127.60703307,52.78133906],[-127.68681406,52.79062349],[-127.75948013,52.75630005],[-127.79419379,52.77709778],[-127.79712739,52.81137564],[-127.81412172,52.823715],[-127.79699312,52.84957151],[-127.86014279,52.87131918],[-127.85320913,52.89386442],[-127.88461621,52.88257757],[-127.91684822,52.89484143],[-127.99902107,53.02853624],[-128.08487845,53.0229804],[-128.14583107,53.06589324],[-128.17059873,53.06674778],[-128.2006793,53.05438279],[-128.16696109,53.03109982],[-128.16282185,53.00922966],[-128.18895854,52.98412797],[-128.14677667,52.97795828],[-128.15101531,52.96823806],[-128.22189943,52.94956525],[-128.27503431,52.91172543],[-128.37697833,52.93562224],[-128.41963046,52.90553867],[-128.3961676,52.8751147],[-128.44419551,52.82303203],[-128.49404342,52.88106504],[-128.52106627,52.8830354],[-128.56107633,52.70668975],[-128.55439628,52.68259582],[-128.58811624,52.60726569],[-128.85690691,52.59291012],[-128.89068391,52.43985042],[-128.94705733,52.36116296],[-129.70338291,51.95010103],[-131.69265846,54.69807443],[-132.69892216,54.68062558],[-133.16065485,54.18729725],[-133.15379809,54.15329934],[-133.17669139,54.11926606],[-133.14194497,54.05076378],[-133.18855498,54.01270896],[-133.2260274,53.91186804],[-133.2049274,53.84846993],[-133.18229404,53.82953052],[-133.19700149,53.78655418],[-133.16910487,53.74717618],[-133.08571106,53.71777094],[-133.0945911,53.67447404],[-133.05037027,53.63463628],[-133.07631724,53.59551182],[-133.0630647,53.55375648],[-132.97003208,53.47877451],[-132.95272575,53.43851943],[-132.7672577,53.41029727],[-132.83910098,53.31984658],[-132.79379754,53.278335],[-132.7707453,53.22577642],[-132.71332245,53.18084448],[-132.65622545,53.16517899],[-132.66646548,53.12028066],[-132.64565105,53.07017054],[-132.53536451,52.9921093],[-132.40355279,52.98285057],[-132.43454986,52.91764661],[-132.34313922,52.84519422],[-132.29530848,52.77684225],[-132.00687048,52.6070861],[-131.94820146,52.55128321],[-131.83311952,52.48001622],[-131.72776976,52.4428989],[-131.66910409,52.39262246],[-131.66239533,52.35847173],[-131.61665421,52.29977415],[-131.51092178,52.23576022],[-131.47403052,52.18613499],[-131.27709206,52.05995381],[-131.17936045,52.03822145],[-131.17367682,51.98389245],[-131.12662921,51.93984681],[-129.13026648,50.81625348],[-129.07768587,50.80526415],[-129.01012733,50.81417206],[-128.99441492,50.7896174],[-128.95420924,50.77459673],[-128.85057078,50.78887548],[-128.82997281,50.7614181],[-128.78231978,50.74108642],[-128.70623545,50.7580179],[-128.58702245,50.74210252],[-128.52757258,50.76325981],[-128.50292176,50.79075584],[-128.49338381,50.7555176],[-128.4465427,50.70135142],[-128.43609863,50.65726885],[-128.36196685,50.58522264],[-128.31235124,50.56575337],[-128.27868145,50.51654104],[-128.14882198,50.43550007],[-128.04088175,50.40101695],[-128.06038018,50.35762727],[-128.05191318,50.32437594],[-128.01750581,50.29255046],[-127.93657155,50.27685036],[-127.95074984,50.2508443],[-127.93752334,50.1801936],[-127.98890872,50.13822967],[-127.97107328,50.08687345],[-127.82705437,50.03800742],[-127.77123351,50.03915954],[-127.68985212,50.06904563],[-127.59646039,49.98701391],[-127.40891509,49.94292273],[-127.0980463,49.77303442],[-127.03052233,49.77167037],[-127.04430506,49.74581996],[-127.03095009,49.718817],[-126.9497974,49.64810481],[-126.89883885,49.62510428],[-126.87924616,49.59183228],[-126.68917939,49.53343775],[-126.64309831,49.53270637],[-126.62741576,49.51104645],[-126.64171179,49.40861537],[-126.58475675,49.33935234],[-126.46450552,49.33424279],[-126.39464348,49.36384143],[-126.29504461,49.29552894],[-126.28350931,49.25758058],[-126.17349894,49.20655539],[-126.15984825,49.15911215],[-126.12845106,49.13332151],[-125.95408998,49.08795243],[-125.93274478,49.06074904],[-125.85132618,49.02274927],[-125.77103469,49.02173745],[-125.71496449,48.96402425],[-125.58492182,48.88755787],[-125.45875639,48.86996201],[-125.40849858,48.80541503],[-125.19151309,48.73362503],[-125.13510179,48.68459546],[-124.85539119,48.619751],[-124.80191158,48.58274282],[-124.73537448,48.49658849],[-124.01248891,48.29695479],[-123.54160851,48.22483419],[-123.24880651,48.28429684],[-123.1142306,48.42312433],[-123.16025122,48.45380178],[-123.21932499,48.54899633],[-123.26827725,48.69426978],[-123.00893343,48.767368],[-123.00893664,48.83147737],[-123.32277502,49.00228943],[-121.00149395,49.00028036],[-120.9908174,49.04060331],[-120.93557509,49.03225885],[-120.86079758,49.0500416],[-120.8911746,49.07652467],[-120.96544797,49.09690952],[-120.86541131,49.11955861],[-120.86881521,49.14866373],[-120.89376051,49.16804728],[-120.89196767,49.206538],[-120.84568748,49.22333654],[-120.84917685,49.24331531],[-120.81852045,49.25516612],[-120.81709222,49.2931427],[-120.89708,49.31076584],[-120.94372937,49.27016594],[-120.99204997,49.2755296],[-120.9982224,49.31315993],[-121.01924534,49.30383013],[-121.04964246,49.33304475],[-121.07306131,49.32838188],[-121.09764527,49.34668725],[-121.05965378,49.36296169],[-121.1165076,49.38729858],[-121.09747115,49.39814251],[-121.07888184,49.46226469],[-121.10915587,49.47451858],[-121.11098918,49.50991748],[-121.04516164,49.52925096],[-121.03312072,49.56653106],[-121.13147978,49.62158672],[-121.15569946,49.61734258],[-121.16754796,49.64522431],[-121.12011392,49.67314879],[-121.15532291,49.71519288],[-121.18732079,49.7262661],[-121.21129828,49.76889412],[-121.18349842,49.81871295],[-121.12634425,49.838325],[-121.12635745,49.86260415],[-121.19591146,49.86256767],[-121.21787385,49.89777078],[-121.28663352,49.87370025],[-121.32260045,49.89936736],[-121.28826739,49.91967516],[-121.26899193,49.96384275],[-121.28798139,50.00850879],[-121.32451721,50.0318986],[-121.30838585,50.10386531],[-121.32858172,50.12694178],[-121.42496613,50.14766972],[-121.44011303,50.08908913],[-121.48287055,50.09111721],[-121.50115551,50.06714634],[-121.54896649,50.06675867],[-121.53116948,50.02783437],[-121.55239476,50.02304669],[-121.65678902,50.06345907],[-121.66241508,50.08070766],[-121.80146327,50.088763],[-121.84365197,50.07813698],[-121.86687002,50.04713336],[-121.909941,50.05346112],[-121.95855472,50.09079107],[-122.01869439,50.08517398],[-122.06903031,50.12537657],[-122.12279546,50.10915199],[-122.260038,50.12326873],[-122.31832336,50.18558075],[-122.27740234,50.20462527],[-122.27336969,50.2242167],[-122.36005643,50.23489542],[-122.34690258,50.25124963],[-122.36829193,50.25994585],[-122.35732624,50.28537082],[-122.37044343,50.31711218],[-122.44395388,50.3347211],[-122.52721597,50.39440687],[-122.49429554,50.44304078],[-122.44391513,50.42890834],[-122.41134889,50.39793606],[-122.31906063,50.41886909],[-122.29908273,50.43108169],[-122.30458693,50.46369894],[-122.28528985,50.47410278],[-122.33842388,50.52124981],[-122.41821349,50.55262372],[-122.45704067,50.56275282],[-122.47268716,50.55125119],[-122.51215685,50.58725764],[-122.55326527,50.57882918],[-122.61823897,50.60200248],[-122.60435212,50.6301534],[-122.62730985,50.63808767],[-122.62256398,50.64745043],[-122.70579245,50.64210109],[-122.76336549,50.658273],[-122.83596539,50.64550639],[-122.86855013,50.61570052],[-122.93870787,50.5949854],[-122.9544277,50.5503051],[-122.99791881,50.5753954],[-123.00263978,50.59515773],[-123.03557867,50.6035506],[-123.0512299,50.57693782],[-123.10982013,50.61913287],[-123.17195233,50.62959939],[-123.23633285,50.72126149],[-123.31575339,50.72376384],[-123.35833557,50.75286899],[-123.36818539,50.79295763],[-123.40735516,50.77352001],[-123.45590463,50.79793951],[-123.50218373,50.77372082],[-123.5313024,50.79197064],[-123.59990499,50.77596112],[-123.66087363,50.79759058],[-123.70188451,50.78926181],[-123.72875039,50.8185407],[-123.68337261,50.87946552],[-123.70635448,50.8960063],[-123.76753642,50.88665067],[-123.76687954,50.90663801],[-123.82668804,50.90202215],[-123.83920613,50.92992781],[-123.87707369,50.94478582],[-123.93618993,50.93479321],[-123.98694569,50.96044037],[-124.06477247,50.93675197],[-124.08682615,51.00695363],[-124.15602755,51.03512348],[-124.1750623,51.0606976],[-124.17522002,51.08079034],[-124.15524743,51.08037305],[-124.17431404,51.08738016],[-124.17083058,51.12670258],[-124.1962073,51.13903196],[-124.24646181,51.14982604],[-124.29184045,51.13053512],[-124.33899835,51.14978243],[-124.37404397,51.14481996],[-124.37523367,51.19063676],[-124.95532034,51.23773609],[-125.14361746,51.32094695],[-125.2123227,51.32868927],[-125.2653089,51.37561166],[-125.34256291,51.39996729],[-125.33457566,51.44712975],[-125.31534858,51.45446442],[-125.33404782,51.48325767],[-125.29381603,51.4747181],[-125.27990939,51.50607778],[-125.23999862,51.51696736],[-125.26604199,51.54437478],[-125.24691966,51.56675337],[-125.28684172,51.57289028],[-125.28468478,51.59257494],[-125.22315517,51.63145805],[-125.25247891,51.65845964],[-125.22815321,51.69886303],[-125.2577087,51.72497307],[-125.23552237,51.7456247],[-125.27907146,51.77161591],[-125.35199876,51.77371665],[-125.41976025,51.81712939],[-125.41153349,51.83796663],[-125.46213633,51.83901379],[-125.46213607,51.85943797],[-125.49766542,51.89416345],[-125.48499984,51.92146981],[-125.53024245,51.93695951],[-125.53561176,51.91182465],[-125.57537618,51.91396849],[-125.58960346,51.94069521],[-125.58004249,51.95846688],[-125.61632651,51.98236707],[-125.61044958,52.00457053]]]}},{"type":"Feature","id":"WHSE_ADMIN_BOUNDARIES.ADM_NR_AREAS_SPG.2","properties":{"sourceLayer":"WHSE_ADMIN_BOUNDARIES.ADM_NR_AREAS_SPG","boundaryCode":"2","boundaryName":"North Natural Resource Area","OBJECTID":1714,"AREA_NUMBER":2,"AREA_NAME":"North Natural Resource Area","FEATURE_AREA_SQM":596896554790.935},"geometry":{"type":"Polygon","coordinates":[[[-125.51571557,53.00000119],[-124.90162188,53.00336749],[-124.81376916,53.03843173],[-124.78429878,53.06958027],[-124.67769524,53.09730234],[-124.46057415,53.11503467],[-124.27865012,53.17164222],[-124.15720776,53.17655178],[-124.1102541,53.2049204],[-124.11045197,53.2676943],[-124.2672741,53.26768993],[-124.26723898,53.31387503],[-124.34413704,53.34076422],[-124.33767218,53.36820591],[-124.29498764,53.37710999],[-124.29498564,53.4265879],[-124.23444645,53.42656981],[-124.23441007,53.4501261],[-124.21211401,53.43343042],[-124.10330698,53.4225637],[-124.04022503,53.42816654],[-123.99787191,53.44204972],[-123.99363972,53.46032945],[-123.94141033,53.47209913],[-123.80434069,53.46840473],[-123.74896849,53.4192339],[-123.61888093,53.42671797],[-123.6189729,53.41050831],[-123.49185551,53.4047823],[-123.49261246,53.24027582],[-123.39493994,53.28279827],[-123.33428392,53.27323058],[-123.24336848,53.30026501],[-123.1428959,53.28736667],[-123.04695006,53.29935343],[-123.00991292,53.27665607],[-122.97103649,53.2834127],[-122.96589261,53.30116458],[-122.88034385,53.30749163],[-122.96009912,53.31535636],[-122.94343266,53.3984403],[-122.89500372,53.4128693],[-122.89496808,53.427331],[-122.76259615,53.42731476],[-122.76253372,53.38477297],[-122.68996869,53.3854874],[-122.69008224,53.28752519],[-122.72405861,53.28752322],[-122.72401794,53.21497196],[-122.66267957,53.21496861],[-122.66261678,53.19338996],[-122.63879951,53.1860103],[-122.63846854,53.20779869],[-122.54254684,53.19334282],[-122.54245034,53.16429896],[-122.64458178,53.13165554],[-122.61195087,53.11967621],[-122.50071904,53.17393467],[-122.45573406,53.14765967],[-122.42447557,53.16172484],[-122.38166185,53.15386933],[-122.38016288,53.18248467],[-122.34983242,53.17691773],[-122.37111194,53.18790085],[-122.361038,53.19125495],[-122.31185181,53.16997294],[-122.24364936,53.2124926],[-122.10581034,53.23598921],[-122.08078567,53.28156372],[-122.09041633,53.287157],[-122.04214745,53.30972818],[-122.05565069,53.3133473],[-122.06461173,53.38508191],[-122.05702037,53.41401303],[-122.03281396,53.41400194],[-122.03279127,53.42846416],[-121.94508224,53.41386319],[-121.93131005,53.37199145],[-121.94582833,53.29776593],[-121.90840446,53.2967519],[-121.87667705,53.34097096],[-121.84775025,53.35035876],[-121.79911415,53.3382289],[-121.79243202,53.32860561],[-121.81486073,53.30558634],[-121.77347527,53.27102782],[-121.73038313,53.31047558],[-121.67916984,53.32021146],[-121.16503015,53.34597115],[-121.14701772,53.33411745],[-121.06081745,53.36732396],[-120.98123163,53.30705039],[-120.97154816,53.2786459],[-120.94968016,53.2793666],[-120.88479737,53.2258853],[-120.8605529,53.22590624],[-120.83538096,53.18599257],[-120.7514161,53.16626724],[-120.78573672,53.12989433],[-120.71865019,53.08645909],[-120.71504033,53.07595084],[-120.73588339,53.07147667],[-120.71250891,53.02202615],[-120.6484604,52.99327997],[-120.5624817,53.0059654],[-120.51258248,52.98414934],[-120.44578798,52.99334972],[-120.42430354,52.95998049],[-120.37161533,52.96077664],[-120.3340109,52.92492645],[-120.16332454,52.92491216],[-120.16094773,52.89262822],[-120.04452151,52.81997079],[-120.01387422,52.75620458],[-119.96078312,52.71834058],[-119.90866693,52.71930481],[-119.86642587,52.68515221],[-119.8471233,52.69249833],[-119.77532803,52.66156879],[-119.74828712,52.68126987],[-119.71716861,52.67466718],[-119.6619874,52.70010927],[-119.61496012,52.70234533],[-119.61253912,52.68164437],[-119.57757987,52.65222882],[-119.54204234,52.66437155],[-119.5231564,52.628839],[-119.46263955,52.6507134],[-119.43422784,52.63679176],[-119.37028501,52.65629208],[-119.35962727,52.65133154],[-119.37769675,52.61574193],[-119.35766757,52.58857657],[-119.18988181,52.60099575],[-119.18630503,52.63005381],[-119.08706228,52.6585594],[-119.03462004,52.59427909],[-119.0037216,52.60102843],[-118.99064694,52.58450624],[-118.92726912,52.56816485],[-118.93866861,52.54973269],[-118.91108099,52.53050875],[-118.88666052,52.47462557],[-118.93025148,52.4577416],[-118.94200673,52.43605666],[-118.92528379,52.42229587],[-118.93980485,52.39135354],[-118.92654645,52.35428843],[-118.78795899,52.30715139],[-118.88505781,52.25962128],[-118.89632858,52.24093569],[-118.84114585,52.23373625],[-118.84598194,52.20599839],[-118.80681596,52.179444],[-118.74260839,52.18084678],[-118.72452993,52.15802957],[-118.69436725,52.16610912],[-118.68245357,52.14909121],[-118.59623604,52.19070667],[-118.52107749,52.17783745],[-118.3954413,52.20748239],[-118.34010243,52.19883881],[-118.3125813,52.2173593],[-118.31115775,52.23805869],[-118.25914905,52.26046439],[-118.29979563,52.32979772],[-118.25608284,52.34669173],[-118.21878628,52.38555536],[-118.24106158,52.40363043],[-118.25024713,52.4491771],[-118.19600867,52.4781917],[-118.25020657,52.4961766],[-118.28595682,52.53710734],[-118.27054809,52.56236291],[-118.3286967,52.57784149],[-118.33346919,52.60606182],[-118.35673815,52.61505033],[-118.35355542,52.63536348],[-118.3059543,52.65119679],[-118.28845546,52.67463455],[-118.34455484,52.70902652],[-118.32862746,52.73791875],[-118.41871012,52.77394179],[-118.42173563,52.79607246],[-118.39332285,52.846586],[-118.4469646,52.85294707],[-118.46341764,52.86849876],[-118.45258239,52.88695685],[-118.50640591,52.90623336],[-118.61565236,52.8810424],[-118.61971393,52.94187681],[-118.67099112,52.97717101],[-118.64745146,52.99361839],[-118.65711936,53.03438588],[-118.70043872,53.03383322],[-118.72365551,53.0558783],[-118.77026175,53.04140015],[-118.76817469,53.07536475],[-118.72951194,53.11182066],[-118.94251209,53.23374751],[-119.02117621,53.23177487],[-118.9973999,53.20922206],[-119.02195043,53.16266412],[-119.00149745,53.14603055],[-119.03903661,53.12472516],[-119.05667927,53.14929624],[-119.12197181,53.16020766],[-119.15520588,53.18798399],[-119.22411822,53.19501873],[-119.25547493,53.17592609],[-119.26753411,53.21723381],[-119.35972913,53.31060424],[-119.34837281,53.31557185],[-119.35507894,53.33595436],[-119.40028801,53.36325012],[-119.45085364,53.3489621],[-119.59886699,53.38360218],[-119.60931948,53.38341316],[-119.59571431,53.36500039],[-119.61612016,53.36146758],[-119.73007673,53.38888113],[-119.76698945,53.42939001],[-119.75863957,53.43586676],[-119.7937536,53.49366379],[-119.83473961,53.51351082],[-119.86685545,53.50012615],[-119.89763358,53.51461736],[-119.89982431,53.5305796],[-119.86969155,53.54545736],[-119.86591164,53.56344124],[-119.92803521,53.60695087],[-119.90984297,53.62163309],[-119.75767273,53.59046819],[-119.71700285,53.6145891],[-119.74000615,53.63942921],[-119.73802997,53.66176146],[-119.80335912,53.70692757],[-119.83820615,53.69461058],[-119.85428769,53.71515167],[-119.90368367,53.70863709],[-119.91420448,53.714981],[-119.89715428,53.72833894],[-119.8897921,53.77419282],[-119.95915919,53.77919918],[-119.99404097,53.80416087],[-120.00134379,60.00046351],[-139.06131061,59.99964116],[-138.70751546,59.90629013],[-138.66878003,59.80961928],[-138.62633,59.76854175],[-137.607413,59.24379319],[-137.50001809,58.98539804],[-137.52612345,58.9063741],[-137.45173381,58.908356],[-137.28285985,59.00001605],[-136.828733,59.15997767],[-136.58445484,59.16586473],[-136.48973263,59.25977085],[-136.4957889,59.27512706],[-136.46927993,59.28407125],[-136.47718645,59.46581667],[-136.36827775,59.44895119],[-136.30504816,59.46451379],[-136.23853215,59.52431987],[-136.23985936,59.559401],[-136.35395416,59.59982087],[-136.1929386,59.64000543],[-135.95266028,59.66215621],[-135.47916605,59.79803563],[-135.36011602,59.73761164],[-135.23367285,59.69614076],[-135.21984934,59.66277478],[-135.15759369,59.62571836],[-135.11783639,59.62306885],[-135.02890469,59.56365863],[-135.02756616,59.47473849],[-135.10102046,59.42753245],[-134.98974761,59.38713173],[-135.03052725,59.34635066],[-134.95990948,59.28092955],[-134.70075285,59.24917312],[-134.67915357,59.1924376],[-134.56560063,59.13119781],[-134.48343754,59.13161397],[-134.38191209,59.03877042],[-134.40717624,58.97921161],[-134.31351569,58.96218551],[-134.33648418,58.92341055],[-134.25936551,58.86105757],[-133.84051893,58.72943573],[-133.70714258,58.61227142],[-133.37731115,58.43053524],[-133.46151124,58.38771151],[-133.34544515,58.27643869],[-133.17251609,58.15386572],[-133.07030067,58.00051757],[-132.86959567,57.83986575],[-132.75129997,57.69612752],[-132.55389784,57.49663443],[-132.37000275,57.34987043],[-132.24799557,57.21138122],[-132.36893081,57.09150719],[-132.0453067,57.04510852],[-132.12352455,56.87363019],[-131.87287294,56.80598978],[-131.90106042,56.75366724],[-131.86066413,56.70297866],[-131.83530609,56.59919527],[-131.5810359,56.61222267],[-131.4719681,56.55265218],[-131.08715909,56.40614561],[-130.78214578,56.36691575],[-130.62332476,56.26697116],[-130.46802994,56.24311522],[-130.42614654,56.14161639],[-130.24636784,56.09646133],[-130.10394521,56.12284428],[-130.00332393,56.00800324],[-130.01748787,55.91185463],[-130.00392813,55.91197397],[-130.15230064,55.76629216],[-130.14765755,55.71491018],[-130.11155688,55.68290703],[-130.12781516,55.58104019],[-130.08977652,55.49798267],[-130.04116124,55.45172867],[-130.02109551,55.33792322],[-129.97415682,55.28192161],[-130.10284622,55.1926123],[-130.18757457,55.06285531],[-130.27334999,54.97398624],[-130.48029357,54.83669452],[-130.65906919,54.76307739],[-130.62574534,54.73809019],[-130.61568309,54.70747388],[-131.69265846,54.69807443],[-129.70338291,51.95010103],[-128.94705733,52.36116296],[-128.89068391,52.43985042],[-128.85871743,52.58448033],[-128.65712045,52.60916084],[-128.594641,52.6028879],[-128.55922631,52.67991128],[-128.52466128,52.87595361],[-128.49736349,52.88308981],[-128.43554566,52.8283337],[-128.39745778,52.87057575],[-128.41724601,52.87976616],[-128.41746069,52.90657122],[-128.38030919,52.93467798],[-128.27786184,52.91151749],[-128.24649593,52.93861166],[-128.15428754,52.96879776],[-128.14486097,52.97509421],[-128.18873678,52.98378616],[-128.16419516,53.020545],[-128.20171988,53.05366213],[-128.17059873,53.06674778],[-128.14579115,53.06850952],[-128.08753167,53.02414113],[-127.99420349,53.02411976],[-127.91657782,52.89559769],[-127.8856193,52.88312731],[-127.8574284,52.8966687],[-127.86081089,52.87584106],[-127.79579681,52.84431903],[-127.81369339,52.82841772],[-127.79457139,52.81527513],[-127.79434363,52.78504058],[-127.76175766,52.76146422],[-127.68873951,52.79001249],[-127.61209382,52.77915433],[-127.59931915,52.76435537],[-127.62047431,52.73235481],[-127.57949419,52.71944863],[-127.56348067,52.68971682],[-127.51009387,52.6951687],[-127.49409154,52.68149913],[-127.36721704,52.75207867],[-127.37829149,52.77764324],[-127.35534325,52.80628979],[-127.32028625,52.79710506],[-127.21799758,52.82522037],[-127.21538006,52.85442949],[-127.25151711,52.86322967],[-127.29513016,52.90391791],[-127.28715267,52.93138664],[-127.24495888,52.9553746],[-127.25935605,52.98086509],[-127.23978419,53.00201176],[-127.25441154,53.04223998],[-127.2891626,53.07101328],[-127.44389948,53.08539209],[-127.44009831,53.11617639],[-127.47533321,53.13249924],[-127.44666801,53.15602861],[-127.41073236,53.15922169],[-127.40154624,53.1863956],[-127.35962975,53.17594476],[-127.35625328,53.22478375],[-127.33576072,53.22691009],[-127.31167925,53.2049673],[-127.2817963,53.24554587],[-127.28817258,53.26560587],[-127.26697549,53.27580604],[-127.20498121,53.2474657],[-127.16749407,53.27290636],[-127.12580846,53.24011393],[-127.08691181,53.23807446],[-127.06253628,53.29093827],[-127.00834493,53.30365218],[-126.97780954,53.26200688],[-127.04145858,53.21581122],[-127.0445037,53.19738052],[-127.01312613,53.18775287],[-126.99638578,53.15313461],[-127.03133006,53.1155184],[-127.01731991,53.0795984],[-127.00127569,53.06554858],[-126.94290452,53.09072006],[-126.89165467,53.08244969],[-126.85816611,53.10850985],[-126.83609634,53.1036177],[-126.7961767,53.06660963],[-126.78381742,52.99609416],[-126.73088581,52.99244819],[-126.64741018,53.03014418],[-126.6187277,52.99623802],[-126.63093451,52.97777313],[-126.55148228,52.97939104],[-126.51999557,53.01916067],[-126.48978075,53.02745812],[-126.47375169,53.06797545],[-126.45365039,53.07828813],[-126.45843948,53.10416175],[-126.29885812,53.08764093],[-126.24001648,53.1529979],[-126.25427905,53.16934924],[-126.24379131,53.17603448],[-126.15207448,53.1946133],[-126.12853964,53.1846367],[-126.09527639,53.2079624],[-126.02665243,53.2127036],[-125.77075104,53.20707221],[-125.7738831,52.91631285],[-125.65424722,52.91632966],[-125.51571557,53.00000119]]]}}]}
