{"type":"FeatureCollection","features":[{"type":"Feature","id":811,"geometry":{"type":"MultiPolygon","coordinates":[[[[-121.47494099964558,54.7228339998302],[-121.47713699995845,54.72933000015576],[-121.4890769994322,54.73581499991757],[-121.49483500018705,54.74443000004264],[-121.49005099982196,54.751464999996],[-121.5010760007051,54.75622399978645],[-121.51991900034976,54.7660139996027],[-121.52842999993292,54.77050899997252],[-121.52410200007714,54.77807699962454],[-121.5218619999659,54.790682000079464],[-121.52350299972711,54.79717599959322],[-121.54027300019274,54.799937000451145],[-121.54488899995118,54.80457099956146],[-121.54803000064048,54.812790000054115],[-121.55541899964417,54.819277000084824],[-121.58185599999688,54.823206999858655],[-121.6267639992661,54.837698000129535],[-121.64497100067425,54.8440189997224],[-121.64433199990404,54.85052099970747],[-121.64806300066726,54.85674600041372],[-121.65771000069005,54.855925999653785],[-121.66287500018613,54.85788999983359],[-121.67501699975095,54.862508999780395],[-121.68947100036716,54.87108899975077],[-121.69734799997052,54.87743299996785],[-121.7271070000947,54.88503099997961],[-121.74269300029457,54.87914200005295],[-121.73729699925735,54.86907799991811],[-121.75993299977469,54.85679299996091],[-121.76470500064788,54.8517339999624],[-121.77365600055495,54.85010899984699],[-121.77769400023506,54.841604000061245],[-121.78454500031494,54.837596999629035],[-121.79443100002717,54.83769099975384],[-121.79967899941703,54.85345600011232],[-121.805240000479,54.85714800001954],[-121.83219000060757,54.860884000099944],[-121.86792999978971,54.867355999800964],[-121.87282299970255,54.87157799966006],[-121.87229499948035,54.883389000237116],[-122.03362599955175,54.88170400027111],[-122.33981800027121,54.76241399972711],[-122.42875700077866,54.7580289998499],[-122.46688300012049,54.762052000331806],[-122.56242099943232,54.74321999967899],[-122.66270499971422,54.764107000323534],[-122.79560400000403,54.7501640002324],[-122.91967099967725,54.75528500044048],[-123.23222299991568,54.7429809998998],[-123.35208999953656,54.70588699957213],[-123.48145099966302,54.709322000361375],[-123.65709799993449,54.735424999862296],[-123.79571700013268,54.692655999691915],[-123.79418500022204,54.69116200009373],[-123.79287699932144,54.689525000325894],[-123.79208000057099,54.68765699987247],[-123.79094000035587,54.684904000280994],[-123.7895270006414,54.68161400035072],[-123.7905099999331,54.679695000364696],[-123.79308500065662,54.6746930001214],[-123.7783100003923,54.659083999959066],[-123.77999100064221,54.65014200037656],[-123.78616100065373,54.62718400008606],[-123.77757200005483,54.61843299977202],[-123.77846599982774,54.61318700044172],[-123.80806000068496,54.60513900008269],[-123.80772900051112,54.60294600032232],[-123.77987999944735,54.59257199983971],[-122.98045000020349,54.42938499983792],[-122.8560800001143,54.384758999620615],[-122.82833099977292,54.41598900011474],[-122.7475790002958,54.48717199984241],[-122.74332299927477,54.489665999661405],[-122.73758699970143,54.49205000024637],[-122.73268400025997,54.51602899966552],[-122.70029799936606,54.51598099970906],[-122.69643399968085,54.51597300016954],[-122.69312199991708,54.5159710000534],[-122.63292099925152,54.51594099975621],[-122.63254600057583,54.51001399974079],[-122.6117390002427,54.49687700033833],[-122.60877900055984,54.49520100007858],[-122.35971299999744,54.34754699996192],[-122.36118399987323,54.27684199992938],[-121.81741199937643,54.43653800037807],[-121.52410299939137,54.651428999714106],[-121.52370600060944,54.66482100010904],[-121.5198460007298,54.670926999611915],[-121.51944800062537,54.68431999992883],[-121.49863800052125,54.68938699998773],[-121.48652199981682,54.6945740002688],[-121.47968999983664,54.70585499978585],[-121.47494099964558,54.7228339998302]]],[[[-122.77705799942493,53.98205900012978],[-122.77779700055598,53.982661000261984],[-122.7779899996345,53.98283699973356],[-122.77812299928868,53.9829580004382],[-122.77867900002093,53.98352299964065],[-122.7789950007485,53.984039999809355],[-122.77945000021683,53.98537900012405],[-122.77973400003296,53.98589800038079],[-122.78012100007642,53.986327999982386],[-122.78050600075515,53.98664900038008],[-122.78100500063371,53.9869740002098],[-122.7813989996151,53.987171000064706],[-122.78340800069418,53.987947000164574],[-122.78489800058107,53.98852500038307],[-122.78673999957134,53.989493000283744],[-122.78684899945559,53.989553999828935],[-122.79640799936587,53.99482100032473],[-122.79719999971059,53.99531600011712],[-122.79781400058602,53.99568400044419],[-122.79844200045926,53.99617200019794],[-122.79916500004414,53.99681400014478],[-122.7996150002934,53.99733399967087],[-122.79998300072316,53.997738000231735],[-122.80037799958343,53.99835199998408],[-122.80075499999906,53.999140999595305],[-122.80089600010322,53.999644000343025],[-122.8009099994134,53.99981199994017],[-122.80101800052303,54.00037200033192],[-122.80103799964253,54.00358999955142],[-122.80119600071686,54.00359099976059],[-122.80162500047724,54.003714000017624],[-122.80253100039464,54.004154999571114],[-122.8033030002444,54.004530999775824],[-122.80521499968498,54.00546799989544],[-122.80686500059454,54.00627099989862],[-122.8075500006064,54.00660500034436],[-122.81346700070416,54.00943400025476],[-122.81399800031045,54.0095570002372],[-122.8145290005835,54.00960300017818],[-122.81652400044177,54.00946799981429],[-122.81942799946282,54.00926599997507],[-122.82258399930018,54.009029999771876],[-122.8256969996379,54.00879599981347],[-122.82676700065895,54.00882800017359],[-122.82754800058913,54.009033999898186],[-122.82810799990409,54.009308000395606],[-122.8300239998082,54.01090600037792],[-122.8303050007143,54.01110799982837],[-122.83076200046334,54.01134000008146],[-122.83118900060617,54.01147000028467],[-122.83192699982604,54.01162999988339],[-122.83257799975983,54.0116379996833],[-122.83312000027786,54.01160699985131],[-122.83369999932823,54.01157200019087],[-122.83422400076059,54.01148300024996],[-122.83480299952976,54.01131999973212],[-122.83557199979053,54.01101200009084],[-122.8362830002421,54.010778000322254],[-122.83681500005302,54.01067000042959],[-122.83739400056135,54.01063099995221],[-122.83791299984867,54.01063000028884],[-122.84117000061009,54.010636999683406],[-122.84403300027412,54.01062700009716],[-122.84699099935679,54.01063000036344],[-122.85006000034711,54.0106290002108],[-122.85016500055706,53.98129499992282],[-122.8257979993611,53.98130499968482],[-122.82573199971802,53.96760900031919],[-122.81273299997459,53.96760900040591],[-122.81269300001337,53.96212299996429],[-122.81179000031207,53.96296599967569],[-122.81093500002585,53.96337799967537],[-122.80951600032348,53.96377999956522],[-122.80745599947076,53.96406499963127],[-122.80605400048658,53.96418799965458],[-122.80238000024268,53.96429000041123],[-122.80070199946759,53.964412999665456],[-122.79966499967522,53.96459099990288],[-122.79790900057931,53.96517199994779],[-122.79644199938309,53.96603299959982],[-122.79530700020524,53.96734300007984],[-122.79495200031317,53.96829499975728],[-122.79496500075513,53.968790000028285],[-122.79503899962377,53.969320000152436],[-122.79549100050993,53.97023799997617],[-122.79761499945081,53.97248799995303],[-122.79976700037689,53.97514299975422],[-122.80159000063585,53.977952000054984],[-122.8018289996962,53.97834099993748],[-122.80101299990271,53.97833899997092],[-122.80101000038967,53.98075000044198],[-122.8010129992996,53.98132700026063],[-122.800041999467,53.9819710002423],[-122.795928000202,53.981968999647066],[-122.7955349994688,53.981477000210404],[-122.79521900014065,53.98110099990403],[-122.79446299931327,53.9812260001306],[-122.79329900075517,53.98123600003781],[-122.7926390006613,53.981192000388155],[-122.79213700038481,53.98109200044019],[-122.79122099947533,53.980816999673735],[-122.79077199937801,53.98122999955298],[-122.79065799949541,53.98129200044192],[-122.79059100043077,53.98130300003319],[-122.7904850003984,53.98132200009786],[-122.78962999953791,53.98125900008221],[-122.78794500069576,53.98123100012287],[-122.78728499974314,53.981178999638374],[-122.78637099965653,53.98097300019186],[-122.78540000013325,53.980701999797404],[-122.78519100056337,53.980644000073255],[-122.78457899963209,53.980437999675544],[-122.78320800006047,53.98148800002381],[-122.78031200069087,53.98166600037253],[-122.78014999927852,53.98181299980768],[-122.77983800028079,53.98182300030753],[-122.77749099940021,53.98193599964146],[-122.77719400016483,53.98202300027733],[-122.77705799942493,53.98205900012978]]],[[[-122.76081099960953,54.039263999619806],[-122.7682150007491,54.03400199955961],[-122.77639900070024,54.02817600014313],[-122.77716599977916,54.027611000413636],[-122.79035700027913,54.018277999914346],[-122.79447699928139,54.0153549996082],[-122.7973020005525,54.01337000008924],[-122.79864999998976,54.01237099977335],[-122.79905700021251,54.01201400030111],[-122.79966600059204,54.01134900031409],[-122.79984500007266,54.011112999811715],[-122.79991800005429,54.0110760003255],[-122.80023999970454,54.01066600004463],[-122.80047200011977,54.010324999894706],[-122.80060199977595,54.01012999977793],[-122.80081500071186,54.00967499970598],[-122.80105899964076,54.00879399971421],[-122.80102100057579,54.00873000035134],[-122.80108400018486,54.007179999891],[-122.80109399999024,54.00663900004339],[-122.8007270003253,54.006638000386125],[-122.76086300031322,54.00660199955327],[-122.76081099960953,54.039263999619806]]]]},"properties":{"OBJECTID":811,"SchoolName":"Heather Park Elementary"}},{"type":"Feature","id":812,"geometry":{"type":"Polygon","coordinates":[[[-122.89937336802231,53.97888519827497],[-122.89937138892937,53.9784840130038],[-122.89937097432015,53.978399806310705],[-122.89919510805251,53.97836137023714],[-122.89903651459537,53.978305332027546],[-122.89882568903066,53.97821909595739],[-122.89875113165294,53.9781885990529],[-122.89862877314101,53.97813855613105],[-122.89846575026274,53.97807188337491],[-122.8978676503749,53.97792073844185],[-122.89744368242305,53.97783130674791],[-122.89722702007471,53.97776721729447],[-122.89663466123855,53.97764104865238],[-122.89578102523882,53.977490760799384],[-122.89534157374744,53.97737740028741],[-122.89527619680536,53.977363717592816],[-122.89527636752351,53.97729564296061],[-122.8952775946945,53.97680629472665],[-122.89527315184924,53.97649432784448],[-122.89525599997764,53.97648599993423],[-122.89134500062758,53.976485000070504],[-122.88889099968416,53.97655999966555],[-122.88643800001282,53.97700700032348],[-122.88317999979097,53.97800199999126],[-122.88182599946107,53.978375000298335],[-122.87903400002172,53.97842499969548],[-122.87615799985646,53.97772900006547],[-122.8734500005859,53.97643500026416],[-122.87116700000519,53.97430699974514],[-122.8699829994243,53.97323699991797],[-122.8686879992818,53.9718119995561],[-122.86720100043203,53.97082399977786],[-122.86425399964293,53.970143999923856],[-122.86075500063986,53.969917000289556],[-122.85739500018032,53.969300999634896],[-122.85362099954312,53.96794000020268],[-122.85048099984289,53.96601300013985],[-122.84610200027365,53.96272400015848],[-122.84552299973105,53.96167099967314],[-122.84128099966881,53.959856999963655],[-122.8389129997544,53.958859999796665],[-122.83632399945611,53.95766099996358],[-122.83323900025732,53.95636999969225],[-122.83092499978628,53.95481400029228],[-122.82762000009312,53.95280499974015],[-122.82497599931129,53.95040600001627],[-122.82056900074377,53.94781199978928],[-122.81741200003128,53.9460229997111],[-122.81531300025988,53.9454179996059],[-122.8116439999486,53.94534900042308],[-122.80878000041248,53.944571000437236],[-122.80508200042384,53.94403499967236],[-122.80205900052972,53.94223699979537],[-122.79913900040705,53.94052599967844],[-122.79423599989757,53.93838499999453],[-122.79242600066364,53.9366170000155],[-122.79005000075918,53.93458999971192],[-122.78900300057738,53.932384000220026],[-122.7880110003561,53.930372999748485],[-122.78602800004184,53.92891400035054],[-122.78338399944057,53.927746000394656],[-122.78053499935318,53.9270279998987],[-122.7800229996773,53.92693599995801],[-122.77666300026706,53.92648099977294],[-122.77225600064462,53.926967999849964],[-122.76851000049365,53.927195000449665],[-122.7668559993975,53.92715299980576],[-122.7639930001069,53.927162999815366],[-122.75980599931088,53.92735699989905],[-122.75418699947636,53.92735699957345],[-122.75068399987448,53.927352000194816],[-122.74630900075763,53.92706399993635],[-122.74289399970628,53.92703200039879],[-122.7390379995057,53.926934999967415],[-122.73441000000295,53.92696700035897],[-122.73143500002091,53.92693500000659],[-122.73019500027755,53.92742099957763],[-122.72643300045766,53.92818899962613],[-122.72407900030227,53.92717700005916],[-122.7228129998229,53.92641599969466],[-122.72123800048448,53.92627199965225],[-122.71774499955792,53.92579899983342],[-122.71606799999293,53.9251839998788],[-122.71551000008041,53.92439599999063],[-122.71529799960322,53.92344900035813],[-122.71275999946549,53.92051000003668],[-122.71259500040561,53.91857199960793],[-122.70940000052136,53.91805399956228],[-122.70565399945238,53.91740599969783],[-122.70190800021636,53.91649799963863],[-122.69716999973679,53.915784999699966],[-122.6927630004362,53.91513700014226],[-122.68791500073183,53.914617999969806],[-122.68257099928617,53.91453699970241],[-122.6775580005508,53.91551699992764],[-122.6731509997232,53.91791799963227],[-122.67017599961572,53.91979899976471],[-122.66764200019205,53.9216159997527],[-122.66478600044789,53.924569999633064],[-122.66499799984105,53.92706699965101],[-122.66565899993732,53.92868900005869],[-122.66835099932753,53.929420999892834],[-122.67260000014893,53.929921000415035],[-122.67733799971488,53.92972599977844],[-122.68416900028502,53.9290780002485],[-122.6891269997786,53.92992099985747],[-122.69474600029807,53.93076499976882],[-122.69671100035119,53.931379999874345],[-122.75903000009568,53.93141300011793],[-122.75904000062056,53.9333280001851],[-122.75827399985424,53.93417099997445],[-122.75799500054373,53.93505199958346],[-122.75809599952704,53.935906000238674],[-122.75895900016208,53.93708499993687],[-122.75899199968671,53.93720299997555],[-122.75958600022923,53.9379520002592],[-122.75985999966271,53.93828999960695],[-122.76032899943107,53.93911400020366],[-122.76055800043443,53.9396680001688],[-122.76076400023018,53.94061999958355],[-122.76096599994969,53.94261100034989],[-122.76119499983473,53.942707999800625],[-122.76896400028203,53.94270800016221],[-122.77726800004321,53.94270399990706],[-122.7771579997964,53.95133299978075],[-122.78839599979766,53.95126899966323],[-122.78842100016772,53.9620560000948],[-122.79530700020524,53.96734300007984],[-122.79644199938309,53.96603299959982],[-122.79790900057931,53.96517199994779],[-122.79966499967522,53.96459099990288],[-122.80070199946759,53.964412999665456],[-122.80238000024268,53.96429000041123],[-122.80605400048658,53.96418799965458],[-122.80745599947076,53.96406499963127],[-122.80951600032348,53.96377999956522],[-122.81093500002585,53.96337799967537],[-122.81179000031207,53.96296599967569],[-122.81269300001337,53.96212299996429],[-122.81273299997459,53.96760900040591],[-122.82573199971802,53.96760900031919],[-122.8257979993611,53.98130499968482],[-122.85016500055706,53.98129499992282],[-122.8993854040492,53.98132557297423],[-122.89937336802231,53.97888519827497]]]},"properties":{"OBJECTID":812,"SchoolName":"Edgewood Elementary"}},{"type":"Feature","id":813,"geometry":{"type":"Polygon","coordinates":[[[-122.69671100035119,53.931379999874345],[-122.69918199928709,53.93288300042656],[-122.70000899965177,53.9341480001593],[-122.7008899999241,53.935802000014824],[-122.70105600000365,53.93761800031459],[-122.7007249998291,53.939434000282496],[-122.70127599968177,53.940471999891145],[-122.70252299996135,53.942041999739175],[-122.70320500072889,53.9432930000717],[-122.70279199945533,53.9447200004068],[-122.70270000016055,53.946735000162626],[-122.73292499929495,53.94669399957798],[-122.73287299994266,53.95756299985979],[-122.74980899988509,53.957568999582556],[-122.74823799938137,53.95947699959192],[-122.74744000065054,53.96044399985063],[-122.74620999980817,53.96187499999726],[-122.75421699998492,53.96362600033273],[-122.75423799973984,53.96708700022361],[-122.74968499930452,53.967086999781046],[-122.74967900009952,53.98204000028009],[-122.77705799942493,53.98205900012978],[-122.77719400016483,53.98202300027733],[-122.77749099940021,53.98193599964146],[-122.77983800028079,53.98182300030753],[-122.78014999927852,53.98181299980768],[-122.78031200069087,53.98166600037253],[-122.78320800006047,53.98148800002381],[-122.78457899963209,53.980437999675544],[-122.78519100056337,53.980644000073255],[-122.78540000013325,53.980701999797404],[-122.78637099965653,53.98097300019186],[-122.78728499974314,53.981178999638374],[-122.78794500069576,53.98123100012287],[-122.78962999953791,53.98125900008221],[-122.7904850003984,53.98132200009786],[-122.79059100043077,53.98130300003319],[-122.79065799949541,53.98129200044192],[-122.79077199937801,53.98122999955298],[-122.79122099947533,53.980816999673735],[-122.79213700038481,53.98109200044019],[-122.7926390006613,53.981192000388155],[-122.79329900075517,53.98123600003781],[-122.79446299931327,53.9812260001306],[-122.79521900014065,53.98110099990403],[-122.7955349994688,53.981477000210404],[-122.795928000202,53.981968999647066],[-122.800041999467,53.9819710002423],[-122.8010129992996,53.98132700026063],[-122.80101000038967,53.98075000044198],[-122.80101299990271,53.97833899997092],[-122.8018289996962,53.97834099993748],[-122.80159000063585,53.977952000054984],[-122.79976700037689,53.97514299975422],[-122.79761499945081,53.97248799995303],[-122.79549100050993,53.97023799997617],[-122.79503899962377,53.969320000152436],[-122.79496500075513,53.968790000028285],[-122.79495200031317,53.96829499975728],[-122.79530700020524,53.96734300007984],[-122.78842100016772,53.9620560000948],[-122.78839599979766,53.95126899966323],[-122.7771579997964,53.95133299978075],[-122.77726800004321,53.94270399990706],[-122.76896400028203,53.94270800016221],[-122.76119499983473,53.942707999800625],[-122.76096599994969,53.94261100034989],[-122.76076400023018,53.94061999958355],[-122.76055800043443,53.9396680001688],[-122.76032899943107,53.93911400020366],[-122.75985999966271,53.93828999960695],[-122.75958600022923,53.9379520002592],[-122.75899199968671,53.93720299997555],[-122.75895900016208,53.93708499993687],[-122.75809599952704,53.935906000238674],[-122.75799500054373,53.93505199958346],[-122.75827399985424,53.93417099997445],[-122.75904000062056,53.9333280001851],[-122.75903000009568,53.93141300011793],[-122.69671100035119,53.931379999874345]]]},"properties":{"OBJECTID":813,"SchoolName":"Hart Highlands Elementary"}},{"type":"Feature","id":814,"geometry":{"type":"Polygon","coordinates":[[[-122.78170000022908,53.91028600005575],[-122.7816919993191,53.91034899998824],[-122.78178700008523,53.91035099993224],[-122.78223899958665,53.91035299967075],[-122.78469899993323,53.91032399979317],[-122.78530599996601,53.91030899970327],[-122.78917900042218,53.91031299980192],[-122.79066000075397,53.91031500019882],[-122.7910960001974,53.91031499997923],[-122.79501500000629,53.91035299979509],[-122.79642999934333,53.91036100013976],[-122.7973439994144,53.91035499970715],[-122.79746800068536,53.91035700023078],[-122.79756799990048,53.91035899971498],[-122.80065300050805,53.910382999592684],[-122.80447899934113,53.91034500038733],[-122.80694700052568,53.910353999755266],[-122.80714000028928,53.910358000374636],[-122.8114679994461,53.910365000012305],[-122.81169200059351,53.91035899961563],[-122.8125050005667,53.910343999751476],[-122.81306000022659,53.91033499971745],[-122.81370199960942,53.91026699962671],[-122.81429799977786,53.91012100023365],[-122.81453599924694,53.910055999630735],[-122.8148599998383,53.90989899989218],[-122.81518400013078,53.90971600039189],[-122.81551899975368,53.90943300038735],[-122.81574499980253,53.90914899994413],[-122.81585499927124,53.90890400022775],[-122.81590699994963,53.90871999981133],[-122.81590099992124,53.90835500039336],[-122.81584899959593,53.90815800013877],[-122.81567000037589,53.90777600035807],[-122.8148049992759,53.906342000442415],[-122.81455099956031,53.90575500003097],[-122.81421500027636,53.904943999903594],[-122.81362100037366,53.90311699974159],[-122.81313499939674,53.90211500028241],[-122.81183900010306,53.89968699970055],[-122.81136200033359,53.89894599984376],[-122.81031300035224,53.89765699986766],[-122.80973600058618,53.89690699994566],[-122.80925000053907,53.89610199982158],[-122.8087839996951,53.89495500025165],[-122.80873599952763,53.894950999595615],[-122.80284300046277,53.89495999986786],[-122.80110900059474,53.89496300018121],[-122.80007400067886,53.894935000016794],[-122.79963299945983,53.89494300039496],[-122.79821800032197,53.89493999969093],[-122.7974100005807,53.89523600018852],[-122.79560900046617,53.89631100018835],[-122.79396599991443,53.897209000048306],[-122.79348099969042,53.897440000211475],[-122.79108699962097,53.898868000047344],[-122.79092200051177,53.89896400043489],[-122.79000399931428,53.89947800005175],[-122.78957799954468,53.89956299969989],[-122.78883399975241,53.899548999665456],[-122.78694499954096,53.89956200029022],[-122.78577900027815,53.89956799965477],[-122.78231999987378,53.89955600007649],[-122.78222700014716,53.89955699988904],[-122.78214200018617,53.89955700028839],[-122.7800109993094,53.899554000168386],[-122.77980299989542,53.89956799984022],[-122.77929700028265,53.89967499979296],[-122.77885700012,53.89980800038985],[-122.77854600032512,53.89991899993643],[-122.7784719995683,53.899946999742156],[-122.7785659997337,53.89997399988197],[-122.77888699955732,53.900104999615266],[-122.77949599975267,53.90034200024427],[-122.7800029993856,53.9006000003415],[-122.78050900000582,53.900947000086724],[-122.78098100034289,53.90137000003405],[-122.78132999966475,53.901809999814525],[-122.78164499986173,53.90251100012581],[-122.78169200034314,53.90274499957592],[-122.78170499997661,53.90359399980322],[-122.78170399929846,53.907282000382835],[-122.78170000022908,53.91028600005575]]]},"properties":{"OBJECTID":814,"SchoolName":"Pinewood Elementary"}},{"type":"Feature","id":815,"geometry":{"type":"Polygon","coordinates":[[[-122.77150400009485,53.90503999978814],[-122.76696099935207,53.90504300020368],[-122.76695400042455,53.90226400007521],[-122.76596199991121,53.90226300001506],[-122.76584599933794,53.90226099961172],[-122.76356899953954,53.904075999664705],[-122.7626390007237,53.90480900015555],[-122.76218999931318,53.905070999742456],[-122.76143100073365,53.90529699965574],[-122.76084399938799,53.905379999988845],[-122.76057700012352,53.90537600031428],[-122.76038000043296,53.90537299991273],[-122.76019300058348,53.905415000025414],[-122.76036699995349,53.905451999899604],[-122.76057599930814,53.905451999758675],[-122.76082299953357,53.90545499967428],[-122.76193599930292,53.90543399971331],[-122.76292200045515,53.90542500030576],[-122.76325400019927,53.90542399973062],[-122.76375200028376,53.9054390001674],[-122.76499999971067,53.90544099965778],[-122.76568399937614,53.9055770002875],[-122.76716499927464,53.90633799975193],[-122.76721199981837,53.90636300044544],[-122.76606499945835,53.90714099970303],[-122.7649770006763,53.90786299984316],[-122.76456199933406,53.90814400002129],[-122.76376299975529,53.908694999912605],[-122.76369999971962,53.90873799985782],[-122.76282200074527,53.90935300026369],[-122.76254700051135,53.90954899998133],[-122.76247799991066,53.90959500021946],[-122.76227599965964,53.909766999908264],[-122.7619890002774,53.91008799963028],[-122.76195300013985,53.910127000339195],[-122.76043999927784,53.90971400040162],[-122.76030199995168,53.909674999890136],[-122.76001499979975,53.90959899962047],[-122.75965600015331,53.909566000049836],[-122.75925700007525,53.909613000297085],[-122.75497500021419,53.91049400007149],[-122.7549429993457,53.910563000056875],[-122.75468300042573,53.91093699967222],[-122.75411599977942,53.911706000433405],[-122.75348699950986,53.91246099988741],[-122.7532010003331,53.91283299960208],[-122.75288899973918,53.91323900002865],[-122.75256900003558,53.913626000331305],[-122.75224200053411,53.914022999831296],[-122.75195700024007,53.91437100041515],[-122.75161100012741,53.914792000206226],[-122.75128899987507,53.915184999610524],[-122.75098200073518,53.91557799957751],[-122.75068400026662,53.9159279996191],[-122.75036400011057,53.91632299958437],[-122.75004199949791,53.91671900027798],[-122.7497399997992,53.91712200033154],[-122.74943700071258,53.91750199974947],[-122.7491040007492,53.91787499961999],[-122.74876699965954,53.918283999971266],[-122.7484670003556,53.91867399968773],[-122.74785400067263,53.9194420001106],[-122.7474629999737,53.91985100017998],[-122.7458890006317,53.91942399978396],[-122.74441399987374,53.91901599964972],[-122.74289500070628,53.91857199960128],[-122.74110099979892,53.91805600000932],[-122.73936800048344,53.91759400019748],[-122.73783700041645,53.917158999553045],[-122.73480899949158,53.91629900034974],[-122.73168999984001,53.91542199985581],[-122.72794299977708,53.91436399974125],[-122.72762900035886,53.914267999980524],[-122.7269659997412,53.914025000051105],[-122.72688900049252,53.91398099999155],[-122.72635200042352,53.913729999726435],[-122.72578399947555,53.913383999556984],[-122.72453599931261,53.91171299955277],[-122.72114800062353,53.914064999920306],[-122.71658900046255,53.91717299982257],[-122.71259500040561,53.91857199960793],[-122.71275999946549,53.92051000003668],[-122.71529799960322,53.92344900035813],[-122.71551000008041,53.92439599999063],[-122.71606799999293,53.9251839998788],[-122.71774499955792,53.92579899983342],[-122.72123800048448,53.92627199965225],[-122.7228129998229,53.92641599969466],[-122.72407900030227,53.92717700005916],[-122.72643300045766,53.92818899962613],[-122.73019500027755,53.92742099957763],[-122.73143500002091,53.92693500000659],[-122.73441000000295,53.92696700035897],[-122.7390379995057,53.926934999967415],[-122.74289399970628,53.92703200039879],[-122.74630900075763,53.92706399993635],[-122.75068399987448,53.927352000194816],[-122.75418699947636,53.92735699957345],[-122.75980599931088,53.92735699989905],[-122.7639930001069,53.927162999815366],[-122.7668559993975,53.92715299980576],[-122.76851000049365,53.927195000449665],[-122.77225600064462,53.926967999849964],[-122.77666300026706,53.92648099977294],[-122.7800229996773,53.92693599995801],[-122.78053499935318,53.9270279998987],[-122.78076799985124,53.9264169999732],[-122.78130800000643,53.92520799975345],[-122.78164800001733,53.92408799984955],[-122.78165899948604,53.92363299970721],[-122.78167099985019,53.923047999944274],[-122.7816779993134,53.92065700035056],[-122.78169199931068,53.92056699962303],[-122.78167700038634,53.919162999926975],[-122.78168000070626,53.91647299999805],[-122.78168300040116,53.91541400028844],[-122.78168500046709,53.91440300024132],[-122.78167799964707,53.91315999982598],[-122.78170200028768,53.91146599998216],[-122.78169699951059,53.9104179997243],[-122.7816919993191,53.91034899998824],[-122.78170000022908,53.91028600005575],[-122.78170399929846,53.907282000382835],[-122.78170499997661,53.90359399980322],[-122.78158500070393,53.903595000371084],[-122.78118000058275,53.90359300017599],[-122.78118000022587,53.903199000366605],[-122.78084300071468,53.902989999739575],[-122.78049300065143,53.90299900013952],[-122.78024899955241,53.903078999882446],[-122.77956100052607,53.90363499996179],[-122.77832500058075,53.90478599973102],[-122.77795099952664,53.904975000363535],[-122.77751100067213,53.90508499995872],[-122.77680900033833,53.90511300012965],[-122.77451199928862,53.904997999774835],[-122.7741180003948,53.905009999862386],[-122.77188600075355,53.905397999653445],[-122.77151400071688,53.9053540003886],[-122.77150400009485,53.90503999978814]]]},"properties":{"OBJECTID":815,"SchoolName":"Harwin Elementary"}},{"type":"Feature","id":816,"geometry":{"type":"Polygon","coordinates":[[[-122.72644399994263,53.90928299980196],[-122.72540400060208,53.91089399986287],[-122.72453599931261,53.91171299955277],[-122.72578399947555,53.913383999556984],[-122.72635200042352,53.913729999726435],[-122.72688900049252,53.91398099999155],[-122.7269659997412,53.914025000051105],[-122.72762900035886,53.914267999980524],[-122.72794299977708,53.91436399974125],[-122.73168999984001,53.91542199985581],[-122.73480899949158,53.91629900034974],[-122.73783700041645,53.917158999553045],[-122.73936800048344,53.91759400019748],[-122.74110099979892,53.91805600000932],[-122.74289500070628,53.91857199960128],[-122.74441399987374,53.91901599964972],[-122.7458890006317,53.91942399978396],[-122.7474629999737,53.91985100017998],[-122.74785400067263,53.9194420001106],[-122.7484670003556,53.91867399968773],[-122.74876699965954,53.918283999971266],[-122.7491040007492,53.91787499961999],[-122.74943700071258,53.91750199974947],[-122.7497399997992,53.91712200033154],[-122.75004199949791,53.91671900027798],[-122.75036400011057,53.91632299958437],[-122.75068400026662,53.9159279996191],[-122.75098200073518,53.91557799957751],[-122.75128899987507,53.915184999610524],[-122.75161100012741,53.914792000206226],[-122.75195700024007,53.91437100041515],[-122.75224200053411,53.914022999831296],[-122.75256900003558,53.913626000331305],[-122.75288899973918,53.91323900002865],[-122.7532010003331,53.91283299960208],[-122.75348699950986,53.91246099988741],[-122.75411599977942,53.911706000433405],[-122.75468300042573,53.91093699967222],[-122.7549429993457,53.910563000056875],[-122.75497500021419,53.91049400007149],[-122.75925700007525,53.909613000297085],[-122.75965600015331,53.909566000049836],[-122.76001499979975,53.90959899962047],[-122.76030199995168,53.909674999890136],[-122.76043999927784,53.90971400040162],[-122.76195300013985,53.910127000339195],[-122.7619890002774,53.91008799963028],[-122.76227599965964,53.909766999908264],[-122.76247799991066,53.90959500021946],[-122.76254700051135,53.90954899998133],[-122.76282200074527,53.90935300026369],[-122.76369999971962,53.90873799985782],[-122.76376299975529,53.908694999912605],[-122.76456199933406,53.90814400002129],[-122.7649770006763,53.90786299984316],[-122.76606499945835,53.90714099970303],[-122.76721199981837,53.90636300044544],[-122.76716499927464,53.90633799975193],[-122.76568399937614,53.9055770002875],[-122.76499999971067,53.90544099965778],[-122.76375200028376,53.9054390001674],[-122.76325400019927,53.90542399973062],[-122.76292200045515,53.90542500030576],[-122.76193599930292,53.90543399971331],[-122.76082299953357,53.90545499967428],[-122.76057599930814,53.905451999758675],[-122.76036699995349,53.905451999899604],[-122.76019300058348,53.905415000025414],[-122.76038000043296,53.90537299991273],[-122.76057700012352,53.90537600031428],[-122.76084399938799,53.905379999988845],[-122.76143100073365,53.90529699965574],[-122.76218999931318,53.905070999742456],[-122.7626390007237,53.90480900015555],[-122.76356899953954,53.904075999664705],[-122.76584599933794,53.90226099961172],[-122.76541000049656,53.90225300035952],[-122.76057300016134,53.90225999988107],[-122.76059499966742,53.900668999945196],[-122.76060000075674,53.900348999712264],[-122.76001999983062,53.90033900030969],[-122.75980900021017,53.900248000016745],[-122.75923000059943,53.89934700018889],[-122.7577050004962,53.898245000434535],[-122.75655100050983,53.89778400001773],[-122.75582100036425,53.897684000025514],[-122.75521299954315,53.897700999753496],[-122.75515900059277,53.89644199963144],[-122.75517700025515,53.8960200001559],[-122.75516600036089,53.89525600003678],[-122.75515600016305,53.89440200040179],[-122.75515399925358,53.894056000240454],[-122.7551529995945,53.89400600008617],[-122.75399600044695,53.893794000100684],[-122.75272300002743,53.89351100023366],[-122.75226799925919,53.89343400043466],[-122.75137299928333,53.89316200033202],[-122.7508599996531,53.89313600030307],[-122.7506570004857,53.89314500021768],[-122.74963799995551,53.89333000028673],[-122.74943700027433,53.89333600028205],[-122.74942399976229,53.89359000034248],[-122.74938799932829,53.8944079998998],[-122.74939999947917,53.89502100004105],[-122.74743700007508,53.89503299974896],[-122.74746499947094,53.896311999838815],[-122.74746399958975,53.89639000006478],[-122.7474670003679,53.89723000000427],[-122.74543700037331,53.897229000154375],[-122.74541499929113,53.89844699993219],[-122.7454350006736,53.899229999956574],[-122.7446720005104,53.8996789998593],[-122.74433600015479,53.89987599962524],[-122.74354000009134,53.90021399995661],[-122.74322800073841,53.900329000049254],[-122.74293099940138,53.9003940001095],[-122.74281700002724,53.9004539995921],[-122.74281199931205,53.902201999642024],[-122.74281200050825,53.902208000095094],[-122.74241699943123,53.90247399995845],[-122.74184599953958,53.902473000190454],[-122.74141200058408,53.90221099998921],[-122.74079899926433,53.902561000346616],[-122.73316299964586,53.90243899994621],[-122.73206800070606,53.903696999664874],[-122.73033299974692,53.90546799955625],[-122.72941599944475,53.90648300015636],[-122.72861700043818,53.90723599965242],[-122.72788899966575,53.90792099980772],[-122.72644399994263,53.90928299980196]]]},"properties":{"OBJECTID":816,"SchoolName":"Ron Brent Elementary"}},{"type":"Feature","id":817,"geometry":{"type":"Polygon","coordinates":[[[-122.74318100014081,53.89234099965719],[-122.74033400073658,53.89337299959135],[-122.73830900046602,53.894244000382876],[-122.7366119999364,53.89521199990114],[-122.73529899973562,53.896276999750434],[-122.73409400054211,53.89782500043855],[-122.73294499976211,53.89940599984216],[-122.73305499937825,53.90082500038995],[-122.73316299964586,53.90243899994621],[-122.74079899926433,53.902561000346616],[-122.74141200058408,53.90221099998921],[-122.74184599953958,53.902473000190454],[-122.74241699943123,53.90247399995845],[-122.74281200050825,53.902208000095094],[-122.74281199931205,53.902201999642024],[-122.74281700002724,53.9004539995921],[-122.74293099940138,53.9003940001095],[-122.74322800073841,53.900329000049254],[-122.74354000009134,53.90021399995661],[-122.74433600015479,53.89987599962524],[-122.7446720005104,53.8996789998593],[-122.7454350006736,53.899229999956574],[-122.74541499929113,53.89844699993219],[-122.74543700037331,53.897229000154375],[-122.7474670003679,53.89723000000427],[-122.74746399958975,53.89639000006478],[-122.74746499947094,53.896311999838815],[-122.74743700007508,53.89503299974896],[-122.74939999947917,53.89502100004105],[-122.74938799932829,53.8944079998998],[-122.74942399976229,53.89359000034248],[-122.74943700027433,53.89333600028205],[-122.74963799995551,53.89333000028673],[-122.7506570004857,53.89314500021768],[-122.7508599996531,53.89313600030307],[-122.75137299928333,53.89316200033202],[-122.75226799925919,53.89343400043466],[-122.75272300002743,53.89351100023366],[-122.75399600044695,53.893794000100684],[-122.7551529995945,53.89400600008617],[-122.75515399925358,53.894056000240454],[-122.75515600016305,53.89440200040179],[-122.75516600036089,53.89525600003678],[-122.75517700025515,53.8960200001559],[-122.75515900059277,53.89644199963144],[-122.75521299954315,53.897700999753496],[-122.75582100036425,53.897684000025514],[-122.75655100050983,53.89778400001773],[-122.7577050004962,53.898245000434535],[-122.75923000059943,53.89934700018889],[-122.75980900021017,53.900248000016745],[-122.76001999983062,53.90033900030969],[-122.76060000075674,53.900348999712264],[-122.76059499966742,53.900668999945196],[-122.76057300016134,53.90225999988107],[-122.76541000049656,53.90225300035952],[-122.76584599933794,53.90226099961172],[-122.76830099988176,53.90032399958272],[-122.76867300030231,53.89971699969761],[-122.76875500057487,53.89919999995749],[-122.7687129993196,53.8987500003405],[-122.76821800071687,53.897774999865],[-122.7680029996345,53.897342000235106],[-122.76795100062648,53.897219999614535],[-122.76743699924894,53.8961180002496],[-122.76716899970545,53.89555299958945],[-122.76709599972142,53.89491499965884],[-122.76713700045566,53.89434199980247],[-122.76717900044132,53.893703999875456],[-122.76726099933745,53.888879999955],[-122.76726299966934,53.88883900008645],[-122.76726299966504,53.88879600008109],[-122.76727500028336,53.88853900031357],[-122.76728600055408,53.88796600006596],[-122.76728999948874,53.88754899999986],[-122.76730000047404,53.8870090002628],[-122.76739799974231,53.88637600024575],[-122.76755300060996,53.88599299975152],[-122.76787599939757,53.88547100015291],[-122.76821800059291,53.88503299969403],[-122.76880700047353,53.88426899980112],[-122.76941299971966,53.8834689998349],[-122.76962699947248,53.88298999989087],[-122.76994600017974,53.88094799995145],[-122.77046100035672,53.87740600044879],[-122.7695540007095,53.87726299991394],[-122.76786699944952,53.87706199991131],[-122.76496599974602,53.87622100023041],[-122.76359600000653,53.87546699955644],[-122.76271100066322,53.87436500026635],[-122.75749299966078,53.874354000174705],[-122.75782199928192,53.87616099985825],[-122.7590809995638,53.87787099967634],[-122.75990200046316,53.8798070003391],[-122.75984700020756,53.881485000431155],[-122.7591899999499,53.883292000323124],[-122.75732899987956,53.88532400005346],[-122.75535899956495,53.8869379997559],[-122.75180099951658,53.88871200023731],[-122.74874099972519,53.889911000029066],[-122.74774299952809,53.89036999994872],[-122.74566999953319,53.891292999704945],[-122.74318100014081,53.89234099965719]]]},"properties":{"OBJECTID":817,"SchoolName":"Van Bien Elementary"}},{"type":"Feature","id":818,"geometry":{"type":"Polygon","coordinates":[[[-122.76985700070574,53.84471299990808],[-122.75052799946167,53.844713000048095],[-122.74764200064178,53.844712999995096],[-122.74693600025708,53.845355999642244],[-122.74672699944232,53.84667200021956],[-122.74609900021153,53.848111999627605],[-122.74554099963436,53.84959299962486],[-122.74512200064562,53.85095000001107],[-122.74498299949896,53.85288399971321],[-122.7451120005104,53.853557000217876],[-122.74526200040934,53.8544060000725],[-122.74519199960693,53.85576300022642],[-122.74533200026185,53.85674999973133],[-122.74595599997042,53.85796200032778],[-122.74675800011582,53.86073899970872],[-122.74766499951673,53.86234299974309],[-122.74828200030544,53.863642000004475],[-122.75571399942521,53.86200999993342],[-122.75445900057217,53.86119399960409],[-122.75347799942016,53.8595809996783],[-122.75346199949661,53.85796699968223],[-122.75460499949067,53.85796199982063],[-122.75833899945971,53.85689099974885],[-122.75861800049141,53.857180000179454],[-122.75883800022137,53.857397999896946],[-122.75934500068324,53.85774000040628],[-122.75949700051288,53.85784199979594],[-122.75994000045783,53.85804200044345],[-122.76042399973547,53.85820600014605],[-122.76107899996747,53.85835300028419],[-122.76251099970085,53.85853600018918],[-122.7629970000052,53.85861799991296],[-122.76334700032444,53.85865500002242],[-122.76336900064261,53.85690899991772],[-122.76929900015375,53.856911000305594],[-122.76965899926549,53.856637000287805],[-122.76987000029523,53.856424000200086],[-122.77012700006891,53.855970999817664],[-122.77044000029981,53.854298000397165],[-122.77053499998709,53.853839999879675],[-122.77085000032808,53.85211299997077],[-122.77050000047247,53.85008000037186],[-122.77041999965856,53.84975200041677],[-122.77045499954527,53.848943000275945],[-122.77052499982139,53.848584000251066],[-122.77068199960357,53.84828600016828],[-122.77106900035398,53.84770400019249],[-122.77117700016449,53.847568999855454],[-122.77145200018364,53.84723700032174],[-122.77152999929139,53.846805999837585],[-122.77143999986566,53.84664400004354],[-122.7710309996968,53.84645499994952],[-122.77047199972452,53.8457169999482],[-122.76985700070574,53.84471299990808]]]},"properties":{"OBJECTID":818,"SchoolName":"Malaspina Elementary"}},{"type":"Feature","id":819,"geometry":{"type":"Polygon","coordinates":[[[-122.88994796352752,53.87689290954427],[-122.86232699974563,53.876860999657616],[-122.8075989998935,53.87676399979893],[-122.80644300057293,53.87679800037533],[-122.80476700070619,53.87410799982919],[-122.80428799932344,53.87340800040663],[-122.80330300057695,53.872601000442856],[-122.80218599978338,53.872038999649774],[-122.80155299965307,53.87182899972427],[-122.80035599954368,53.87137100033768],[-122.79944099995083,53.87098900030981],[-122.79941000049065,53.86256999982629],[-122.79940899963316,53.86249599968504],[-122.79859299934326,53.86293499990416],[-122.79705500033343,53.86371899995101],[-122.79621800045359,53.864065999794434],[-122.79544599937171,53.864288999955235],[-122.79163499951345,53.86505100039387],[-122.78422400070207,53.86656299977034],[-122.78400700046008,53.86662200037995],[-122.78312999943583,53.86692100026308],[-122.782551000413,53.86719599996804],[-122.78211099954663,53.86742400044478],[-122.78156999994448,53.86779700001624],[-122.78106599948802,53.86821699977468],[-122.78066099998526,53.86878400043911],[-122.78048100015411,53.86914199955151],[-122.78043900042482,53.869197999703424],[-122.78040799973365,53.86927100034707],[-122.77969300062723,53.870863000365475],[-122.77893500076028,53.87257699963185],[-122.7784729994311,53.87349400034911],[-122.77838999950919,53.8736280003513],[-122.77810200008442,53.873976000041786],[-122.7775609998614,53.874463999604856],[-122.77699899965152,53.87482599987996],[-122.7764190001247,53.875087999842066],[-122.77572600031235,53.87531199984074],[-122.77527599926961,53.87540099994371],[-122.77487199996493,53.87544099958828],[-122.77442300039131,53.875476999886374],[-122.77337900021355,53.87552099961587],[-122.77286499963769,53.87558600007357],[-122.77245099961537,53.87570899956683],[-122.77214799976865,53.87581999980828],[-122.77193500061195,53.8759149997762],[-122.77158800032899,53.87613200004882],[-122.77122600044595,53.87644400038081],[-122.77079099929485,53.87692999976618],[-122.77058799990807,53.877417999694735],[-122.77046100035672,53.87740600044879],[-122.76994600017974,53.88094799995145],[-122.76962699947248,53.88298999989087],[-122.76941299971966,53.8834689998349],[-122.76880700047353,53.88426899980112],[-122.76821800059291,53.88503299969403],[-122.76787599939757,53.88547100015291],[-122.76755300060996,53.88599299975152],[-122.76739799974231,53.88637600024575],[-122.76730000047404,53.8870090002628],[-122.76728999948874,53.88754899999986],[-122.76728600055408,53.88796600006596],[-122.76727500028336,53.88853900031357],[-122.76726299966504,53.88879600008109],[-122.76726299966934,53.88883900008645],[-122.7674389996138,53.88883899959889],[-122.76986000042352,53.888854000360745],[-122.7701850001667,53.88885500042808],[-122.7708039999461,53.888760000215974],[-122.77151499973726,53.888658000329144],[-122.77310299962278,53.8882149997115],[-122.7736410003971,53.88814000017884],[-122.77406500040078,53.88810699998932],[-122.77682099927155,53.88810999961984],[-122.77822400032078,53.88820800023238],[-122.77954099951867,53.888226999956785],[-122.77954400059804,53.88827399978035],[-122.77954299972258,53.889807000125124],[-122.7795409994699,53.89055199965217],[-122.77954100066768,53.890920999904424],[-122.78333599995487,53.89088399987388],[-122.78331599968833,53.8898180000202],[-122.78383299960575,53.889819000320685],[-122.78407800025519,53.889789999773626],[-122.78758300060032,53.889793000448215],[-122.78768200021682,53.88976900026889],[-122.78737800060276,53.88932500006482],[-122.78718700052387,53.88886500015158],[-122.7871869999969,53.88828999966594],[-122.78718999928624,53.888235999955576],[-122.78730700018305,53.888233999816705],[-122.78893500050846,53.88821799977549],[-122.78937499979078,53.88820800027681],[-122.79146399967071,53.88823300009832],[-122.80286099956277,53.88823299968428],[-122.80284300046277,53.89495999986786],[-122.80873599952763,53.894950999595615],[-122.8087839996951,53.89495500025165],[-122.80925000053907,53.89610199982158],[-122.80973600058618,53.89690699994566],[-122.81031300035224,53.89765699986766],[-122.81136200033359,53.89894599984376],[-122.81183900010306,53.89968699970055],[-122.81313499939674,53.90211500028241],[-122.81362100037366,53.90311699974159],[-122.8136879995016,53.90311000044015],[-122.83152599970722,53.90310500032748],[-122.83132199949941,53.900843000063276],[-122.83143300024568,53.89610599976557],[-122.83192399994559,53.89495599999749],[-122.84901000059624,53.89491600006228],[-122.8489400000066,53.90277499964187],[-122.88985648481348,53.90281110674353],[-122.88988328946613,53.897784166063495],[-122.88988464948206,53.896398655154584],[-122.8898933631035,53.88741057777316],[-122.88989728712441,53.88331192905565],[-122.88993583941661,53.878422517817086],[-122.88994796352752,53.87689290954427]]]},"properties":{"OBJECTID":819,"SchoolName":"Peden Hill Elementary"}},{"type":"Feature","id":820,"geometry":{"type":"Polygon","coordinates":[[[-122.88985648481348,53.90281110674353],[-122.8489400000066,53.90277499964187],[-122.84901000059624,53.89491600006228],[-122.83192399994559,53.89495599999749],[-122.83143300024568,53.89610599976557],[-122.83132199949941,53.900843000063276],[-122.83152599970722,53.90310500032748],[-122.8136879995016,53.90311000044015],[-122.81362100037366,53.90311699974159],[-122.81421500027636,53.904943999903594],[-122.81455099956031,53.90575500003097],[-122.8148049992759,53.906342000442415],[-122.81567000037589,53.90777600035807],[-122.81584899959593,53.90815800013877],[-122.81590099992124,53.90835500039336],[-122.81590699994963,53.90871999981133],[-122.81585499927124,53.90890400022775],[-122.81574499980253,53.90914899994413],[-122.81551899975368,53.90943300038735],[-122.81518400013078,53.90971600039189],[-122.8148599998383,53.90989899989218],[-122.81453599924694,53.910055999630735],[-122.81429799977786,53.91012100023365],[-122.81370199960942,53.91026699962671],[-122.81306000022659,53.91033499971745],[-122.8125050005667,53.910343999751476],[-122.81169200059351,53.91035899961563],[-122.8114679994461,53.910365000012305],[-122.80714000028928,53.910358000374636],[-122.80694700052568,53.910353999755266],[-122.80447899934113,53.91034500038733],[-122.80065300050805,53.910382999592684],[-122.79756799990048,53.91035899971498],[-122.79746800068536,53.91035700023078],[-122.79746800007047,53.910493999981156],[-122.79741500055508,53.9115909996329],[-122.7973630007281,53.913202000368166],[-122.7971010006555,53.914041999568596],[-122.7967069996835,53.91485199994951],[-122.79583100002378,53.91653699962293],[-122.79542399969776,53.91732899997134],[-122.79431700059051,53.91954200033249],[-122.79421900024404,53.92009299982035],[-122.79419200021142,53.920554999813014],[-122.79419499934075,53.92060000005379],[-122.7942750004568,53.92059999960228],[-122.79629199937128,53.92060699967833],[-122.79967800015798,53.92062199961204],[-122.80039299946337,53.92061399980041],[-122.8028320005948,53.92060999968148],[-122.80502199959923,53.92063100020539],[-122.80572500054402,53.92062700008653],[-122.80749599976933,53.92062399972142],[-122.80770399963087,53.92062600022375],[-122.81082699974286,53.920628000237336],[-122.81221899973775,53.92062700030388],[-122.81356799940353,53.920626000184065],[-122.81495900062093,53.92062700003972],[-122.8163229998106,53.92062499980334],[-122.81770999941276,53.92062600032519],[-122.81921700024957,53.92062500030344],[-122.81939700075708,53.92062299984015],[-122.81939700012485,53.92069900009903],[-122.81943999968843,53.92396900024904],[-122.81954099970521,53.92430599972068],[-122.81981299933742,53.92490800039697],[-122.82042499971728,53.92657399956485],[-122.82041400012679,53.92683399996587],[-122.82029500015739,53.927522000301295],[-122.81990199954198,53.92950199969625],[-122.8197169998658,53.93022399989436],[-122.81963499943673,53.93079999999438],[-122.81962800018124,53.93114600007337],[-122.81965999943205,53.932881999613315],[-122.81978100017754,53.933477000174754],[-122.81973699952646,53.93356999982016],[-122.82221999984087,53.93703300018783],[-122.82245999988115,53.93790599979016],[-122.82259200064236,53.93893100025953],[-122.82251299957348,53.939774999941875],[-122.83482899957193,53.939763999985814],[-122.83482199946317,53.952751999919386],[-122.84123100071034,53.95275299968029],[-122.84949100042422,53.952753000348906],[-122.84946400046152,53.958109000323766],[-122.86184799968474,53.95807599990676],[-122.86184799965754,53.96476200005836],[-122.88060399958201,53.96482700022587],[-122.88060399961915,53.968721000224335],[-122.89519259169147,53.96878670783021],[-122.89518761991312,53.96830760247493],[-122.89513716625937,53.96199017173556],[-122.88997325749644,53.96198986830815],[-122.8899338164717,53.95931492788802],[-122.88987913968593,53.95559923510396],[-122.88989485827031,53.95032690154101],[-122.88981280133382,53.94133882212193],[-122.88981182621865,53.94113074877033],[-122.88977037736693,53.93235076548068],[-122.88974361020269,53.92667299415705],[-122.88975796742318,53.923362713852086],[-122.88979701849539,53.91437470491172],[-122.88980638751907,53.9122038290248],[-122.88984274738577,53.90538668855948],[-122.88985648481348,53.90281110674353]]]},"properties":{"OBJECTID":820,"SchoolName":"Foothills Elementary"}},{"type":"Feature","id":824,"geometry":{"type":"Polygon","coordinates":[[[-122.77954100066768,53.890920999904424],[-122.7795409994699,53.89055199965217],[-122.77954299972258,53.889807000125124],[-122.77954400059804,53.88827399978035],[-122.77954099951867,53.888226999956785],[-122.77822400032078,53.88820800023238],[-122.77682099927155,53.88810999961984],[-122.77406500040078,53.88810699998932],[-122.7736410003971,53.88814000017884],[-122.77310299962278,53.8882149997115],[-122.77151499973726,53.888658000329144],[-122.7708039999461,53.888760000215974],[-122.7701850001667,53.88885500042808],[-122.76986000042352,53.888854000360745],[-122.7674389996138,53.88883899959889],[-122.76726299966934,53.88883900008645],[-122.76726099933745,53.888879999955],[-122.76717900044132,53.893703999875456],[-122.76713700045566,53.89434199980247],[-122.76709599972142,53.89491499965884],[-122.76716899970545,53.89555299958945],[-122.76743699924894,53.8961180002496],[-122.76795100062648,53.897219999614535],[-122.7680029996345,53.897342000235106],[-122.76821800071687,53.897774999865],[-122.7687129993196,53.8987500003405],[-122.76875500057487,53.89919999995749],[-122.76867300030231,53.89971699969761],[-122.76830099988176,53.90032399958272],[-122.76584599933794,53.90226099961172],[-122.76596199991121,53.90226300001506],[-122.76695400042455,53.90226400007521],[-122.76696099935207,53.90504300020368],[-122.77150400009485,53.90503999978814],[-122.77151400071688,53.9053540003886],[-122.77188600075355,53.905397999653445],[-122.7741180003948,53.905009999862386],[-122.77451199928862,53.904997999774835],[-122.77680900033833,53.90511300012965],[-122.77751100067213,53.90508499995872],[-122.77795099952664,53.904975000363535],[-122.77832500058075,53.90478599973102],[-122.77956100052607,53.90363499996179],[-122.78024899955241,53.903078999882446],[-122.78049300065143,53.90299900013952],[-122.78084300071468,53.902989999739575],[-122.78118000022587,53.903199000366605],[-122.78118000058275,53.90359300017599],[-122.78158500070393,53.903595000371084],[-122.78170499997661,53.90359399980322],[-122.78169200034314,53.90274499957592],[-122.78164499986173,53.90251100012581],[-122.78132999966475,53.901809999814525],[-122.78098100034289,53.90137000003405],[-122.78050900000582,53.900947000086724],[-122.7800029993856,53.9006000003415],[-122.77949599975267,53.90034200024427],[-122.77888699955732,53.900104999615266],[-122.7785659997337,53.89997399988197],[-122.7784719995683,53.899946999742156],[-122.77854600032512,53.89991899993643],[-122.77885700012,53.89980800038985],[-122.77929700028265,53.89967499979296],[-122.77980299989542,53.89956799984022],[-122.7800109993094,53.899554000168386],[-122.78214200018617,53.89955700028839],[-122.78222700014716,53.89955699988904],[-122.78231999987378,53.89955600007649],[-122.78577900027815,53.89956799965477],[-122.78694499954096,53.89956200029022],[-122.78883399975241,53.899548999665456],[-122.78957799954468,53.89956299969989],[-122.79000399931428,53.89947800005175],[-122.79092200051177,53.89896400043489],[-122.79108699962097,53.898868000047344],[-122.79348099969042,53.897440000211475],[-122.79396599991443,53.897209000048306],[-122.79560900046617,53.89631100018835],[-122.7974100005807,53.89523600018852],[-122.79821800032197,53.89493999969093],[-122.79963299945983,53.89494300039496],[-122.80007400067886,53.894935000016794],[-122.80110900059474,53.89496300018121],[-122.80284300046277,53.89495999986786],[-122.80286099956277,53.88823299968428],[-122.79146399967071,53.88823300009832],[-122.78937499979078,53.88820800027681],[-122.78893500050846,53.88821799977549],[-122.78730700018305,53.888233999816705],[-122.78718999928624,53.888235999955576],[-122.7871869999969,53.88828999966594],[-122.78718700052387,53.88886500015158],[-122.78737800060276,53.88932500006482],[-122.78768200021682,53.88976900026889],[-122.78758300060032,53.889793000448215],[-122.78407800025519,53.889789999773626],[-122.78383299960575,53.889819000320685],[-122.78331599968833,53.8898180000202],[-122.78333599995487,53.89088399987388],[-122.77954100066768,53.890920999904424]]]},"properties":{"OBJECTID":824,"SchoolName":"Westwood Elementary"}},{"type":"Feature","id":826,"geometry":{"type":"Polygon","coordinates":[[[-122.77527599926961,53.87540099994371],[-122.77572600031235,53.87531199984074],[-122.7764190001247,53.875087999842066],[-122.77699899965152,53.87482599987996],[-122.7775609998614,53.874463999604856],[-122.77810200008442,53.873976000041786],[-122.77838999950919,53.8736280003513],[-122.7784729994311,53.87349400034911],[-122.77893500076028,53.87257699963185],[-122.77969300062723,53.870863000365475],[-122.78040799973365,53.86927100034707],[-122.78043900042482,53.869197999703424],[-122.7803180007444,53.86918899959474],[-122.77826499937218,53.868926000437625],[-122.77644499971295,53.86863599999517],[-122.77347199941944,53.868129000202046],[-122.77145400065974,53.86777799974244],[-122.77073199952186,53.86760299981742],[-122.77001799947766,53.86731700015932],[-122.76932500010463,53.866893000334635],[-122.76892700059344,53.866523999640506],[-122.76862800035761,53.86610599997669],[-122.7682570002635,53.86509399957488],[-122.76808700047535,53.86477500019013],[-122.7678259994146,53.86445299957133],[-122.76656600070324,53.86312599957624],[-122.76640900037853,53.86282300030331],[-122.76636499930898,53.86263799971242],[-122.76630400003093,53.860528000229664],[-122.76634200004453,53.859042000227895],[-122.76646400001454,53.858773000270304],[-122.76664699955495,53.858504999638534],[-122.76698699942636,53.858207000084],[-122.76713499978997,53.858119999786695],[-122.76788900059428,53.85764500017386],[-122.76929900015375,53.856911000305594],[-122.76336900064261,53.85690899991772],[-122.76334700032444,53.85865500002242],[-122.7629970000052,53.85861799991296],[-122.76251099970085,53.85853600018918],[-122.76107899996747,53.85835300028419],[-122.76042399973547,53.85820600014605],[-122.75994000045783,53.85804200044345],[-122.75949700051288,53.85784199979594],[-122.75934500068324,53.85774000040628],[-122.75883800022137,53.857397999896946],[-122.75861800049141,53.857180000179454],[-122.75833899945971,53.85689099974885],[-122.75460499949067,53.85796199982063],[-122.75346199949661,53.85796699968223],[-122.75347799942016,53.8595809996783],[-122.75445900057217,53.86119399960409],[-122.75571399942521,53.86200999993342],[-122.74828200030544,53.863642000004475],[-122.74919999932365,53.865367000050206],[-122.75001400021384,53.86604000035415],[-122.75094299971717,53.86727999999022],[-122.75296600054875,53.86884300040324],[-122.75527000013328,53.871138999790965],[-122.755637000544,53.87150199994774],[-122.75650900061332,53.87302300044738],[-122.75749299966078,53.874354000174705],[-122.76271100066322,53.87436500026635],[-122.76359600000653,53.87546699955644],[-122.76496599974602,53.87622100023041],[-122.76786699944952,53.87706199991131],[-122.7695540007095,53.87726299991394],[-122.77046100035672,53.87740600044879],[-122.77058799990807,53.877417999694735],[-122.77079099929485,53.87692999976618],[-122.77122600044595,53.87644400038081],[-122.77158800032899,53.87613200004882],[-122.77193500061195,53.8759149997762],[-122.77214799976865,53.87581999980828],[-122.77245099961537,53.87570899956683],[-122.77286499963769,53.87558600007357],[-122.77337900021355,53.87552099961587],[-122.77442300039131,53.875476999886374],[-122.77487199996493,53.87544099958828],[-122.77527599926961,53.87540099994371]]]},"properties":{"OBJECTID":826,"SchoolName":"College Heights Elementary"}},{"type":"Feature","id":831,"geometry":{"type":"Polygon","coordinates":[[[-122.62425876733886,54.00558535374465],[-122.6243262497351,54.0056588525449],[-122.62458952318596,54.005745321345465],[-122.62477872485105,54.0057702694365],[-122.62827394608907,54.00577033357182],[-122.6338302437758,54.00577021924975],[-122.64449426260946,54.005769152761566],[-122.644495447791,54.00593444488982],[-122.64454173656931,54.012767496212795],[-122.65096269586607,54.01278630909197],[-122.66428914315436,54.0128242599802],[-122.6667721089176,54.01283116768001],[-122.66913056915543,54.01279723576179],[-122.68132273636681,54.01279350070693],[-122.69370455429316,54.01260673715666],[-122.69481156956209,54.012602362046266],[-122.70566897847122,54.01255869810906],[-122.7180154890551,54.01251054496216],[-122.72533300172859,54.01247805174068],[-122.72759575632064,54.01246953831941],[-122.72759660544253,54.012984368860394],[-122.72759696300115,54.01330344115507],[-122.72760026506903,54.02197229978629],[-122.72759995105648,54.02508759080273],[-122.72759943114741,54.03096020704056],[-122.7275984159196,54.03959405845269],[-122.75206709821586,54.03955969309442],[-122.75569484054157,54.039557994648014],[-122.76040283476017,54.039554129380136],[-122.76081099960953,54.039263999619806],[-122.76086300031322,54.00660199955327],[-122.8007270003253,54.006638000386125],[-122.80109399999024,54.00663900004339],[-122.80109400042262,54.00620948240687],[-122.80109997344175,54.006209579472355],[-122.80109999579828,54.00620297068817],[-122.80110038504287,54.00608229495685],[-122.80109400048087,54.006082433592844],[-122.80109400015868,54.00510300043764],[-122.80109699959533,54.004808000071556],[-122.80115899958797,54.00476000015219],[-122.80119600071686,54.00359099976059],[-122.80103799964253,54.00358999955142],[-122.80101800052303,54.00037200033192],[-122.8009099994134,53.99981199994017],[-122.80089600010322,53.999644000343025],[-122.80075499999906,53.999140999595305],[-122.80037799958343,53.99835199998408],[-122.79998300072316,53.997738000231735],[-122.7996150002934,53.99733399967087],[-122.79916500004414,53.99681400014478],[-122.79844200045926,53.99617200019794],[-122.79781400058602,53.99568400044419],[-122.79719999971059,53.99531600011712],[-122.79640799936587,53.99482100032473],[-122.78684899945559,53.989553999828935],[-122.78673999957134,53.989493000283744],[-122.78489800058107,53.98852500038307],[-122.78340800069418,53.987947000164574],[-122.7813989996151,53.987171000064706],[-122.78100500063371,53.9869740002098],[-122.78050600075515,53.98664900038008],[-122.78012100007642,53.986327999982386],[-122.77973400003296,53.98589800038079],[-122.77945000021683,53.98537900012405],[-122.7789950007485,53.984039999809355],[-122.77867900002093,53.98352299964065],[-122.77812299928868,53.9829580004382],[-122.7779899996345,53.98283699973356],[-122.77779700055598,53.982661000261984],[-122.77705799942493,53.98205900012978],[-122.74967900009952,53.98204000028009],[-122.74968499930452,53.967086999781046],[-122.75423799973984,53.96708700022361],[-122.75421699998492,53.96362600033273],[-122.74620999980817,53.96187499999726],[-122.74744000065054,53.96044399985063],[-122.74823799938137,53.95947699959192],[-122.74980899988509,53.957568999582556],[-122.73287299994266,53.95756299985979],[-122.73292499929495,53.94669399957798],[-122.70270000016055,53.946735000162626],[-122.70165300056046,53.948768000013956],[-122.7014440000622,53.950307999641964],[-122.70249099950546,53.952032999774445],[-122.70427000029726,53.95431200039832],[-122.70560499927727,53.955403000439276],[-122.70552599958454,53.95615999993294],[-122.70649399976253,53.95743599957052],[-122.70861300009756,53.9590370002204],[-122.70926799942593,53.96139099977887],[-122.70926800035016,53.96305299966344],[-122.70853500076069,53.96388399966929],[-122.70727899947968,53.96468399972637],[-122.70529000069415,53.96532999984065],[-122.70246399958401,53.965576999625235],[-122.70120799995107,53.96548400023075],[-122.6991669994255,53.965268999970185],[-122.69665500027644,53.96502299961061],[-122.6936729996716,53.964498999588045],[-122.69074200019934,53.96409899958681],[-122.6867119998135,53.963760999683444],[-122.68341500000267,53.96317599989598],[-122.68051100065391,53.96268999996504],[-122.67705700026006,53.9624440003298],[-122.67412599954511,53.962136000319674],[-122.67056799935524,53.96176599966159],[-122.6653339997894,53.961581999742535],[-122.66198499977817,53.96167400010414],[-122.6593160003106,53.96215199963393],[-122.65709199975207,53.96302899993322],[-122.65455399935014,53.96424499990422],[-122.65233000071802,53.96572199992537],[-122.65070700056299,53.96787600029092],[-122.64981799979613,53.96956900028594],[-122.64979200073957,53.97101499977552],[-122.65000099960126,53.97192299973435],[-122.6505500001557,53.9726619999423],[-122.6520809992791,53.97333100041945],[-122.65438400068828,53.9738239997139],[-122.65836100005896,53.97363900014075],[-122.66202500046346,53.973269999595686],[-122.66641999941811,53.9727770004452],[-122.67018799970218,53.973393000114335],[-122.67311900052451,53.97400799984194],[-122.67559200056859,53.9757710004337],[-122.67611499972213,53.9773399995941],[-122.676219999295,53.97854000008973],[-122.6767150005169,53.979117000189376],[-122.67710900045003,53.97964800044524],[-122.67778999941716,53.98038600040551],[-122.67894099989176,53.981125000332014],[-122.68066800017478,53.982386000013975],[-122.68325800026466,53.984095000270344],[-122.68618899938157,53.986433000220956],[-122.68671200011066,53.98889499963408],[-122.68632000016025,53.99081599980034],[-122.68464500022681,53.99323099983056],[-122.68255199969921,53.995169999639494],[-122.68059000062898,53.996646000056835],[-122.67841799958325,53.99761500044479],[-122.67491200038825,53.997768999668324],[-122.6730279994621,53.997291999875024],[-122.67164100045947,53.99732299975299],[-122.66922000001541,53.99743200022859],[-122.66670799949372,53.99761700033166],[-122.6642880004043,53.9981629999611],[-122.66020599995171,53.99914800025073],[-122.65601899975923,54.00000800005369],[-122.648639999454,54.00068400038508],[-122.64340700068358,54.00126899971089],[-122.63393499981308,54.00172999975025],[-122.63100499935993,54.00199099974385],[-122.62885899925847,54.00257600043628],[-122.62679199927702,54.00419000004092],[-122.62425876733886,54.00558535374465]]]},"properties":{"OBJECTID":831,"SchoolName":"Glenview Elementary"}},{"type":"Feature","id":832,"geometry":{"type":"Polygon","coordinates":[[[-122.76040283476017,54.039554129380136],[-122.76435978068459,54.03955073888528],[-122.77664969790479,54.039543273329784],[-122.78623526391797,54.03953609376553],[-122.80089113587732,54.039570499919485],[-122.82557872816218,54.03958293625429],[-122.83780491466207,54.039585396694086],[-122.84317248407784,54.0395959224385],[-122.84313789434559,54.040022540413524],[-122.84319105801768,54.040154371884704],[-122.84336801028103,54.04059320141217],[-122.84349090638325,54.04173977270785],[-122.84731079507714,54.040901783137215],[-122.85009667695171,54.040290535812495],[-122.85009765437741,54.040163178961535],[-122.85010187713648,54.0396091631103],[-122.8501340252088,54.032369570395495],[-122.8501336783968,54.031175350444485],[-122.8501320940388,54.02514968182276],[-122.85015032882917,54.02218748427229],[-122.85018363096579,54.01639033154112],[-122.85020864429761,54.0106292115712],[-122.85006000034711,54.0106290002108],[-122.84699099935679,54.01063000036344],[-122.84403300027412,54.01062700009716],[-122.84117000061009,54.010636999683406],[-122.83791299984867,54.01063000028884],[-122.83739400056135,54.01063099995221],[-122.83681500005302,54.01067000042959],[-122.8362830002421,54.010778000322254],[-122.83557199979053,54.01101200009084],[-122.83480299952976,54.01131999973212],[-122.83422400076059,54.01148300024996],[-122.83369999932823,54.01157200019087],[-122.83312000027786,54.01160699985131],[-122.83257799975983,54.0116379996833],[-122.83192699982604,54.01162999988339],[-122.83118900060617,54.01147000028467],[-122.83076200046334,54.01134000008146],[-122.8303050007143,54.01110799982837],[-122.8300239998082,54.01090600037792],[-122.82810799990409,54.009308000395606],[-122.82754800058913,54.009033999898186],[-122.82676700065895,54.00882800017359],[-122.8256969996379,54.00879599981347],[-122.82258399930018,54.009029999771876],[-122.81942799946282,54.00926599997507],[-122.81652400044177,54.00946799981429],[-122.8145290005835,54.00960300017818],[-122.81399800031045,54.0095570002372],[-122.81346700070416,54.00943400025476],[-122.8075500006064,54.00660500034436],[-122.80686500059454,54.00627099989862],[-122.80521499968498,54.00546799989544],[-122.8033030002444,54.004530999775824],[-122.80253100039464,54.004154999571114],[-122.80162500047724,54.003714000017624],[-122.80119600071686,54.00359099976059],[-122.80115899958797,54.00476000015219],[-122.80109699959533,54.004808000071556],[-122.80109400015868,54.00510300043764],[-122.80109399999024,54.00663900004339],[-122.80108400018486,54.007179999891],[-122.80102100057579,54.00873000035134],[-122.80105899964076,54.00879399971421],[-122.80081500071186,54.00967499970598],[-122.80060199977595,54.01012999977793],[-122.80047200011977,54.010324999894706],[-122.80023999970454,54.01066600004463],[-122.79991800005429,54.0110760003255],[-122.79984500007266,54.011112999811715],[-122.79966600059204,54.01134900031409],[-122.79905700021251,54.01201400030111],[-122.79864999998976,54.01237099977335],[-122.7973020005525,54.01337000008924],[-122.79447699928139,54.0153549996082],[-122.79035700027913,54.018277999914346],[-122.77716599977916,54.027611000413636],[-122.77639900070024,54.02817600014313],[-122.7682150007491,54.03400199955961],[-122.76081099960953,54.039263999619806],[-122.76040283476017,54.039554129380136]]]},"properties":{"OBJECTID":832,"SchoolName":"Springwood Elementary"}},{"type":"Feature","id":842,"geometry":{"type":"Polygon","coordinates":[[[-122.73409987094423,53.81257062624957],[-122.7330109584175,53.812563761922206],[-122.73218902609895,53.812606277580976],[-122.72920843495324,53.81267023344424],[-122.7238133881519,53.81278677016413],[-122.72300444167993,53.81280408575259],[-122.72154438411002,53.812835309983704],[-122.72080432832314,53.812850128098034],[-122.72078915370435,53.81285045230672],[-122.71954844832014,53.812877111239786],[-122.71894255499046,53.81289024506885],[-122.71879817784524,53.81289298966025],[-122.71879200141265,53.813110076935075],[-122.71878894244982,53.813217649909014],[-122.71892784257963,53.81340716874114],[-122.71980181754441,53.81459964160615],[-122.71993369776052,53.81477957035822],[-122.72202629162561,53.81763437967336],[-122.72160175529852,53.8177433481185],[-122.72181926229459,53.81804005063518],[-122.72206919802373,53.818381004993306],[-122.72234489533436,53.81875708149205],[-122.72126187474716,53.81989528310915],[-122.72128657194901,53.82024811916699],[-122.72075485932837,53.82040661230843],[-122.72046356452927,53.82057610786437],[-122.7198359964058,53.82083422366903],[-122.7195869768992,53.82077749243732],[-122.71863052736666,53.820747074864464],[-122.71862304489815,53.82107035460255],[-122.7139760927328,53.82097264674269],[-122.71449676885399,53.822303990790594],[-122.71627178587596,53.82578010711147],[-122.71818188956196,53.82738244366775],[-122.71848433821955,53.827379666320866],[-122.71847106613909,53.82762115737349],[-122.7183507700154,53.83320172394527],[-122.71832588505116,53.834713849370736],[-122.71827466581782,53.83673050095706],[-122.7181308762514,53.8420758816831],[-122.7176724752707,53.84207921719466],[-122.70612260502807,53.84216239109633],[-122.70620514091647,53.84374587184701],[-122.70622121979164,53.84405437685346],[-122.70616788777694,53.84463812793877],[-122.70557306902977,53.85114743079236],[-122.70556747229672,53.85120844678728],[-122.7058127087813,53.855885774955],[-122.70594556291464,53.85944551388555],[-122.7059478648682,53.859507537864914],[-122.70594664782736,53.86013652664137],[-122.70593986631057,53.863120400007034],[-122.7059398288759,53.863143086030206],[-122.70593591427381,53.86574393467767],[-122.70592938781115,53.86912463273429],[-122.70592700737075,53.8703529564275],[-122.70592545404448,53.87115697663034],[-122.73426000005931,53.87114800038615],[-122.73486400053733,53.87115500040133],[-122.73539799960584,53.87114300034539],[-122.74298200061092,53.871140999602645],[-122.74890300046414,53.87114099977226],[-122.75527000013328,53.871138999790965],[-122.75296600054875,53.86884300040324],[-122.75094299971717,53.86727999999022],[-122.75001400021384,53.86604000035415],[-122.74919999932365,53.865367000050206],[-122.74828200030544,53.863642000004475],[-122.74766499951673,53.86234299974309],[-122.74675800011582,53.86073899970872],[-122.74595599997042,53.85796200032778],[-122.74533200026185,53.85674999973133],[-122.74519199960693,53.85576300022642],[-122.74526200040934,53.8544060000725],[-122.7451120005104,53.853557000217876],[-122.74498299949896,53.85288399971321],[-122.74512200064562,53.85095000001107],[-122.74554099963436,53.84959299962486],[-122.74609900021153,53.848111999627605],[-122.74672699944232,53.84667200021956],[-122.74693600025708,53.845355999642244],[-122.74764200064178,53.844712999995096],[-122.7486119992771,53.84036300017953],[-122.74875299984825,53.838334999948295],[-122.74882299931788,53.83552100015321],[-122.74826099998685,53.83407300015008],[-122.74739000022849,53.83278000002464],[-122.7436619998757,53.831139000386486],[-122.73774699984257,53.82915399955092],[-122.73450599968966,53.827472999581985],[-122.73191299953528,53.82606100031654],[-122.73053499982339,53.82464799991756],[-122.72980499930212,53.82258599973796],[-122.7296130000266,53.82061900020233],[-122.72996199993544,53.818930999692405],[-122.73100800053045,53.81600799971336],[-122.73390000061552,53.812904999947975],[-122.73409987094423,53.81257062624957]]]},"properties":{"OBJECTID":842,"SchoolName":"Pineview Elementary"}},{"type":"Feature","id":845,"geometry":{"type":"Polygon","coordinates":[[[-122.73409987094423,53.81257062624957],[-122.73390000061552,53.812904999947975],[-122.73100800053045,53.81600799971336],[-122.72996199993544,53.818930999692405],[-122.7296130000266,53.82061900020233],[-122.72980499930212,53.82258599973796],[-122.73053499982339,53.82464799991756],[-122.73191299953528,53.82606100031654],[-122.73450599968966,53.827472999581985],[-122.73774699984257,53.82915399955092],[-122.7436619998757,53.831139000386486],[-122.74739000022849,53.83278000002464],[-122.74826099998685,53.83407300015008],[-122.74882299931788,53.83552100015321],[-122.74875299984825,53.838334999948295],[-122.7486119992771,53.84036300017953],[-122.74764200064178,53.844712999995096],[-122.75052799946167,53.844713000048095],[-122.76985700070574,53.84471299990808],[-122.77633799976283,53.84471299958145],[-122.78748400038303,53.84471500033781],[-122.78751799978158,53.851360999748],[-122.79353799963647,53.85136000029243],[-122.79352999927728,53.85904799988163],[-122.79433100028848,53.859382999964744],[-122.79360799980111,53.85975200033116],[-122.79361300051322,53.859989000282795],[-122.79371699935326,53.86028200028897],[-122.79505100020927,53.861197000371654],[-122.79505400025485,53.86293500041169],[-122.79806399960843,53.86291900015894],[-122.79846500060553,53.86293999995997],[-122.79859299934326,53.86293499990416],[-122.79940899963316,53.86249599968504],[-122.79941000049065,53.86256999982629],[-122.79944099995083,53.87098900030981],[-122.80035599954368,53.87137100033768],[-122.80155299965307,53.87182899972427],[-122.80218599978338,53.872038999649774],[-122.80330300057695,53.872601000442856],[-122.80428799932344,53.87340800040663],[-122.80476700070619,53.87410799982919],[-122.80644300057293,53.87679800037533],[-122.8075989998935,53.87676399979893],[-122.86232699974563,53.876860999657616],[-122.86302200016405,53.85948600039759],[-122.863566999677,53.845859999563785],[-122.86356699988877,53.83993299978303],[-122.85535500022429,53.83997500042522],[-122.85535399972086,53.83689800003455],[-122.84880899954814,53.83690100026057],[-122.84880300056386,53.82997200006228],[-122.84690700055387,53.83053199977959],[-122.8451979992792,53.83114900006483],[-122.84369600004425,53.831822999898485],[-122.84212600029427,53.83271799975264],[-122.84079500044261,53.833689000174004],[-122.83910999992347,53.83524499958008],[-122.83881700023586,53.83529299956853],[-122.83864599951839,53.83524399988228],[-122.8385389994429,53.835135999618785],[-122.83967899970595,53.8341939997884],[-122.84010100032117,53.83378900014984],[-122.84049899993624,53.83318399988701],[-122.84075100028997,53.830837999617685],[-122.84076700035288,53.83043400022337],[-122.84076799964754,53.83022700008562],[-122.84075499948831,53.8296429998299],[-122.84028699989996,53.82876999974316],[-122.83886600024219,53.827122999794746],[-122.83862499949917,53.82654799981272],[-122.8384910004449,53.825802000145785],[-122.83907699942975,53.82359100020628],[-122.8389019994732,53.821676999656994],[-122.83910099971423,53.82120100012967],[-122.83948200061255,53.8207609998536],[-122.84013700016544,53.82032999964549],[-122.84097400024149,53.820044000279346],[-122.8435419997583,53.81961600007837],[-122.84603699932356,53.81878300023777],[-122.8470109999107,53.818262999931925],[-122.85047755460384,53.816052175380804],[-122.84871527073624,53.816046034371745],[-122.84839980400939,53.8160449260363],[-122.84839068920041,53.816045354938794],[-122.84839073087069,53.815949639604604],[-122.84812963642835,53.81594966886127],[-122.82421862518545,53.815951069831634],[-122.8177521513138,53.81595203485103],[-122.81195293702149,53.81595213520227],[-122.8095402270034,53.815950647688574],[-122.80766332590804,53.81595345038594],[-122.80581819798563,53.815953264103584],[-122.80410065548337,53.81595307810084],[-122.80375890668978,53.815953508215],[-122.79972780440546,53.81595537570972],[-122.78749134523676,53.815944847657235],[-122.77525484796003,53.81594204156476],[-122.75699728759487,53.815928107374916],[-122.73358036705059,53.815921896941695],[-122.73181366050268,53.81592124084804],[-122.73229463679367,53.81525723148962],[-122.73424888125366,53.81265478428931],[-122.73428133058663,53.812571768986345],[-122.73409987094423,53.81257062624957]]]},"properties":{"OBJECTID":845,"SchoolName":"Vanway Elementary"}},{"type":"Feature","id":846,"geometry":{"type":"Polygon","coordinates":[[[-122.85047755460384,53.816052175380804],[-122.8470109999107,53.818262999931925],[-122.84603699932356,53.81878300023777],[-122.8435419997583,53.81961600007837],[-122.84097400024149,53.820044000279346],[-122.84013700016544,53.82032999964549],[-122.83948200061255,53.8207609998536],[-122.83910099971423,53.82120100012967],[-122.8389019994732,53.821676999656994],[-122.83907699942975,53.82359100020628],[-122.8384910004449,53.825802000145785],[-122.83862499949917,53.82654799981272],[-122.83886600024219,53.827122999794746],[-122.84028699989996,53.82876999974316],[-122.84075499948831,53.8296429998299],[-122.84076799964754,53.83022700008562],[-122.84076700035288,53.83043400022337],[-122.84075100028997,53.830837999617685],[-122.84049899993624,53.83318399988701],[-122.84010100032117,53.83378900014984],[-122.83967899970595,53.8341939997884],[-122.8385389994429,53.835135999618785],[-122.83864599951839,53.83524399988228],[-122.83881700023586,53.83529299956853],[-122.83910999992347,53.83524499958008],[-122.84079500044261,53.833689000174004],[-122.84212600029427,53.83271799975264],[-122.84369600004425,53.831822999898485],[-122.8451979992792,53.83114900006483],[-122.84690700055387,53.83053199977959],[-122.84880300056386,53.82997200006228],[-122.84880899954814,53.83690100026057],[-122.85535399972086,53.83689800003455],[-122.85535500022429,53.83997500042522],[-122.86356699988877,53.83993299978303],[-122.863566999677,53.845859999563785],[-122.86302200016405,53.85948600039759],[-122.86232699974563,53.876860999657616],[-122.88994796352752,53.87689290954427],[-122.88995471934028,53.876040425992514],[-122.89001267647366,53.8738415377764],[-122.89778470056625,53.87382610811736],[-122.8977449003219,53.86944131209464],[-122.8976731560063,53.861555600851275],[-122.89766311952705,53.86045311710514],[-122.89765306051602,53.85934137535727],[-122.89763282665521,53.852431357772964],[-122.88153951893955,53.852515968700644],[-122.88153386359568,53.85145013974132],[-122.88152168464231,53.84494289441492],[-122.88152017770608,53.84246197235245],[-122.88151713029812,53.838050317808694],[-122.88152442489883,53.83347380912563],[-122.88152855336504,53.83082626501281],[-122.88153869390995,53.824485651239534],[-122.88154019329907,53.82357711764632],[-122.88154442700618,53.82233465735282],[-122.88608792077171,53.82105521131097],[-122.88609722860323,53.81919143725571],[-122.88155077056724,53.82047324492736],[-122.88156466643613,53.816353293899674],[-122.87850603098,53.81631873144033],[-122.86933000359969,53.81621462093126],[-122.85713248313569,53.81607513082836],[-122.85047755460384,53.816052175380804]]]},"properties":{"OBJECTID":846,"SchoolName":"Beaverly Elementary"}},{"type":"Feature","id":852,"geometry":{"type":"Polygon","coordinates":[[[-122.89519259169147,53.96878670783021],[-122.88060399961915,53.968721000224335],[-122.88060399958201,53.96482700022587],[-122.86184799965754,53.96476200005836],[-122.86184799968474,53.95807599990676],[-122.84946400046152,53.958109000323766],[-122.84949100042422,53.952753000348906],[-122.84123100071034,53.95275299968029],[-122.83482199946317,53.952751999919386],[-122.83482899957193,53.939763999985814],[-122.82251299957348,53.939774999941875],[-122.82238899964207,53.94011699962006],[-122.82145500035571,53.94127500042577],[-122.82095000055384,53.94187600024614],[-122.82007700060285,53.94288200011184],[-122.81943400036741,53.94364499967738],[-122.81895900061568,53.94418300037109],[-122.81762199974465,53.94575000041703],[-122.81741200003128,53.9460229997111],[-122.82056900074377,53.94781199978928],[-122.82497599931129,53.95040600001627],[-122.82762000009312,53.95280499974015],[-122.83092499978628,53.95481400029228],[-122.83323900025732,53.95636999969225],[-122.83632399945611,53.95766099996358],[-122.8389129997544,53.958859999796665],[-122.84128099966881,53.959856999963655],[-122.84552299973105,53.96167099967314],[-122.84610200027365,53.96272400015848],[-122.85048099984289,53.96601300013985],[-122.85362099954312,53.96794000020268],[-122.85739500018032,53.969300999634896],[-122.86075500063986,53.969917000289556],[-122.86425399964293,53.970143999923856],[-122.86720100043203,53.97082399977786],[-122.8686879992818,53.9718119995561],[-122.8699829994243,53.97323699991797],[-122.87116700000519,53.97430699974514],[-122.8734500005859,53.97643500026416],[-122.87615799985646,53.97772900006547],[-122.87903400002172,53.97842499969548],[-122.88182599946107,53.978375000298335],[-122.88317999979097,53.97800199999126],[-122.88643800001282,53.97700700032348],[-122.88889099968416,53.97655999966555],[-122.89134500062758,53.976485000070504],[-122.89525599997764,53.97648599993423],[-122.89527315184924,53.97649432784448],[-122.89527111249389,53.9763511748656],[-122.89519259169147,53.96878670783021]]]},"properties":{"OBJECTID":852,"SchoolName":"Quinson Elementary"}},{"type":"Feature","id":854,"geometry":{"type":"Polygon","coordinates":[[[-122.7880110003561,53.930372999748485],[-122.78900300057738,53.932384000220026],[-122.79420400049256,53.931398000408905],[-122.7941589992801,53.93122699956342],[-122.79411699932454,53.93046299995525],[-122.79412399957052,53.92995199961508],[-122.79523199968537,53.930085999879516],[-122.79660399946903,53.93065699982347],[-122.79741899939559,53.93063399980216],[-122.79841199939061,53.93004100022411],[-122.79879799964884,53.92961099987979],[-122.79995599965574,53.92992400027983],[-122.80039000044421,53.92955899986848],[-122.80117600020402,53.928965000437685],[-122.80187999933653,53.928713000278925],[-122.8018780000324,53.92818199965542],[-122.80164300070993,53.92800299961653],[-122.80106299946519,53.92759600013077],[-122.80152099970398,53.92729900015402],[-122.8020489998138,53.926955000280806],[-122.80235999939808,53.92708099991337],[-122.80278399991421,53.92709800028014],[-122.80305100023747,53.92709999961924],[-122.80306900027601,53.926114999700694],[-122.80313999953344,53.925858999947216],[-122.80328000043518,53.9256559997383],[-122.80147800075751,53.92565599989859],[-122.80147100060749,53.924859999732845],[-122.79914399994777,53.9248600000892],[-122.79913600031331,53.92444799976285],[-122.79915099944698,53.92252599964225],[-122.79935000003182,53.92221200034488],[-122.80008199944184,53.922216000154144],[-122.80077400059062,53.92182200025311],[-122.80078099979143,53.92133600001674],[-122.80027799970031,53.9208149999015],[-122.79967800015798,53.92062199961204],[-122.79629199937128,53.92060699967833],[-122.7942750004568,53.92059999960228],[-122.79419499934075,53.92060000005379],[-122.79419200021142,53.920554999813014],[-122.79421900024404,53.92009299982035],[-122.79431700059051,53.91954200033249],[-122.79542399969776,53.91732899997134],[-122.79583100002378,53.91653699962293],[-122.7967069996835,53.91485199994951],[-122.7971010006555,53.914041999568596],[-122.7973630007281,53.913202000368166],[-122.79741500055508,53.9115909996329],[-122.79746800007047,53.910493999981156],[-122.79746800068536,53.91035700023078],[-122.7973439994144,53.91035499970715],[-122.79642999934333,53.91036100013976],[-122.79501500000629,53.91035299979509],[-122.7910960001974,53.91031499997923],[-122.79066000075397,53.91031500019882],[-122.78917900042218,53.91031299980192],[-122.78530599996601,53.91030899970327],[-122.78469899993323,53.91032399979317],[-122.78223899958665,53.91035299967075],[-122.78178700008523,53.91035099993224],[-122.7816919993191,53.91034899998824],[-122.78169699951059,53.9104179997243],[-122.78170200028768,53.91146599998216],[-122.78167799964707,53.91315999982598],[-122.78168500046709,53.91440300024132],[-122.78168300040116,53.91541400028844],[-122.78168000070626,53.91647299999805],[-122.78167700038634,53.919162999926975],[-122.78169199931068,53.92056699962303],[-122.7816779993134,53.92065700035056],[-122.78167099985019,53.923047999944274],[-122.78165899948604,53.92363299970721],[-122.78164800001733,53.92408799984955],[-122.78130800000643,53.92520799975345],[-122.78076799985124,53.9264169999732],[-122.78053499935318,53.9270279998987],[-122.78338399944057,53.927746000394656],[-122.78602800004184,53.92891400035054],[-122.7880110003561,53.930372999748485]]]},"properties":{"OBJECTID":854,"SchoolName":"Quinson Elementary"}},{"type":"Feature","id":859,"geometry":{"type":"Polygon","coordinates":[[[-122.66725190276945,53.92912214735764],[-122.66565899993732,53.92868900005869],[-122.66499799984105,53.92706699965101],[-122.66478600044789,53.924569999633064],[-122.66764200019205,53.9216159997527],[-122.67017599961572,53.91979899976471],[-122.6731509997232,53.91791799963227],[-122.6775580005508,53.91551699992764],[-122.68257099928617,53.91453699970241],[-122.68791500073183,53.914617999969806],[-122.6927630004362,53.91513700014226],[-122.69716999973679,53.915784999699966],[-122.70190800021636,53.91649799963863],[-122.70565399945238,53.91740599969783],[-122.70940000052136,53.91805399956228],[-122.71259500040561,53.91857199960793],[-122.71658900046255,53.91717299982257],[-122.72114800062353,53.914064999920306],[-122.72453599931261,53.91171299955277],[-122.72540400060208,53.91089399986287],[-122.72644399994263,53.90928299980196],[-122.72788899966575,53.90792099980772],[-122.72861700043818,53.90723599965242],[-122.72941599944475,53.90648300015636],[-122.73033299974692,53.90546799955625],[-122.73206800070606,53.903696999664874],[-122.73316299964586,53.90243899994621],[-122.73305499937825,53.90082500038995],[-122.73294499976211,53.89940599984216],[-122.73409400054211,53.89782500043855],[-122.73529899973562,53.896276999750434],[-122.7366119999364,53.89521199990114],[-122.73830900046602,53.894244000382876],[-122.74033400073658,53.89337299959135],[-122.74318100014081,53.89234099965719],[-122.74566999953319,53.891292999704945],[-122.74774299952809,53.89036999994872],[-122.74874099972519,53.889911000029066],[-122.75180099951658,53.88871200023731],[-122.75535899956495,53.8869379997559],[-122.75732899987956,53.88532400005346],[-122.7591899999499,53.883292000323124],[-122.75984700020756,53.881485000431155],[-122.75990200046316,53.8798070003391],[-122.7590809995638,53.87787099967634],[-122.75782199928192,53.87616099985825],[-122.75749299966078,53.874354000174705],[-122.75650900061332,53.87302300044738],[-122.755637000544,53.87150199994774],[-122.75527000013328,53.871138999790965],[-122.74890300046414,53.87114099977226],[-122.74298200061092,53.871140999602645],[-122.73539799960584,53.87114300034539],[-122.73486400053733,53.87115500040133],[-122.73426000005931,53.87114800038615],[-122.70592545404448,53.87115697663034],[-122.70591810865463,53.874960257911575],[-122.7059119609354,53.878112742891425],[-122.70590162609496,53.88016214730465],[-122.68990654234054,53.880182609674804],[-122.67768276471506,53.88021710313038],[-122.66541327490458,53.8802408768074],[-122.6653934786458,53.878006638127985],[-122.66538110584688,53.876610833991364],[-122.65738138958726,53.876611591689],[-122.65730579204,53.87661159160718],[-122.65670452460297,53.87661725283329],[-122.65609275268083,53.876616580258215],[-122.65461838620912,53.876614863860695],[-122.65318432827713,53.87661315593892],[-122.65151267945126,53.876611280651055],[-122.64539971946607,53.876617466517224],[-122.6409357744056,53.87662172366277],[-122.6349594353505,53.87662409231118],[-122.62870473830459,53.87662630042113],[-122.62871593847275,53.88385622743042],[-122.6287214432118,53.88739515665098],[-122.62872754089653,53.891085167243915],[-122.61679419520833,53.89108614016542],[-122.61663110941285,53.89108283318559],[-122.61061300666542,53.89110225544743],[-122.60762241132323,53.8910914158589],[-122.60455856762387,53.89109132224401],[-122.60462581541911,53.898259604430734],[-122.60461475391723,53.898514040106015],[-122.60446144925788,53.90555125923619],[-122.60443407502716,53.91284512702289],[-122.6166305896259,53.91288452103351],[-122.61663509639743,53.91573349601692],[-122.61663734227835,53.91715047790981],[-122.61666117907956,53.92001685959722],[-122.61666200559618,53.92020920756037],[-122.63457961549634,53.92017733824554],[-122.64034818565547,53.92016347316577],[-122.64035758507977,53.92124899306887],[-122.64105012381968,53.92124728991684],[-122.64120241211002,53.92124693604908],[-122.64120539967945,53.92151828641666],[-122.64122937767546,53.9228774559049],[-122.64126601602841,53.92496253164439],[-122.64125687831921,53.925548707186074],[-122.64124543272763,53.92627967378597],[-122.64122960679347,53.92729051605759],[-122.65024511982854,53.927256609034046],[-122.65025121112512,53.93168683094117],[-122.65055761126784,53.93168474768231],[-122.655007063335,53.93166587306738],[-122.66251240541875,53.93161410467271],[-122.66337388461508,53.93160884631016],[-122.6637610391891,53.93160647929707],[-122.66417568658034,53.931603945228524],[-122.66565698099143,53.93159488315881],[-122.66724339045959,53.9315828583699],[-122.66725605323364,53.93077985455624],[-122.66725295707936,53.92954352180002],[-122.66725190276945,53.92912214735764]]]},"properties":{"OBJECTID":859,"SchoolName":"Blackburn Elementary"}}]}
