{"type":"FeatureCollection","features":[{"type":"Feature","id":11,"geometry":{"type":"Polygon","coordinates":[[[-122.78053499935318,53.9270279998987],[-122.78076799985124,53.9264169999732],[-122.78130800000643,53.92520799975345],[-122.78164800001733,53.92408799984955],[-122.78165899948604,53.92363299970721],[-122.78167099985019,53.923047999944274],[-122.7816779993134,53.92065700035056],[-122.78169199931068,53.92056699962303],[-122.78167700038634,53.919162999926975],[-122.78168000070626,53.91647299999805],[-122.78168300040116,53.91541400028844],[-122.78168500046709,53.91440300024132],[-122.78167799964707,53.91315999982598],[-122.78170200028768,53.91146599998216],[-122.78169699951059,53.9104179997243],[-122.7816919993191,53.91034899998824],[-122.78170000022908,53.91028600005575],[-122.78170399929846,53.907282000382835],[-122.78170499997661,53.90359399980322],[-122.78158500070393,53.903595000371084],[-122.78118000058275,53.90359300017599],[-122.78118000022587,53.903199000366605],[-122.78084300071468,53.902989999739575],[-122.78049300065143,53.90299900013952],[-122.78024899955241,53.903078999882446],[-122.77956100052607,53.90363499996179],[-122.77832500058075,53.90478599973102],[-122.77795099952664,53.904975000363535],[-122.77751100067213,53.90508499995872],[-122.77680900033833,53.90511300012965],[-122.77451199928862,53.904997999774835],[-122.7741180003948,53.905009999862386],[-122.77188600075355,53.905397999653445],[-122.77151400071688,53.9053540003886],[-122.77150400009485,53.90503999978814],[-122.76696099935207,53.90504300020368],[-122.76695400042455,53.90226400007521],[-122.76596199991121,53.90226300001506],[-122.76584599933794,53.90226099961172],[-122.76541000049656,53.90225300035952],[-122.76057300016134,53.90225999988107],[-122.76059499966742,53.900668999945196],[-122.76060000075674,53.900348999712264],[-122.76001999983062,53.90033900030969],[-122.75980900021017,53.900248000016745],[-122.75923000059943,53.89934700018889],[-122.7577050004962,53.898245000434535],[-122.75655100050983,53.89778400001773],[-122.75582100036425,53.897684000025514],[-122.75521299954315,53.897700999753496],[-122.75515900059277,53.89644199963144],[-122.75517700025515,53.8960200001559],[-122.75516600036089,53.89525600003678],[-122.75515600016305,53.89440200040179],[-122.75515399925358,53.894056000240454],[-122.7551529995945,53.89400600008617],[-122.75399600044695,53.893794000100684],[-122.75272300002743,53.89351100023366],[-122.75226799925919,53.89343400043466],[-122.75137299928333,53.89316200033202],[-122.7508599996531,53.89313600030307],[-122.7506570004857,53.89314500021768],[-122.74963799995551,53.89333000028673],[-122.74943700027433,53.89333600028205],[-122.74942399976229,53.89359000034248],[-122.74938799932829,53.8944079998998],[-122.74939999947917,53.89502100004105],[-122.74743700007508,53.89503299974896],[-122.74746499947094,53.896311999838815],[-122.74746399958975,53.89639000006478],[-122.7474670003679,53.89723000000427],[-122.74543700037331,53.897229000154375],[-122.74541499929113,53.89844699993219],[-122.7454350006736,53.899229999956574],[-122.7446720005104,53.8996789998593],[-122.74433600015479,53.89987599962524],[-122.74354000009134,53.90021399995661],[-122.74322800073841,53.900329000049254],[-122.74293099940138,53.9003940001095],[-122.74281700002724,53.9004539995921],[-122.74281199931205,53.902201999642024],[-122.74281200050825,53.902208000095094],[-122.74241699943123,53.90247399995845],[-122.74184599953958,53.902473000190454],[-122.74141200058408,53.90221099998921],[-122.74079899926433,53.902561000346616],[-122.73316299964586,53.90243899994621],[-122.73206800070606,53.903696999664874],[-122.73033299974692,53.90546799955625],[-122.72941599944475,53.90648300015636],[-122.72861700043818,53.90723599965242],[-122.72788899966575,53.90792099980772],[-122.72644399994263,53.90928299980196],[-122.72540400060208,53.91089399986287],[-122.72453599931261,53.91171299955277],[-122.72114800062353,53.914064999920306],[-122.71658900046255,53.91717299982257],[-122.71259500040561,53.91857199960793],[-122.71275999946549,53.92051000003668],[-122.71529799960322,53.92344900035813],[-122.71551000008041,53.92439599999063],[-122.71606799999293,53.9251839998788],[-122.71774499955792,53.92579899983342],[-122.72123800048448,53.92627199965225],[-122.7228129998229,53.92641599969466],[-122.72407900030227,53.92717700005916],[-122.72643300045766,53.92818899962613],[-122.73019500027755,53.92742099957763],[-122.73143500002091,53.92693500000659],[-122.73441000000295,53.92696700035897],[-122.7390379995057,53.926934999967415],[-122.74289399970628,53.92703200039879],[-122.74630900075763,53.92706399993635],[-122.75068399987448,53.927352000194816],[-122.75418699947636,53.92735699957345],[-122.75980599931088,53.92735699989905],[-122.7639930001069,53.927162999815366],[-122.7668559993975,53.92715299980576],[-122.76851000049365,53.927195000449665],[-122.77225600064462,53.926967999849964],[-122.77666300026706,53.92648099977294],[-122.7800229996773,53.92693599995801],[-122.78053499935318,53.9270279998987]]]},"properties":{"OBJECTID":11,"SchoolNam":"Duchess Park Secondary"}},{"type":"Feature","id":14,"geometry":{"type":"Polygon","coordinates":[[[-122.62425876733886,54.00558535374465],[-122.6243262497351,54.0056588525449],[-122.62458952318596,54.005745321345465],[-122.62477872485105,54.0057702694365],[-122.62827394608907,54.00577033357182],[-122.6338302437758,54.00577021924975],[-122.64449426260946,54.005769152761566],[-122.644495447791,54.00593444488982],[-122.64454173656931,54.012767496212795],[-122.65096269586607,54.01278630909197],[-122.66428914315436,54.0128242599802],[-122.6667721089176,54.01283116768001],[-122.66913056915543,54.01279723576179],[-122.68132273636681,54.01279350070693],[-122.69370455429316,54.01260673715666],[-122.69481156956209,54.012602362046266],[-122.70566897847122,54.01255869810906],[-122.7180154890551,54.01251054496216],[-122.72533300172859,54.01247805174068],[-122.72759575632064,54.01246953831941],[-122.72759660544253,54.012984368860394],[-122.72759696300115,54.01330344115507],[-122.72760026506903,54.02197229978629],[-122.72759995105648,54.02508759080273],[-122.72759943114741,54.03096020704056],[-122.7275984159196,54.03959405845269],[-122.75206709821586,54.03955969309442],[-122.75569484054157,54.039557994648014],[-122.76435978068459,54.03955073888528],[-122.77664969790479,54.039543273329784],[-122.78623526391797,54.03953609376553],[-122.80089113587732,54.039570499919485],[-122.82557872816218,54.03958293625429],[-122.83780491466207,54.039585396694086],[-122.84317248407784,54.0395959224385],[-122.84313789434559,54.040022540413524],[-122.84319105801768,54.040154371884704],[-122.84336801028103,54.04059320141217],[-122.84349090638325,54.04173977270785],[-122.84731079507714,54.040901783137215],[-122.85009667695171,54.040290535812495],[-122.85009765437741,54.040163178961535],[-122.85010187713648,54.0396091631103],[-122.8501340252088,54.032369570395495],[-122.8501336783968,54.031175350444485],[-122.8501320940388,54.02514968182276],[-122.85015032882917,54.02218748427229],[-122.85018363096579,54.01639033154112],[-122.8502088230042,54.010587950091676],[-122.8502242116013,54.004211761965585],[-122.85036220891953,53.99615191165094],[-122.85035226528794,53.995223994005684],[-122.85025668702787,53.98623593401058],[-122.85020831331222,53.98169623936881],[-122.86258513953402,53.981676065028665],[-122.87482468938337,53.98165303511816],[-122.87802546249948,53.98164622379098],[-122.89938674887003,53.98159836196936],[-122.8993854040492,53.98132557297423],[-122.85016500055706,53.98129499992282],[-122.8257979993611,53.98130499968482],[-122.82573199971802,53.96760900031919],[-122.81273299997459,53.96760900040591],[-122.81269300001337,53.96212299996429],[-122.81179000031207,53.96296599967569],[-122.81093500002585,53.96337799967537],[-122.80951600032348,53.96377999956522],[-122.80745599947076,53.96406499963127],[-122.80605400048658,53.96418799965458],[-122.80238000024268,53.96429000041123],[-122.80070199946759,53.964412999665456],[-122.79966499967522,53.96459099990288],[-122.79790900057931,53.96517199994779],[-122.79644199938309,53.96603299959982],[-122.79530700020524,53.96734300007984],[-122.78842100016772,53.9620560000948],[-122.78839599979766,53.95126899966323],[-122.7771579997964,53.95133299978075],[-122.77726800004321,53.94270399990706],[-122.76896400028203,53.94270800016221],[-122.76119499983473,53.942707999800625],[-122.76096599994969,53.94261100034989],[-122.76076400023018,53.94061999958355],[-122.76055800043443,53.9396680001688],[-122.76032899943107,53.93911400020366],[-122.75985999966271,53.93828999960695],[-122.75958600022923,53.9379520002592],[-122.75899199968671,53.93720299997555],[-122.75895900016208,53.93708499993687],[-122.75809599952704,53.935906000238674],[-122.75799500054373,53.93505199958346],[-122.75827399985424,53.93417099997445],[-122.75904000062056,53.9333280001851],[-122.75903000009568,53.93141300011793],[-122.69671100035119,53.931379999874345],[-122.69918199928709,53.93288300042656],[-122.70000899965177,53.9341480001593],[-122.7008899999241,53.935802000014824],[-122.70105600000365,53.93761800031459],[-122.7007249998291,53.939434000282496],[-122.70127599968177,53.940471999891145],[-122.70252299996135,53.942041999739175],[-122.70320500072889,53.9432930000717],[-122.70279199945533,53.9447200004068],[-122.70270000016055,53.946735000162626],[-122.70165300056046,53.948768000013956],[-122.7014440000622,53.950307999641964],[-122.70249099950546,53.952032999774445],[-122.70427000029726,53.95431200039832],[-122.70560499927727,53.955403000439276],[-122.70552599958454,53.95615999993294],[-122.70649399976253,53.95743599957052],[-122.70861300009756,53.9590370002204],[-122.70926799942593,53.96139099977887],[-122.70926800035016,53.96305299966344],[-122.70853500076069,53.96388399966929],[-122.70727899947968,53.96468399972637],[-122.70529000069415,53.96532999984065],[-122.70246399958401,53.965576999625235],[-122.70120799995107,53.96548400023075],[-122.6991669994255,53.965268999970185],[-122.69665500027644,53.96502299961061],[-122.6936729996716,53.964498999588045],[-122.69074200019934,53.96409899958681],[-122.6867119998135,53.963760999683444],[-122.68341500000267,53.96317599989598],[-122.68051100065391,53.96268999996504],[-122.67705700026006,53.9624440003298],[-122.67412599954511,53.962136000319674],[-122.67056799935524,53.96176599966159],[-122.6653339997894,53.961581999742535],[-122.66198499977817,53.96167400010414],[-122.6593160003106,53.96215199963393],[-122.65709199975207,53.96302899993322],[-122.65455399935014,53.96424499990422],[-122.65233000071802,53.96572199992537],[-122.65070700056299,53.96787600029092],[-122.64981799979613,53.96956900028594],[-122.64979200073957,53.97101499977552],[-122.65000099960126,53.97192299973435],[-122.6505500001557,53.9726619999423],[-122.6520809992791,53.97333100041945],[-122.65438400068828,53.9738239997139],[-122.65836100005896,53.97363900014075],[-122.66202500046346,53.973269999595686],[-122.66641999941811,53.9727770004452],[-122.67018799970218,53.973393000114335],[-122.67311900052451,53.97400799984194],[-122.67559200056859,53.9757710004337],[-122.67611499972213,53.9773399995941],[-122.676219999295,53.97854000008973],[-122.6767150005169,53.979117000189376],[-122.67710900045003,53.97964800044524],[-122.67778999941716,53.98038600040551],[-122.67894099989176,53.981125000332014],[-122.68066800017478,53.982386000013975],[-122.68325800026466,53.984095000270344],[-122.68618899938157,53.986433000220956],[-122.68671200011066,53.98889499963408],[-122.68632000016025,53.99081599980034],[-122.68464500022681,53.99323099983056],[-122.68255199969921,53.995169999639494],[-122.68059000062898,53.996646000056835],[-122.67841799958325,53.99761500044479],[-122.67491200038825,53.997768999668324],[-122.6730279994621,53.997291999875024],[-122.67164100045947,53.99732299975299],[-122.66922000001541,53.99743200022859],[-122.66670799949372,53.99761700033166],[-122.6642880004043,53.9981629999611],[-122.66020599995171,53.99914800025073],[-122.65601899975923,54.00000800005369],[-122.648639999454,54.00068400038508],[-122.64340700068358,54.00126899971089],[-122.63393499981308,54.00172999975025],[-122.63100499935993,54.00199099974385],[-122.62885899925847,54.00257600043628],[-122.62679199927702,54.00419000004092],[-122.62425876733886,54.00558535374465]]]},"properties":{"OBJECTID":14,"SchoolNam":"Shas Ti Kelly Road Secondary"}},{"type":"Feature","id":16,"geometry":{"type":"Polygon","coordinates":[[[-122.88994796352752,53.87689290954427],[-122.86232699974563,53.876860999657616],[-122.8075989998935,53.87676399979893],[-122.80644300057293,53.87679800037533],[-122.80476700070619,53.87410799982919],[-122.80428799932344,53.87340800040663],[-122.80330300057695,53.872601000442856],[-122.80218599978338,53.872038999649774],[-122.80155299965307,53.87182899972427],[-122.80035599954368,53.87137100033768],[-122.79944099995083,53.87098900030981],[-122.79941000049065,53.86256999982629],[-122.79940899963316,53.86249599968504],[-122.79859299934326,53.86293499990416],[-122.79705500033343,53.86371899995101],[-122.79621800045359,53.864065999794434],[-122.79544599937171,53.864288999955235],[-122.79163499951345,53.86505100039387],[-122.78422400070207,53.86656299977034],[-122.78400700046008,53.86662200037995],[-122.78312999943583,53.86692100026308],[-122.782551000413,53.86719599996804],[-122.78211099954663,53.86742400044478],[-122.78156999994448,53.86779700001624],[-122.78106599948802,53.86821699977468],[-122.78066099998526,53.86878400043911],[-122.78048100015411,53.86914199955151],[-122.78043900042482,53.869197999703424],[-122.78040799973365,53.86927100034707],[-122.77969300062723,53.870863000365475],[-122.77893500076028,53.87257699963185],[-122.7784729994311,53.87349400034911],[-122.77838999950919,53.8736280003513],[-122.77810200008442,53.873976000041786],[-122.7775609998614,53.874463999604856],[-122.77699899965152,53.87482599987996],[-122.7764190001247,53.875087999842066],[-122.77572600031235,53.87531199984074],[-122.77527599926961,53.87540099994371],[-122.77487199996493,53.87544099958828],[-122.77442300039131,53.875476999886374],[-122.77337900021355,53.87552099961587],[-122.77286499963769,53.87558600007357],[-122.77245099961537,53.87570899956683],[-122.77214799976865,53.87581999980828],[-122.77193500061195,53.8759149997762],[-122.77158800032899,53.87613200004882],[-122.77122600044595,53.87644400038081],[-122.77079099929485,53.87692999976618],[-122.77058799990807,53.877417999694735],[-122.77046100035672,53.87740600044879],[-122.7695540007095,53.87726299991394],[-122.76786699944952,53.87706199991131],[-122.76496599974602,53.87622100023041],[-122.76359600000653,53.87546699955644],[-122.76271100066322,53.87436500026635],[-122.75749299966078,53.874354000174705],[-122.75650900061332,53.87302300044738],[-122.755637000544,53.87150199994774],[-122.75527000013328,53.871138999790965],[-122.75296600054875,53.86884300040324],[-122.75094299971717,53.86727999999022],[-122.75001400021384,53.86604000035415],[-122.74919999932365,53.865367000050206],[-122.74828200030544,53.863642000004475],[-122.74766499951673,53.86234299974309],[-122.74675800011582,53.86073899970872],[-122.74595599997042,53.85796200032778],[-122.74533200026185,53.85674999973133],[-122.74519199960693,53.85576300022642],[-122.74526200040934,53.8544060000725],[-122.7451120005104,53.853557000217876],[-122.74498299949896,53.85288399971321],[-122.74512200064562,53.85095000001107],[-122.74554099963436,53.84959299962486],[-122.74609900021153,53.848111999627605],[-122.74672699944232,53.84667200021956],[-122.74693600025708,53.845355999642244],[-122.74764200064178,53.844712999995096],[-122.7486119992771,53.84036300017953],[-122.74875299984825,53.838334999948295],[-122.74882299931788,53.83552100015321],[-122.74826099998685,53.83407300015008],[-122.74739000022849,53.83278000002464],[-122.7436619998757,53.831139000386486],[-122.73774699984257,53.82915399955092],[-122.73450599968966,53.827472999581985],[-122.73191299953528,53.82606100031654],[-122.73053499982339,53.82464799991756],[-122.72980499930212,53.82258599973796],[-122.7296130000266,53.82061900020233],[-122.72996199993544,53.818930999692405],[-122.73100800053045,53.81600799971336],[-122.73390000061552,53.812904999947975],[-122.73409987094423,53.81257062624957],[-122.7330109584175,53.812563761922206],[-122.73218902609895,53.812606277580976],[-122.72920843495324,53.81267023344424],[-122.7238133881519,53.81278677016413],[-122.72300444167993,53.81280408575259],[-122.72154438411002,53.812835309983704],[-122.72080432832314,53.812850128098034],[-122.72078915370435,53.81285045230672],[-122.71954844832014,53.812877111239786],[-122.71894255499046,53.81289024506885],[-122.71879817784524,53.81289298966025],[-122.71879200141265,53.813110076935075],[-122.71878894244982,53.813217649909014],[-122.71892784257963,53.81340716874114],[-122.71980181754441,53.81459964160615],[-122.71993369776052,53.81477957035822],[-122.72202629162561,53.81763437967336],[-122.72160175529852,53.8177433481185],[-122.72181926229459,53.81804005063518],[-122.72206919802373,53.818381004993306],[-122.72234489533436,53.81875708149205],[-122.72126187474716,53.81989528310915],[-122.72128657194901,53.82024811916699],[-122.72075485932837,53.82040661230843],[-122.72046356452927,53.82057610786437],[-122.7198359964058,53.82083422366903],[-122.7195869768992,53.82077749243732],[-122.71863052736666,53.820747074864464],[-122.71862304489815,53.82107035460255],[-122.7139760927328,53.82097264674269],[-122.71449676885399,53.822303990790594],[-122.71627178587596,53.82578010711147],[-122.71818188956196,53.82738244366775],[-122.71848433821955,53.827379666320866],[-122.71847106613909,53.82762115737349],[-122.7183507700154,53.83320172394527],[-122.71832588505116,53.834713849370736],[-122.71827466581782,53.83673050095706],[-122.7181308762514,53.8420758816831],[-122.7176724752707,53.84207921719466],[-122.70612260502807,53.84216239109633],[-122.70620514091647,53.84374587184701],[-122.70622121979164,53.84405437685346],[-122.70616788777694,53.84463812793877],[-122.70557306902977,53.85114743079236],[-122.70556747229672,53.85120844678728],[-122.7058127087813,53.855885774955],[-122.70594556291464,53.85944551388555],[-122.7059478648682,53.859507537864914],[-122.70594664782736,53.86013652664137],[-122.70593986631057,53.863120400007034],[-122.7059398288759,53.863143086030206],[-122.70593591427381,53.86574393467767],[-122.70592938781115,53.86912463273429],[-122.70592700737075,53.8703529564275],[-122.70592545404448,53.87115697663034],[-122.70591810865463,53.874960257911575],[-122.7059119609354,53.878112742891425],[-122.70590162609496,53.88016214730465],[-122.68990654234054,53.880182609674804],[-122.67768276471506,53.88021710313038],[-122.66541327490458,53.8802408768074],[-122.6653934786458,53.878006638127985],[-122.66538110584688,53.876610833991364],[-122.65738138958726,53.876611591689],[-122.65730579204,53.87661159160718],[-122.65670452460297,53.87661725283329],[-122.65609275268083,53.876616580258215],[-122.65461838620912,53.876614863860695],[-122.65318432827713,53.87661315593892],[-122.65151267945126,53.876611280651055],[-122.64539971946607,53.876617466517224],[-122.6409357744056,53.87662172366277],[-122.6349594353505,53.87662409231118],[-122.62870473830459,53.87662630042113],[-122.62871593847275,53.88385622743042],[-122.6287214432118,53.88739515665098],[-122.62872754089653,53.891085167243915],[-122.61679419520833,53.89108614016542],[-122.61663110941285,53.89108283318559],[-122.61061300666542,53.89110225544743],[-122.60762241132323,53.8910914158589],[-122.60455856762387,53.89109132224401],[-122.60462581541911,53.898259604430734],[-122.60461475391723,53.898514040106015],[-122.60446144925788,53.90555125923619],[-122.60443407502716,53.91284512702289],[-122.6166305896259,53.91288452103351],[-122.61663509639743,53.91573349601692],[-122.61663734227835,53.91715047790981],[-122.61666117907956,53.92001685959722],[-122.61666200559618,53.92020920756037],[-122.63457961549634,53.92017733824554],[-122.64034818565547,53.92016347316577],[-122.64035758507977,53.92124899306887],[-122.64105012381968,53.92124728991684],[-122.64120241211002,53.92124693604908],[-122.64120539967945,53.92151828641666],[-122.64122937767546,53.9228774559049],[-122.64126601602841,53.92496253164439],[-122.64125687831921,53.925548707186074],[-122.64124543272763,53.92627967378597],[-122.64122960679347,53.92729051605759],[-122.65024511982854,53.927256609034046],[-122.65025121112512,53.93168683094117],[-122.65055761126784,53.93168474768231],[-122.655007063335,53.93166587306738],[-122.66251240541875,53.93161410467271],[-122.66337388461508,53.93160884631016],[-122.6637610391891,53.93160647929707],[-122.66417568658034,53.931603945228524],[-122.66565698099143,53.93159488315881],[-122.66724339045959,53.9315828583699],[-122.66725605323364,53.93077985455624],[-122.6672529570865,53.92954352090124],[-122.66725190276945,53.92912214735764],[-122.66565899993732,53.92868900005869],[-122.66499799984105,53.92706699965101],[-122.66478600044789,53.924569999633064],[-122.66764200019205,53.9216159997527],[-122.67017599961572,53.91979899976471],[-122.6731509997232,53.91791799963227],[-122.6775580005508,53.91551699992764],[-122.68257099928617,53.91453699970241],[-122.68791500073183,53.914617999969806],[-122.6927630004362,53.91513700014226],[-122.69716999973679,53.915784999699966],[-122.70190800021636,53.91649799963863],[-122.70565399945238,53.91740599969783],[-122.70940000052136,53.91805399956228],[-122.71259500040561,53.91857199960793],[-122.71658900046255,53.91717299982257],[-122.72114800062353,53.914064999920306],[-122.72453599931261,53.91171299955277],[-122.72540400060208,53.91089399986287],[-122.72644399994263,53.90928299980196],[-122.72788899966575,53.90792099980772],[-122.72861700043818,53.90723599965242],[-122.72941599944475,53.90648300015636],[-122.73033299974692,53.90546799955625],[-122.73206800070606,53.903696999664874],[-122.73316299964586,53.90243899994621],[-122.74079899926433,53.902561000346616],[-122.74141200058408,53.90221099998921],[-122.74184599953958,53.902473000190454],[-122.74241699943123,53.90247399995845],[-122.74281200050825,53.902208000095094],[-122.74281199931205,53.902201999642024],[-122.74281700002724,53.9004539995921],[-122.74293099940138,53.9003940001095],[-122.74322800073841,53.900329000049254],[-122.74354000009134,53.90021399995661],[-122.74433600015479,53.89987599962524],[-122.7446720005104,53.8996789998593],[-122.7454350006736,53.899229999956574],[-122.74541499929113,53.89844699993219],[-122.74543700037331,53.897229000154375],[-122.7474670003679,53.89723000000427],[-122.74746399958975,53.89639000006478],[-122.74746499947094,53.896311999838815],[-122.74743700007508,53.89503299974896],[-122.74939999947917,53.89502100004105],[-122.74938799932829,53.8944079998998],[-122.74942399976229,53.89359000034248],[-122.74943700027433,53.89333600028205],[-122.74963799995551,53.89333000028673],[-122.7506570004857,53.89314500021768],[-122.7508599996531,53.89313600030307],[-122.75137299928333,53.89316200033202],[-122.75226799925919,53.89343400043466],[-122.75272300002743,53.89351100023366],[-122.75399600044695,53.893794000100684],[-122.7551529995945,53.89400600008617],[-122.75515399925358,53.894056000240454],[-122.75515600016305,53.89440200040179],[-122.75516600036089,53.89525600003678],[-122.75517700025515,53.8960200001559],[-122.75515900059277,53.89644199963144],[-122.75521299954315,53.897700999753496],[-122.75582100036425,53.897684000025514],[-122.75655100050983,53.89778400001773],[-122.7577050004962,53.898245000434535],[-122.75923000059943,53.89934700018889],[-122.75980900021017,53.900248000016745],[-122.76001999983062,53.90033900030969],[-122.76060000075674,53.900348999712264],[-122.76059499966742,53.900668999945196],[-122.76057300016134,53.90225999988107],[-122.76541000049656,53.90225300035952],[-122.76584599933794,53.90226099961172],[-122.76596199991121,53.90226300001506],[-122.76695400042455,53.90226400007521],[-122.76696099935207,53.90504300020368],[-122.77150400009485,53.90503999978814],[-122.77151400071688,53.9053540003886],[-122.77188600075355,53.905397999653445],[-122.7741180003948,53.905009999862386],[-122.77451199928862,53.904997999774835],[-122.77680900033833,53.90511300012965],[-122.77751100067213,53.90508499995872],[-122.77795099952664,53.904975000363535],[-122.77832500058075,53.90478599973102],[-122.77956100052607,53.90363499996179],[-122.78024899955241,53.903078999882446],[-122.78049300065143,53.90299900013952],[-122.78084300071468,53.902989999739575],[-122.78118000022587,53.903199000366605],[-122.78118000058275,53.90359300017599],[-122.78158500070393,53.903595000371084],[-122.78170499997661,53.90359399980322],[-122.78170399929846,53.907282000382835],[-122.78170000022908,53.91028600005575],[-122.7816919993191,53.91034899998824],[-122.78178700008523,53.91035099993224],[-122.78223899958665,53.91035299967075],[-122.78469899993323,53.91032399979317],[-122.78530599996601,53.91030899970327],[-122.78917900042218,53.91031299980192],[-122.79066000075397,53.91031500019882],[-122.7910960001974,53.91031499997923],[-122.79501500000629,53.91035299979509],[-122.79642999934333,53.91036100013976],[-122.7973439994144,53.91035499970715],[-122.79746800068536,53.91035700023078],[-122.79756799990048,53.91035899971498],[-122.80065300050805,53.910382999592684],[-122.80447899934113,53.91034500038733],[-122.80694700052568,53.910353999755266],[-122.80714000028928,53.910358000374636],[-122.8114679994461,53.910365000012305],[-122.81169200059351,53.91035899961563],[-122.8125050005667,53.910343999751476],[-122.81306000022659,53.91033499971745],[-122.81370199960942,53.91026699962671],[-122.81429799977786,53.91012100023365],[-122.81453599924694,53.910055999630735],[-122.8148599998383,53.90989899989218],[-122.81518400013078,53.90971600039189],[-122.81551899975368,53.90943300038735],[-122.81574499980253,53.90914899994413],[-122.81585499927124,53.90890400022775],[-122.81590699994963,53.90871999981133],[-122.81590099992124,53.90835500039336],[-122.81584899959593,53.90815800013877],[-122.81567000037589,53.90777600035807],[-122.8148049992759,53.906342000442415],[-122.81455099956031,53.90575500003097],[-122.81421500027636,53.904943999903594],[-122.81362100037366,53.90311699974159],[-122.8136879995016,53.90311000044015],[-122.83152599970722,53.90310500032748],[-122.83132199949941,53.900843000063276],[-122.83143300024568,53.89610599976557],[-122.83192399994559,53.89495599999749],[-122.84901000059624,53.89491600006228],[-122.8489400000066,53.90277499964187],[-122.88985648481348,53.90281110674353],[-122.88988328946613,53.897784166063495],[-122.88988464948206,53.896398655154584],[-122.8898933631035,53.88741057777316],[-122.88989728712441,53.88331192905565],[-122.88993583941661,53.878422517817086],[-122.88994796352752,53.87689290954427]]]},"properties":{"OBJECTID":16,"SchoolNam":"Prince George Secondary"}},{"type":"Feature","id":18,"geometry":{"type":"Polygon","coordinates":[[[-122.73409987094423,53.81257062624957],[-122.73390000061552,53.812904999947975],[-122.73100800053045,53.81600799971336],[-122.72996199993544,53.818930999692405],[-122.7296130000266,53.82061900020233],[-122.72980499930212,53.82258599973796],[-122.73053499982339,53.82464799991756],[-122.73191299953528,53.82606100031654],[-122.73450599968966,53.827472999581985],[-122.73774699984257,53.82915399955092],[-122.7436619998757,53.831139000386486],[-122.74739000022849,53.83278000002464],[-122.74826099998685,53.83407300015008],[-122.74882299931788,53.83552100015321],[-122.74875299984825,53.838334999948295],[-122.7486119992771,53.84036300017953],[-122.74764200064178,53.844712999995096],[-122.74693600025708,53.845355999642244],[-122.74672699944232,53.84667200021956],[-122.74609900021153,53.848111999627605],[-122.74554099963436,53.84959299962486],[-122.74512200064562,53.85095000001107],[-122.74498299949896,53.85288399971321],[-122.7451120005104,53.853557000217876],[-122.74526200040934,53.8544060000725],[-122.74519199960693,53.85576300022642],[-122.74533200026185,53.85674999973133],[-122.74595599997042,53.85796200032778],[-122.74675800011582,53.86073899970872],[-122.74766499951673,53.86234299974309],[-122.74828200030544,53.863642000004475],[-122.74919999932365,53.865367000050206],[-122.75001400021384,53.86604000035415],[-122.75094299971717,53.86727999999022],[-122.75296600054875,53.86884300040324],[-122.75527000013328,53.871138999790965],[-122.755637000544,53.87150199994774],[-122.75650900061332,53.87302300044738],[-122.75749299966078,53.874354000174705],[-122.76271100066322,53.87436500026635],[-122.76359600000653,53.87546699955644],[-122.76496599974602,53.87622100023041],[-122.76786699944952,53.87706199991131],[-122.7695540007095,53.87726299991394],[-122.77046100035672,53.87740600044879],[-122.77058799990807,53.877417999694735],[-122.77079099929485,53.87692999976618],[-122.77122600044595,53.87644400038081],[-122.77158800032899,53.87613200004882],[-122.77193500061195,53.8759149997762],[-122.77214799976865,53.87581999980828],[-122.77245099961537,53.87570899956683],[-122.77286499963769,53.87558600007357],[-122.77337900021355,53.87552099961587],[-122.77442300039131,53.875476999886374],[-122.77487199996493,53.87544099958828],[-122.77527599926961,53.87540099994371],[-122.77572600031235,53.87531199984074],[-122.7764190001247,53.875087999842066],[-122.77699899965152,53.87482599987996],[-122.7775609998614,53.874463999604856],[-122.77810200008442,53.873976000041786],[-122.77838999950919,53.8736280003513],[-122.7784729994311,53.87349400034911],[-122.77893500076028,53.87257699963185],[-122.77969300062723,53.870863000365475],[-122.78040799973365,53.86927100034707],[-122.78043900042482,53.869197999703424],[-122.78048100015411,53.86914199955151],[-122.78066099998526,53.86878400043911],[-122.78106599948802,53.86821699977468],[-122.78156999994448,53.86779700001624],[-122.78211099954663,53.86742400044478],[-122.782551000413,53.86719599996804],[-122.78312999943583,53.86692100026308],[-122.78400700046008,53.86662200037995],[-122.78422400070207,53.86656299977034],[-122.79163499951345,53.86505100039387],[-122.79544599937171,53.864288999955235],[-122.79621800045359,53.864065999794434],[-122.79705500033343,53.86371899995101],[-122.79859299934326,53.86293499990416],[-122.79940899963316,53.86249599968504],[-122.79941000049065,53.86256999982629],[-122.79944099995083,53.87098900030981],[-122.80035599954368,53.87137100033768],[-122.80155299965307,53.87182899972427],[-122.80218599978338,53.872038999649774],[-122.80330300057695,53.872601000442856],[-122.80428799932344,53.87340800040663],[-122.80476700070619,53.87410799982919],[-122.80644300057293,53.87679800037533],[-122.8075989998935,53.87676399979893],[-122.86232699974563,53.876860999657616],[-122.88994796352752,53.87689290954427],[-122.88995471934028,53.876040425992514],[-122.89001267647366,53.8738415377764],[-122.89778470056625,53.87382610811736],[-122.8977449003219,53.86944131209464],[-122.8976731560063,53.861555600851275],[-122.89766311952705,53.86045311710514],[-122.89765306051602,53.85934137535727],[-122.89763282665521,53.852431357772964],[-122.88153951893955,53.852515968700644],[-122.88153386359568,53.85145013974132],[-122.88152168464231,53.84494289441492],[-122.88152017770608,53.84246197235245],[-122.88151713029812,53.838050317808694],[-122.88152442489883,53.83347380912563],[-122.88152855336504,53.83082626501281],[-122.88153869390995,53.824485651239534],[-122.88154019329907,53.82357711764632],[-122.88154442700618,53.82233465735282],[-122.88608792077171,53.82105521131097],[-122.88609722860323,53.81919143725571],[-122.88155077056724,53.82047324492736],[-122.88156466643613,53.816353293899674],[-122.87850603098,53.81631873144033],[-122.86933000359969,53.81621462093126],[-122.85713248313569,53.81607513082836],[-122.84871527073624,53.816046034371745],[-122.84839980400939,53.8160449260363],[-122.84839068920041,53.816045354938794],[-122.84839073087069,53.815949639604604],[-122.84812963642835,53.81594966886127],[-122.82421862518545,53.815951069831634],[-122.8177521513138,53.81595203485103],[-122.81195293702149,53.81595213520227],[-122.8095402270034,53.815950647688574],[-122.80766332590804,53.81595345038594],[-122.80581819798563,53.815953264103584],[-122.80410065548337,53.81595307810084],[-122.80375890668978,53.815953508215],[-122.79972780440546,53.81595537570972],[-122.78749134523676,53.815944847657235],[-122.77525484796003,53.81594204156476],[-122.75699728759487,53.815928107374916],[-122.73358036705059,53.815921896941695],[-122.73181366050268,53.81592124084804],[-122.73229463679367,53.81525723148962],[-122.73424888125366,53.81265478428931],[-122.73428133058663,53.812571768986345],[-122.73409987094423,53.81257062624957]]]},"properties":{"OBJECTID":18,"SchoolNam":"College Heights Secondary"}},{"type":"Feature","id":22,"geometry":{"type":"Polygon","coordinates":[[[-122.88985648481348,53.90281110674353],[-122.8489400000066,53.90277499964187],[-122.84901000059624,53.89491600006228],[-122.83192399994559,53.89495599999749],[-122.83143300024568,53.89610599976557],[-122.83132199949941,53.900843000063276],[-122.83152599970722,53.90310500032748],[-122.8136879995016,53.90311000044015],[-122.81362100037366,53.90311699974159],[-122.81421500027636,53.904943999903594],[-122.81455099956031,53.90575500003097],[-122.8148049992759,53.906342000442415],[-122.81567000037589,53.90777600035807],[-122.81584899959593,53.90815800013877],[-122.81590099992124,53.90835500039336],[-122.81590699994963,53.90871999981133],[-122.81585499927124,53.90890400022775],[-122.81574499980253,53.90914899994413],[-122.81551899975368,53.90943300038735],[-122.81518400013078,53.90971600039189],[-122.8148599998383,53.90989899989218],[-122.81453599924694,53.910055999630735],[-122.81429799977786,53.91012100023365],[-122.81370199960942,53.91026699962671],[-122.81306000022659,53.91033499971745],[-122.8125050005667,53.910343999751476],[-122.81169200059351,53.91035899961563],[-122.8114679994461,53.910365000012305],[-122.80714000028928,53.910358000374636],[-122.80694700052568,53.910353999755266],[-122.80447899934113,53.91034500038733],[-122.80065300050805,53.910382999592684],[-122.79756799990048,53.91035899971498],[-122.79746800068536,53.91035700023078],[-122.7973439994144,53.91035499970715],[-122.79642999934333,53.91036100013976],[-122.79501500000629,53.91035299979509],[-122.7910960001974,53.91031499997923],[-122.79066000075397,53.91031500019882],[-122.78917900042218,53.91031299980192],[-122.78530599996601,53.91030899970327],[-122.78469899993323,53.91032399979317],[-122.78223899958665,53.91035299967075],[-122.78178700008523,53.91035099993224],[-122.7816919993191,53.91034899998824],[-122.78169699951059,53.9104179997243],[-122.78170200028768,53.91146599998216],[-122.78167799964707,53.91315999982598],[-122.78168500046709,53.91440300024132],[-122.78168300040116,53.91541400028844],[-122.78168000070626,53.91647299999805],[-122.78167700038634,53.919162999926975],[-122.78169199931068,53.92056699962303],[-122.7816779993134,53.92065700035056],[-122.78167099985019,53.923047999944274],[-122.78165899948604,53.92363299970721],[-122.78164800001733,53.92408799984955],[-122.78130800000643,53.92520799975345],[-122.78076799985124,53.9264169999732],[-122.78053499935318,53.9270279998987],[-122.7800229996773,53.92693599995801],[-122.77666300026706,53.92648099977294],[-122.77225600064462,53.926967999849964],[-122.76851000049365,53.927195000449665],[-122.7668559993975,53.92715299980576],[-122.7639930001069,53.927162999815366],[-122.75980599931088,53.92735699989905],[-122.75418699947636,53.92735699957345],[-122.75068399987448,53.927352000194816],[-122.74630900075763,53.92706399993635],[-122.74289399970628,53.92703200039879],[-122.7390379995057,53.926934999967415],[-122.73441000000295,53.92696700035897],[-122.73143500002091,53.92693500000659],[-122.73019500027755,53.92742099957763],[-122.72643300045766,53.92818899962613],[-122.72407900030227,53.92717700005916],[-122.7228129998229,53.92641599969466],[-122.72123800048448,53.92627199965225],[-122.71774499955792,53.92579899983342],[-122.71606799999293,53.9251839998788],[-122.71551000008041,53.92439599999063],[-122.71529799960322,53.92344900035813],[-122.71275999946549,53.92051000003668],[-122.71259500040561,53.91857199960793],[-122.70940000052136,53.91805399956228],[-122.70565399945238,53.91740599969783],[-122.70190800021636,53.91649799963863],[-122.69716999973679,53.915784999699966],[-122.6927630004362,53.91513700014226],[-122.68791500073183,53.914617999969806],[-122.68257099928617,53.91453699970241],[-122.6775580005508,53.91551699992764],[-122.6731509997232,53.91791799963227],[-122.67017599961572,53.91979899976471],[-122.66764200019205,53.9216159997527],[-122.66478600044789,53.924569999633064],[-122.66499799984105,53.92706699965101],[-122.66565899993732,53.92868900005869],[-122.66835099932753,53.929420999892834],[-122.67260000014893,53.929921000415035],[-122.67733799971488,53.92972599977844],[-122.68416900028502,53.9290780002485],[-122.6891269997786,53.92992099985747],[-122.69474600029807,53.93076499976882],[-122.69671100035119,53.931379999874345],[-122.75903000009568,53.93141300011793],[-122.75904000062056,53.9333280001851],[-122.75827399985424,53.93417099997445],[-122.75799500054373,53.93505199958346],[-122.75809599952704,53.935906000238674],[-122.75895900016208,53.93708499993687],[-122.75899199968671,53.93720299997555],[-122.75958600022923,53.9379520002592],[-122.75985999966271,53.93828999960695],[-122.76032899943107,53.93911400020366],[-122.76055800043443,53.9396680001688],[-122.76076400023018,53.94061999958355],[-122.76096599994969,53.94261100034989],[-122.76119499983473,53.942707999800625],[-122.76896400028203,53.94270800016221],[-122.77726800004321,53.94270399990706],[-122.7771579997964,53.95133299978075],[-122.78839599979766,53.95126899966323],[-122.78842100016772,53.9620560000948],[-122.79530700020524,53.96734300007984],[-122.79644199938309,53.96603299959982],[-122.79790900057931,53.96517199994779],[-122.79966499967522,53.96459099990288],[-122.80070199946759,53.964412999665456],[-122.80238000024268,53.96429000041123],[-122.80605400048658,53.96418799965458],[-122.80745599947076,53.96406499963127],[-122.80951600032348,53.96377999956522],[-122.81093500002585,53.96337799967537],[-122.81179000031207,53.96296599967569],[-122.81269300001337,53.96212299996429],[-122.81273299997459,53.96760900040591],[-122.82573199971802,53.96760900031919],[-122.8257979993611,53.98130499968482],[-122.85016500055706,53.98129499992282],[-122.8993854040492,53.98132557297423],[-122.89937097432015,53.978399806310705],[-122.89919510805251,53.97836137023714],[-122.89903651459537,53.978305332027546],[-122.89875113165294,53.9781885990529],[-122.89846575026274,53.97807188337491],[-122.8978676503749,53.97792073844185],[-122.89744368242305,53.97783130674791],[-122.89722702007471,53.97776721729447],[-122.89663466123855,53.97764104865238],[-122.89578102523882,53.977490760799384],[-122.89534157374744,53.97737740028741],[-122.89527619680536,53.977363717592816],[-122.89527636752351,53.97729564296061],[-122.8952775946945,53.97680629472665],[-122.89527111249389,53.9763511748656],[-122.89518761991312,53.96830760247493],[-122.89513716625937,53.96199017173556],[-122.88997325749644,53.96198986830815],[-122.8899338164717,53.95931492788802],[-122.88987913968593,53.95559923510396],[-122.88989485827031,53.95032690154101],[-122.88981280133382,53.94133882212193],[-122.88981182621865,53.94113074877033],[-122.88977037736693,53.93235076548068],[-122.88974361020269,53.92667299415705],[-122.88975796742318,53.923362713852086],[-122.88979701849539,53.91437470491172],[-122.88980638751907,53.9122038290248],[-122.88984274738577,53.90538668855948],[-122.88985648481348,53.90281110674353]]]},"properties":{"OBJECTID":22,"SchoolNam":"DP Todd Secondary"}}]}
